<?xml version="1.0" encoding="UTF-8"?>
<kml xmlns="http://www.opengis.net/kml/2.2">
  <Document>
    <name>Автобусный маршрут №7 Харьков (Восточная - 12 Апреля) kharkiv.inform.city</name>
    <description>Подробно https://kharkiv.inform.city/-ru/-tr/tr_city/tr_city_a/ </description>
    <Style id="icon-1499-000000-normal">
      <IconStyle>
        <color>ff000000</color>
        <scale>1</scale>
        <Icon>
          <href>https://www.gstatic.com/mapspro/images/stock/503-wht-blank_maps.png</href>
        </Icon>
      </IconStyle>
      <LabelStyle>
        <scale>0</scale>
      </LabelStyle>
    </Style>
    <Style id="icon-1499-000000-highlight">
      <IconStyle>
        <color>ff000000</color>
        <scale>1</scale>
        <Icon>
          <href>https://www.gstatic.com/mapspro/images/stock/503-wht-blank_maps.png</href>
        </Icon>
      </IconStyle>
      <LabelStyle>
        <scale>1</scale>
      </LabelStyle>
    </Style>
    <StyleMap id="icon-1499-000000">
      <Pair>
        <key>normal</key>
        <styleUrl>#icon-1499-000000-normal</styleUrl>
      </Pair>
      <Pair>
        <key>highlight</key>
        <styleUrl>#icon-1499-000000-highlight</styleUrl>
      </Pair>
    </StyleMap>
    <Style id="icon-1499-A52714-normal">
      <IconStyle>
        <color>ff1427a5</color>
        <scale>1</scale>
        <Icon>
          <href>https://www.gstatic.com/mapspro/images/stock/503-wht-blank_maps.png</href>
        </Icon>
      </IconStyle>
      <LabelStyle>
        <scale>0</scale>
      </LabelStyle>
    </Style>
    <Style id="icon-1499-A52714-highlight">
      <IconStyle>
        <color>ff1427a5</color>
        <scale>1</scale>
        <Icon>
          <href>https://www.gstatic.com/mapspro/images/stock/503-wht-blank_maps.png</href>
        </Icon>
      </IconStyle>
      <LabelStyle>
        <scale>1</scale>
      </LabelStyle>
    </Style>
    <StyleMap id="icon-1499-A52714">
      <Pair>
        <key>normal</key>
        <styleUrl>#icon-1499-A52714-normal</styleUrl>
      </Pair>
      <Pair>
        <key>highlight</key>
        <styleUrl>#icon-1499-A52714-highlight</styleUrl>
      </Pair>
    </StyleMap>
    <Style id="icon-1532-000000-normal">
      <IconStyle>
        <color>ff000000</color>
        <scale>1</scale>
        <Icon>
          <href>https://www.gstatic.com/mapspro/images/stock/503-wht-blank_maps.png</href>
        </Icon>
      </IconStyle>
      <LabelStyle>
        <scale>0</scale>
      </LabelStyle>
    </Style>
    <Style id="icon-1532-000000-highlight">
      <IconStyle>
        <color>ff000000</color>
        <scale>1</scale>
        <Icon>
          <href>https://www.gstatic.com/mapspro/images/stock/503-wht-blank_maps.png</href>
        </Icon>
      </IconStyle>
      <LabelStyle>
        <scale>1</scale>
      </LabelStyle>
    </Style>
    <StyleMap id="icon-1532-000000">
      <Pair>
        <key>normal</key>
        <styleUrl>#icon-1532-000000-normal</styleUrl>
      </Pair>
      <Pair>
        <key>highlight</key>
        <styleUrl>#icon-1532-000000-highlight</styleUrl>
      </Pair>
    </StyleMap>
    <Style id="icon-1532-A52714-normal">
      <IconStyle>
        <color>ff1427a5</color>
        <scale>1</scale>
        <Icon>
          <href>https://www.gstatic.com/mapspro/images/stock/503-wht-blank_maps.png</href>
        </Icon>
      </IconStyle>
      <LabelStyle>
        <scale>0</scale>
      </LabelStyle>
    </Style>
    <Style id="icon-1532-A52714-highlight">
      <IconStyle>
        <color>ff1427a5</color>
        <scale>1</scale>
        <Icon>
          <href>https://www.gstatic.com/mapspro/images/stock/503-wht-blank_maps.png</href>
        </Icon>
      </IconStyle>
      <LabelStyle>
        <scale>1</scale>
      </LabelStyle>
    </Style>
    <StyleMap id="icon-1532-A52714">
      <Pair>
        <key>normal</key>
        <styleUrl>#icon-1532-A52714-normal</styleUrl>
      </Pair>
      <Pair>
        <key>highlight</key>
        <styleUrl>#icon-1532-A52714-highlight</styleUrl>
      </Pair>
    </StyleMap>
    <Style id="icon-1626-000000-normal">
      <IconStyle>
        <color>ff000000</color>
        <scale>1</scale>
        <Icon>
          <href>https://www.gstatic.com/mapspro/images/stock/503-wht-blank_maps.png</href>
        </Icon>
      </IconStyle>
      <LabelStyle>
        <scale>0</scale>
      </LabelStyle>
    </Style>
    <Style id="icon-1626-000000-highlight">
      <IconStyle>
        <color>ff000000</color>
        <scale>1</scale>
        <Icon>
          <href>https://www.gstatic.com/mapspro/images/stock/503-wht-blank_maps.png</href>
        </Icon>
      </IconStyle>
      <LabelStyle>
        <scale>1</scale>
      </LabelStyle>
    </Style>
    <StyleMap id="icon-1626-000000">
      <Pair>
        <key>normal</key>
        <styleUrl>#icon-1626-000000-normal</styleUrl>
      </Pair>
      <Pair>
        <key>highlight</key>
        <styleUrl>#icon-1626-000000-highlight</styleUrl>
      </Pair>
    </StyleMap>
    <Style id="icon-1626-A52714-normal">
      <IconStyle>
        <color>ff1427a5</color>
        <scale>1</scale>
        <Icon>
          <href>https://www.gstatic.com/mapspro/images/stock/503-wht-blank_maps.png</href>
        </Icon>
      </IconStyle>
      <LabelStyle>
        <scale>0</scale>
      </LabelStyle>
    </Style>
    <Style id="icon-1626-A52714-highlight">
      <IconStyle>
        <color>ff1427a5</color>
        <scale>1</scale>
        <Icon>
          <href>https://www.gstatic.com/mapspro/images/stock/503-wht-blank_maps.png</href>
        </Icon>
      </IconStyle>
      <LabelStyle>
        <scale>1</scale>
      </LabelStyle>
    </Style>
    <StyleMap id="icon-1626-A52714">
      <Pair>
        <key>normal</key>
        <styleUrl>#icon-1626-A52714-normal</styleUrl>
      </Pair>
      <Pair>
        <key>highlight</key>
        <styleUrl>#icon-1626-A52714-highlight</styleUrl>
      </Pair>
    </StyleMap>
    <Style id="line-000000-5069-nodesc-normal">
      <LineStyle>
        <color>ff000000</color>
        <width>5.069</width>
      </LineStyle>
      <BalloonStyle>
        <text><![CDATA[<h3>$[name]</h3>]]></text>
      </BalloonStyle>
    </Style>
    <Style id="line-000000-5069-nodesc-highlight">
      <LineStyle>
        <color>ff000000</color>
        <width>7.6035</width>
      </LineStyle>
      <BalloonStyle>
        <text><![CDATA[<h3>$[name]</h3>]]></text>
      </BalloonStyle>
    </Style>
    <StyleMap id="line-000000-5069-nodesc">
      <Pair>
        <key>normal</key>
        <styleUrl>#line-000000-5069-nodesc-normal</styleUrl>
      </Pair>
      <Pair>
        <key>highlight</key>
        <styleUrl>#line-000000-5069-nodesc-highlight</styleUrl>
      </Pair>
    </StyleMap>
    <Style id="line-A52714-5456-nodesc-normal">
      <LineStyle>
        <color>ff1427a5</color>
        <width>5.456</width>
      </LineStyle>
      <BalloonStyle>
        <text><![CDATA[<h3>$[name]</h3>]]></text>
      </BalloonStyle>
    </Style>
    <Style id="line-A52714-5456-nodesc-highlight">
      <LineStyle>
        <color>ff1427a5</color>
        <width>8.184</width>
      </LineStyle>
      <BalloonStyle>
        <text><![CDATA[<h3>$[name]</h3>]]></text>
      </BalloonStyle>
    </Style>
    <StyleMap id="line-A52714-5456-nodesc">
      <Pair>
        <key>normal</key>
        <styleUrl>#line-A52714-5456-nodesc-normal</styleUrl>
      </Pair>
      <Pair>
        <key>highlight</key>
        <styleUrl>#line-A52714-5456-nodesc-highlight</styleUrl>
      </Pair>
    </StyleMap>
    <Folder>
      <name>Маршрут туда</name>
      <Placemark>
        <name>Линия маршрута</name>
        <styleUrl>#line-A52714-5456-nodesc</styleUrl>
        <LineString>
          <tessellate>1</tessellate>
          <coordinates>
            36.4103999,49.9343322,0
            36.4104619,49.9344142,0
            36.4084556,49.9350426,0
            36.408756,49.9353948,0
            36.4093085,49.9361164,0
            36.410022,49.9369762,0
            36.4113255,49.9383987,0
            36.4114436,49.9385402,0
            36.412731,49.9402112,0
            36.4130958,49.9406221,0
            36.4127847,49.9407187,0
            36.4081659,49.9422274,0
            36.4046629,49.943346,0
            36.400189,49.9447407,0
            36.3971903,49.9456865,0
            36.3931616,49.9470294,0
            36.3923838,49.9472296,0
            36.3918634,49.9474022,0
            36.3915845,49.9474885,0
            36.3903775,49.9478164,0
            36.3902058,49.9476404,0
            36.3903024,49.9473193,0
            36.3905599,49.9467429,0
            36.3908603,49.9466255,0
            36.3910749,49.9466324,0
            36.3916435,49.9474022,0
            36.392416,49.9471467,0
            36.3926275,49.947089,0
          </coordinates>
        </LineString>
      </Placemark>
      <Placemark>
        <name>Остановка Восточная
</name>
        <description>Автобус-7.</description>
        <styleUrl>#icon-1499-A52714</styleUrl>
        <Point>
          <coordinates>
            36.4103591,49.9342722,0
          </coordinates>
        </Point>
      </Placemark>
      <Placemark>
        <name>Остановка ул. Мира
</name>
        <description>Автобус - 7.</description>
        <styleUrl>#icon-1532-A52714</styleUrl>
        <Point>
          <coordinates>
            36.4116521,49.9387267,0
          </coordinates>
        </Point>
      </Placemark>
      <Placemark>
        <name>Остановка ул. Плиточная
</name>
        <description>Автобус - 7. Троллейбус-46, 53.</description>
        <styleUrl>#icon-1532-A52714</styleUrl>
        <Point>
          <coordinates>
            36.4121345,49.9410265,0
          </coordinates>
        </Point>
      </Placemark>
      <Placemark>
        <name>Станция метро Индустриальная </name>
        <description>Автобус - 7. Троллейбус-45, 46, 51, 52, 53.</description>
        <styleUrl>#icon-1626-A52714</styleUrl>
        <Point>
          <coordinates>
            36.3982291,49.9454626,0
          </coordinates>
        </Point>
      </Placemark>
      <Placemark>
        <name>Остановка ул. 12 Апреля
</name>
        <description>Автобус - 7. Троллейбус-46, 53.</description>
        <styleUrl>#icon-1532-A52714</styleUrl>
        <Point>
          <coordinates>
            36.3911738,49.9469164,0
          </coordinates>
        </Point>
      </Placemark>
    </Folder>
    <Folder>
      <name>Маршрут обратно</name>
      <Placemark>
        <name>Линия маршута</name>
        <styleUrl>#line-000000-5069-nodesc</styleUrl>
        <LineString>
          <tessellate>1</tessellate>
          <coordinates>
            36.3926275,49.947089,0
            36.3930943,49.9469751,0
            36.3939257,49.9466886,0
            36.3955833,49.9461397,0
            36.3973804,49.9455597,0
            36.3974233,49.9454527,0
            36.3974823,49.9453768,0
            36.3977881,49.9452594,0
            36.3980939,49.94518,0
            36.3983621,49.9451179,0
            36.3987966,49.9450833,0
            36.3989844,49.9450764,0
            36.3992365,49.9449625,0
            36.4037265,49.9435471,0
            36.4074226,49.9423734,0
            36.4126583,49.9406748,0
            36.4128568,49.9405125,0
            36.4125081,49.9400672,0
            36.4113279,49.9385446,0
            36.4111562,49.9383512,0
            36.4096649,49.9367216,0
            36.4092841,49.9362313,0
            36.4083077,49.9350263,0
            36.4097347,49.9345947,0
            36.4097186,49.9345291,0
            36.4096971,49.9344358,0
            36.4097186,49.9343046,0
            36.4098742,49.9342563,0
            36.4100351,49.9342079,0
            36.4102175,49.9342148,0
            36.4103087,49.9342666,0
            36.4103999,49.9343322,0
          </coordinates>
        </LineString>
      </Placemark>
      <Placemark>
        <name>Станция метро Индустриальная
</name>
        <description>Автобус - 7. Троллейбус-46, 53.</description>
        <styleUrl>#icon-1626-000000</styleUrl>
        <Point>
          <coordinates>
            36.3978983,49.9451604,0
          </coordinates>
        </Point>
      </Placemark>
      <Placemark>
        <name>Остановка ул. Мира
</name>
        <description>Автобус - 7.</description>
        <styleUrl>#icon-1532-000000</styleUrl>
        <Point>
          <coordinates>
            36.411004,49.9382156,0
          </coordinates>
        </Point>
      </Placemark>
      <Placemark>
        <name>Остановка Восточная
</name>
        <description>Автобус - 7.</description>
        <styleUrl>#icon-1532-000000</styleUrl>
        <Point>
          <coordinates>
            36.4096617,49.9343482,0
          </coordinates>
        </Point>
      </Placemark>
      <Placemark>
        <name>Остановка ул. Плиточная
</name>
        <description>Автобус - 7.</description>
        <styleUrl>#icon-1532-000000</styleUrl>
        <Point>
          <coordinates>
            36.4124992,49.9403878,0
          </coordinates>
        </Point>
      </Placemark>
      <Placemark>
        <name>Остановка ул. 12 Апреля
</name>
        <description>Автобус - 7. Маршрутка- 121э. Троллейбус-45, 46, 51, 52, 53.</description>
        <styleUrl>#icon-1499-000000</styleUrl>
        <Point>
          <coordinates>
            36.3925031,49.9470935,0
          </coordinates>
        </Point>
      </Placemark>
    </Folder>
  </Document>
</kml>
