<?xml version="1.0" encoding="UTF-8"?>
<kml xmlns="http://www.opengis.net/kml/2.2">
  <Document>
    <name>Автобусный маршрут №96 Харьков (м. Госпром - пос. Пятихатки) kharkiv.inform.city</name>
    <description>Более подробно https://kharkiv.inform.city/-ru/-tr/tr_city/tr_city_a/</description>
    <Style id="icon-1499-000000-normal">
      <IconStyle>
        <color>ff000000</color>
        <scale>1</scale>
        <Icon>
          <href>https://www.gstatic.com/mapspro/images/stock/503-wht-blank_maps.png</href>
        </Icon>
      </IconStyle>
      <LabelStyle>
        <scale>0</scale>
      </LabelStyle>
    </Style>
    <Style id="icon-1499-000000-highlight">
      <IconStyle>
        <color>ff000000</color>
        <scale>1</scale>
        <Icon>
          <href>https://www.gstatic.com/mapspro/images/stock/503-wht-blank_maps.png</href>
        </Icon>
      </IconStyle>
      <LabelStyle>
        <scale>1</scale>
      </LabelStyle>
    </Style>
    <StyleMap id="icon-1499-000000">
      <Pair>
        <key>normal</key>
        <styleUrl>#icon-1499-000000-normal</styleUrl>
      </Pair>
      <Pair>
        <key>highlight</key>
        <styleUrl>#icon-1499-000000-highlight</styleUrl>
      </Pair>
    </StyleMap>
    <Style id="icon-1499-A52714-normal">
      <IconStyle>
        <color>ff1427a5</color>
        <scale>1</scale>
        <Icon>
          <href>https://www.gstatic.com/mapspro/images/stock/503-wht-blank_maps.png</href>
        </Icon>
      </IconStyle>
      <LabelStyle>
        <scale>0</scale>
      </LabelStyle>
    </Style>
    <Style id="icon-1499-A52714-highlight">
      <IconStyle>
        <color>ff1427a5</color>
        <scale>1</scale>
        <Icon>
          <href>https://www.gstatic.com/mapspro/images/stock/503-wht-blank_maps.png</href>
        </Icon>
      </IconStyle>
      <LabelStyle>
        <scale>1</scale>
      </LabelStyle>
    </Style>
    <StyleMap id="icon-1499-A52714">
      <Pair>
        <key>normal</key>
        <styleUrl>#icon-1499-A52714-normal</styleUrl>
      </Pair>
      <Pair>
        <key>highlight</key>
        <styleUrl>#icon-1499-A52714-highlight</styleUrl>
      </Pair>
    </StyleMap>
    <Style id="icon-1522-000000-normal">
      <IconStyle>
        <color>ff000000</color>
        <scale>1</scale>
        <Icon>
          <href>https://www.gstatic.com/mapspro/images/stock/503-wht-blank_maps.png</href>
        </Icon>
      </IconStyle>
      <LabelStyle>
        <scale>0</scale>
      </LabelStyle>
    </Style>
    <Style id="icon-1522-000000-highlight">
      <IconStyle>
        <color>ff000000</color>
        <scale>1</scale>
        <Icon>
          <href>https://www.gstatic.com/mapspro/images/stock/503-wht-blank_maps.png</href>
        </Icon>
      </IconStyle>
      <LabelStyle>
        <scale>1</scale>
      </LabelStyle>
    </Style>
    <StyleMap id="icon-1522-000000">
      <Pair>
        <key>normal</key>
        <styleUrl>#icon-1522-000000-normal</styleUrl>
      </Pair>
      <Pair>
        <key>highlight</key>
        <styleUrl>#icon-1522-000000-highlight</styleUrl>
      </Pair>
    </StyleMap>
    <Style id="icon-1522-A52714-normal">
      <IconStyle>
        <color>ff1427a5</color>
        <scale>1</scale>
        <Icon>
          <href>https://www.gstatic.com/mapspro/images/stock/503-wht-blank_maps.png</href>
        </Icon>
      </IconStyle>
      <LabelStyle>
        <scale>0</scale>
      </LabelStyle>
    </Style>
    <Style id="icon-1522-A52714-highlight">
      <IconStyle>
        <color>ff1427a5</color>
        <scale>1</scale>
        <Icon>
          <href>https://www.gstatic.com/mapspro/images/stock/503-wht-blank_maps.png</href>
        </Icon>
      </IconStyle>
      <LabelStyle>
        <scale>1</scale>
      </LabelStyle>
    </Style>
    <StyleMap id="icon-1522-A52714">
      <Pair>
        <key>normal</key>
        <styleUrl>#icon-1522-A52714-normal</styleUrl>
      </Pair>
      <Pair>
        <key>highlight</key>
        <styleUrl>#icon-1522-A52714-highlight</styleUrl>
      </Pair>
    </StyleMap>
    <Style id="icon-1532-000000-normal">
      <IconStyle>
        <color>ff000000</color>
        <scale>1</scale>
        <Icon>
          <href>https://www.gstatic.com/mapspro/images/stock/503-wht-blank_maps.png</href>
        </Icon>
      </IconStyle>
      <LabelStyle>
        <scale>0</scale>
      </LabelStyle>
    </Style>
    <Style id="icon-1532-000000-highlight">
      <IconStyle>
        <color>ff000000</color>
        <scale>1</scale>
        <Icon>
          <href>https://www.gstatic.com/mapspro/images/stock/503-wht-blank_maps.png</href>
        </Icon>
      </IconStyle>
      <LabelStyle>
        <scale>1</scale>
      </LabelStyle>
    </Style>
    <StyleMap id="icon-1532-000000">
      <Pair>
        <key>normal</key>
        <styleUrl>#icon-1532-000000-normal</styleUrl>
      </Pair>
      <Pair>
        <key>highlight</key>
        <styleUrl>#icon-1532-000000-highlight</styleUrl>
      </Pair>
    </StyleMap>
    <Style id="icon-1532-A52714-normal">
      <IconStyle>
        <color>ff1427a5</color>
        <scale>1</scale>
        <Icon>
          <href>https://www.gstatic.com/mapspro/images/stock/503-wht-blank_maps.png</href>
        </Icon>
      </IconStyle>
      <LabelStyle>
        <scale>0</scale>
      </LabelStyle>
    </Style>
    <Style id="icon-1532-A52714-highlight">
      <IconStyle>
        <color>ff1427a5</color>
        <scale>1</scale>
        <Icon>
          <href>https://www.gstatic.com/mapspro/images/stock/503-wht-blank_maps.png</href>
        </Icon>
      </IconStyle>
      <LabelStyle>
        <scale>1</scale>
      </LabelStyle>
    </Style>
    <StyleMap id="icon-1532-A52714">
      <Pair>
        <key>normal</key>
        <styleUrl>#icon-1532-A52714-normal</styleUrl>
      </Pair>
      <Pair>
        <key>highlight</key>
        <styleUrl>#icon-1532-A52714-highlight</styleUrl>
      </Pair>
    </StyleMap>
    <Style id="icon-1600-000000-normal">
      <IconStyle>
        <color>ff000000</color>
        <scale>1</scale>
        <Icon>
          <href>https://www.gstatic.com/mapspro/images/stock/503-wht-blank_maps.png</href>
        </Icon>
      </IconStyle>
      <LabelStyle>
        <scale>0</scale>
      </LabelStyle>
    </Style>
    <Style id="icon-1600-000000-highlight">
      <IconStyle>
        <color>ff000000</color>
        <scale>1</scale>
        <Icon>
          <href>https://www.gstatic.com/mapspro/images/stock/503-wht-blank_maps.png</href>
        </Icon>
      </IconStyle>
      <LabelStyle>
        <scale>1</scale>
      </LabelStyle>
    </Style>
    <StyleMap id="icon-1600-000000">
      <Pair>
        <key>normal</key>
        <styleUrl>#icon-1600-000000-normal</styleUrl>
      </Pair>
      <Pair>
        <key>highlight</key>
        <styleUrl>#icon-1600-000000-highlight</styleUrl>
      </Pair>
    </StyleMap>
    <Style id="icon-1600-A52714-normal">
      <IconStyle>
        <color>ff1427a5</color>
        <scale>1</scale>
        <Icon>
          <href>https://www.gstatic.com/mapspro/images/stock/503-wht-blank_maps.png</href>
        </Icon>
      </IconStyle>
      <LabelStyle>
        <scale>0</scale>
      </LabelStyle>
    </Style>
    <Style id="icon-1600-A52714-highlight">
      <IconStyle>
        <color>ff1427a5</color>
        <scale>1</scale>
        <Icon>
          <href>https://www.gstatic.com/mapspro/images/stock/503-wht-blank_maps.png</href>
        </Icon>
      </IconStyle>
      <LabelStyle>
        <scale>1</scale>
      </LabelStyle>
    </Style>
    <StyleMap id="icon-1600-A52714">
      <Pair>
        <key>normal</key>
        <styleUrl>#icon-1600-A52714-normal</styleUrl>
      </Pair>
      <Pair>
        <key>highlight</key>
        <styleUrl>#icon-1600-A52714-highlight</styleUrl>
      </Pair>
    </StyleMap>
    <Style id="icon-1626-A52714-normal">
      <IconStyle>
        <color>ff1427a5</color>
        <scale>1</scale>
        <Icon>
          <href>https://www.gstatic.com/mapspro/images/stock/503-wht-blank_maps.png</href>
        </Icon>
      </IconStyle>
      <LabelStyle>
        <scale>0</scale>
      </LabelStyle>
    </Style>
    <Style id="icon-1626-A52714-highlight">
      <IconStyle>
        <color>ff1427a5</color>
        <scale>1</scale>
        <Icon>
          <href>https://www.gstatic.com/mapspro/images/stock/503-wht-blank_maps.png</href>
        </Icon>
      </IconStyle>
      <LabelStyle>
        <scale>1</scale>
      </LabelStyle>
    </Style>
    <StyleMap id="icon-1626-A52714">
      <Pair>
        <key>normal</key>
        <styleUrl>#icon-1626-A52714-normal</styleUrl>
      </Pair>
      <Pair>
        <key>highlight</key>
        <styleUrl>#icon-1626-A52714-highlight</styleUrl>
      </Pair>
    </StyleMap>
    <Style id="icon-1634-000000-normal">
      <IconStyle>
        <color>ff000000</color>
        <scale>1</scale>
        <Icon>
          <href>https://www.gstatic.com/mapspro/images/stock/503-wht-blank_maps.png</href>
        </Icon>
      </IconStyle>
      <LabelStyle>
        <scale>0</scale>
      </LabelStyle>
    </Style>
    <Style id="icon-1634-000000-highlight">
      <IconStyle>
        <color>ff000000</color>
        <scale>1</scale>
        <Icon>
          <href>https://www.gstatic.com/mapspro/images/stock/503-wht-blank_maps.png</href>
        </Icon>
      </IconStyle>
      <LabelStyle>
        <scale>1</scale>
      </LabelStyle>
    </Style>
    <StyleMap id="icon-1634-000000">
      <Pair>
        <key>normal</key>
        <styleUrl>#icon-1634-000000-normal</styleUrl>
      </Pair>
      <Pair>
        <key>highlight</key>
        <styleUrl>#icon-1634-000000-highlight</styleUrl>
      </Pair>
    </StyleMap>
    <Style id="icon-1634-A52714-normal">
      <IconStyle>
        <color>ff1427a5</color>
        <scale>1</scale>
        <Icon>
          <href>https://www.gstatic.com/mapspro/images/stock/503-wht-blank_maps.png</href>
        </Icon>
      </IconStyle>
      <LabelStyle>
        <scale>0</scale>
      </LabelStyle>
    </Style>
    <Style id="icon-1634-A52714-highlight">
      <IconStyle>
        <color>ff1427a5</color>
        <scale>1</scale>
        <Icon>
          <href>https://www.gstatic.com/mapspro/images/stock/503-wht-blank_maps.png</href>
        </Icon>
      </IconStyle>
      <LabelStyle>
        <scale>1</scale>
      </LabelStyle>
    </Style>
    <StyleMap id="icon-1634-A52714">
      <Pair>
        <key>normal</key>
        <styleUrl>#icon-1634-A52714-normal</styleUrl>
      </Pair>
      <Pair>
        <key>highlight</key>
        <styleUrl>#icon-1634-A52714-highlight</styleUrl>
      </Pair>
    </StyleMap>
    <Style id="icon-1662-000000-normal">
      <IconStyle>
        <color>ff000000</color>
        <scale>1</scale>
        <Icon>
          <href>https://www.gstatic.com/mapspro/images/stock/503-wht-blank_maps.png</href>
        </Icon>
      </IconStyle>
      <LabelStyle>
        <scale>0</scale>
      </LabelStyle>
    </Style>
    <Style id="icon-1662-000000-highlight">
      <IconStyle>
        <color>ff000000</color>
        <scale>1</scale>
        <Icon>
          <href>https://www.gstatic.com/mapspro/images/stock/503-wht-blank_maps.png</href>
        </Icon>
      </IconStyle>
      <LabelStyle>
        <scale>1</scale>
      </LabelStyle>
    </Style>
    <StyleMap id="icon-1662-000000">
      <Pair>
        <key>normal</key>
        <styleUrl>#icon-1662-000000-normal</styleUrl>
      </Pair>
      <Pair>
        <key>highlight</key>
        <styleUrl>#icon-1662-000000-highlight</styleUrl>
      </Pair>
    </StyleMap>
    <Style id="icon-1662-A52714-normal">
      <IconStyle>
        <color>ff1427a5</color>
        <scale>1</scale>
        <Icon>
          <href>https://www.gstatic.com/mapspro/images/stock/503-wht-blank_maps.png</href>
        </Icon>
      </IconStyle>
      <LabelStyle>
        <scale>0</scale>
      </LabelStyle>
    </Style>
    <Style id="icon-1662-A52714-highlight">
      <IconStyle>
        <color>ff1427a5</color>
        <scale>1</scale>
        <Icon>
          <href>https://www.gstatic.com/mapspro/images/stock/503-wht-blank_maps.png</href>
        </Icon>
      </IconStyle>
      <LabelStyle>
        <scale>1</scale>
      </LabelStyle>
    </Style>
    <StyleMap id="icon-1662-A52714">
      <Pair>
        <key>normal</key>
        <styleUrl>#icon-1662-A52714-normal</styleUrl>
      </Pair>
      <Pair>
        <key>highlight</key>
        <styleUrl>#icon-1662-A52714-highlight</styleUrl>
      </Pair>
    </StyleMap>
    <Style id="icon-1720-000000-normal">
      <IconStyle>
        <color>ff000000</color>
        <scale>1</scale>
        <Icon>
          <href>https://www.gstatic.com/mapspro/images/stock/503-wht-blank_maps.png</href>
        </Icon>
      </IconStyle>
      <LabelStyle>
        <scale>0</scale>
      </LabelStyle>
    </Style>
    <Style id="icon-1720-000000-highlight">
      <IconStyle>
        <color>ff000000</color>
        <scale>1</scale>
        <Icon>
          <href>https://www.gstatic.com/mapspro/images/stock/503-wht-blank_maps.png</href>
        </Icon>
      </IconStyle>
      <LabelStyle>
        <scale>1</scale>
      </LabelStyle>
    </Style>
    <StyleMap id="icon-1720-000000">
      <Pair>
        <key>normal</key>
        <styleUrl>#icon-1720-000000-normal</styleUrl>
      </Pair>
      <Pair>
        <key>highlight</key>
        <styleUrl>#icon-1720-000000-highlight</styleUrl>
      </Pair>
    </StyleMap>
    <Style id="icon-1720-A52714-normal">
      <IconStyle>
        <color>ff1427a5</color>
        <scale>1</scale>
        <Icon>
          <href>https://www.gstatic.com/mapspro/images/stock/503-wht-blank_maps.png</href>
        </Icon>
      </IconStyle>
      <LabelStyle>
        <scale>0</scale>
      </LabelStyle>
    </Style>
    <Style id="icon-1720-A52714-highlight">
      <IconStyle>
        <color>ff1427a5</color>
        <scale>1</scale>
        <Icon>
          <href>https://www.gstatic.com/mapspro/images/stock/503-wht-blank_maps.png</href>
        </Icon>
      </IconStyle>
      <LabelStyle>
        <scale>1</scale>
      </LabelStyle>
    </Style>
    <StyleMap id="icon-1720-A52714">
      <Pair>
        <key>normal</key>
        <styleUrl>#icon-1720-A52714-normal</styleUrl>
      </Pair>
      <Pair>
        <key>highlight</key>
        <styleUrl>#icon-1720-A52714-highlight</styleUrl>
      </Pair>
    </StyleMap>
    <Style id="icon-1769-000000-normal">
      <IconStyle>
        <color>ff000000</color>
        <scale>1</scale>
        <Icon>
          <href>https://www.gstatic.com/mapspro/images/stock/503-wht-blank_maps.png</href>
        </Icon>
      </IconStyle>
      <LabelStyle>
        <scale>0</scale>
      </LabelStyle>
    </Style>
    <Style id="icon-1769-000000-highlight">
      <IconStyle>
        <color>ff000000</color>
        <scale>1</scale>
        <Icon>
          <href>https://www.gstatic.com/mapspro/images/stock/503-wht-blank_maps.png</href>
        </Icon>
      </IconStyle>
      <LabelStyle>
        <scale>1</scale>
      </LabelStyle>
    </Style>
    <StyleMap id="icon-1769-000000">
      <Pair>
        <key>normal</key>
        <styleUrl>#icon-1769-000000-normal</styleUrl>
      </Pair>
      <Pair>
        <key>highlight</key>
        <styleUrl>#icon-1769-000000-highlight</styleUrl>
      </Pair>
    </StyleMap>
    <Style id="icon-1769-A52714-normal">
      <IconStyle>
        <color>ff1427a5</color>
        <scale>1</scale>
        <Icon>
          <href>https://www.gstatic.com/mapspro/images/stock/503-wht-blank_maps.png</href>
        </Icon>
      </IconStyle>
      <LabelStyle>
        <scale>0</scale>
      </LabelStyle>
    </Style>
    <Style id="icon-1769-A52714-highlight">
      <IconStyle>
        <color>ff1427a5</color>
        <scale>1</scale>
        <Icon>
          <href>https://www.gstatic.com/mapspro/images/stock/503-wht-blank_maps.png</href>
        </Icon>
      </IconStyle>
      <LabelStyle>
        <scale>1</scale>
      </LabelStyle>
    </Style>
    <StyleMap id="icon-1769-A52714">
      <Pair>
        <key>normal</key>
        <styleUrl>#icon-1769-A52714-normal</styleUrl>
      </Pair>
      <Pair>
        <key>highlight</key>
        <styleUrl>#icon-1769-A52714-highlight</styleUrl>
      </Pair>
    </StyleMap>
    <Style id="icon-1886-000000-normal">
      <IconStyle>
        <color>ff000000</color>
        <scale>1</scale>
        <Icon>
          <href>https://www.gstatic.com/mapspro/images/stock/503-wht-blank_maps.png</href>
        </Icon>
      </IconStyle>
      <LabelStyle>
        <scale>0</scale>
      </LabelStyle>
    </Style>
    <Style id="icon-1886-000000-highlight">
      <IconStyle>
        <color>ff000000</color>
        <scale>1</scale>
        <Icon>
          <href>https://www.gstatic.com/mapspro/images/stock/503-wht-blank_maps.png</href>
        </Icon>
      </IconStyle>
      <LabelStyle>
        <scale>1</scale>
      </LabelStyle>
    </Style>
    <StyleMap id="icon-1886-000000">
      <Pair>
        <key>normal</key>
        <styleUrl>#icon-1886-000000-normal</styleUrl>
      </Pair>
      <Pair>
        <key>highlight</key>
        <styleUrl>#icon-1886-000000-highlight</styleUrl>
      </Pair>
    </StyleMap>
    <Style id="icon-1886-A52714-normal">
      <IconStyle>
        <color>ff1427a5</color>
        <scale>1</scale>
        <Icon>
          <href>https://www.gstatic.com/mapspro/images/stock/503-wht-blank_maps.png</href>
        </Icon>
      </IconStyle>
      <LabelStyle>
        <scale>0</scale>
      </LabelStyle>
    </Style>
    <Style id="icon-1886-A52714-highlight">
      <IconStyle>
        <color>ff1427a5</color>
        <scale>1</scale>
        <Icon>
          <href>https://www.gstatic.com/mapspro/images/stock/503-wht-blank_maps.png</href>
        </Icon>
      </IconStyle>
      <LabelStyle>
        <scale>1</scale>
      </LabelStyle>
    </Style>
    <StyleMap id="icon-1886-A52714">
      <Pair>
        <key>normal</key>
        <styleUrl>#icon-1886-A52714-normal</styleUrl>
      </Pair>
      <Pair>
        <key>highlight</key>
        <styleUrl>#icon-1886-A52714-highlight</styleUrl>
      </Pair>
    </StyleMap>
    <Style id="line-000000-5069-nodesc-normal">
      <LineStyle>
        <color>ff000000</color>
        <width>5.069</width>
      </LineStyle>
      <BalloonStyle>
        <text><![CDATA[<h3>$[name]</h3>]]></text>
      </BalloonStyle>
    </Style>
    <Style id="line-000000-5069-nodesc-highlight">
      <LineStyle>
        <color>ff000000</color>
        <width>7.6035</width>
      </LineStyle>
      <BalloonStyle>
        <text><![CDATA[<h3>$[name]</h3>]]></text>
      </BalloonStyle>
    </Style>
    <StyleMap id="line-000000-5069-nodesc">
      <Pair>
        <key>normal</key>
        <styleUrl>#line-000000-5069-nodesc-normal</styleUrl>
      </Pair>
      <Pair>
        <key>highlight</key>
        <styleUrl>#line-000000-5069-nodesc-highlight</styleUrl>
      </Pair>
    </StyleMap>
    <Style id="line-A52714-5069-nodesc-normal">
      <LineStyle>
        <color>ff1427a5</color>
        <width>5.069</width>
      </LineStyle>
      <BalloonStyle>
        <text><![CDATA[<h3>$[name]</h3>]]></text>
      </BalloonStyle>
    </Style>
    <Style id="line-A52714-5069-nodesc-highlight">
      <LineStyle>
        <color>ff1427a5</color>
        <width>7.6035</width>
      </LineStyle>
      <BalloonStyle>
        <text><![CDATA[<h3>$[name]</h3>]]></text>
      </BalloonStyle>
    </Style>
    <StyleMap id="line-A52714-5069-nodesc">
      <Pair>
        <key>normal</key>
        <styleUrl>#line-A52714-5069-nodesc-normal</styleUrl>
      </Pair>
      <Pair>
        <key>highlight</key>
        <styleUrl>#line-A52714-5069-nodesc-highlight</styleUrl>
      </Pair>
    </StyleMap>
    <Folder>
      <name>Маршрут туда</name>
      <Placemark>
        <name>Линия маршрута</name>
        <styleUrl>#line-A52714-5069-nodesc</styleUrl>
        <LineString>
          <tessellate>1</tessellate>
          <coordinates>
            36.2306643,50.0060024,0
            36.2303639,50.0062478,0
            36.2298275,50.0065305,0
            36.2293125,50.0066753,0
            36.228937,50.0066891,0
            36.2285615,50.0077648,0
            36.2286687,50.0079785,0
            36.2296022,50.0080268,0
            36.2303639,50.0079854,0
            36.2311256,50.0077924,0
            36.2316835,50.0075372,0
            36.2329925,50.0069167,0
            36.2341619,50.0064822,0
            36.2360395,50.0057996,0
            36.2364472,50.0056893,0
            36.2365759,50.0059237,0
            36.2369514,50.0064547,0
            36.237402,50.0070615,0
            36.2376917,50.0074476,0
            36.2378848,50.0076407,0
            36.2384105,50.0081026,0
            36.2394834,50.0090266,0
            36.2402559,50.0096678,0
            36.2417687,50.0111158,0
            36.2448371,50.0137702,0
            36.248163,50.016714,0
            36.2508989,50.0190854,0
            36.2540639,50.0219807,0
            36.2565959,50.0245656,0
            36.2583983,50.0264748,0
            36.2591279,50.0272123,0
            36.262368,50.0305413,0
            36.2652755,50.0335254,0
            36.2679792,50.036282,0
            36.2712408,50.0396172,0
            36.2747598,50.0432071,0
            36.2751782,50.0436756,0
            36.2753392,50.0440477,0
            36.2754357,50.0446678,0
            36.2753499,50.0452672,0
            36.2750924,50.0459493,0
            36.2728823,50.0506134,0
            36.270876,50.054788,0
            36.2690521,50.0585766,0
            36.266917,50.063088,0
            36.2653399,50.06638,0
            36.2648249,50.0677711,0
            36.2644923,50.069114,0
            36.2637735,50.071896,0
            36.2627113,50.0761996,0
            36.2616921,50.0801999,0
            36.2608338,50.0834838,0
            36.2601579,50.0863063,0
            36.2600613,50.0867813,0
            36.2599969,50.0870636,0
            36.2599863,50.0873321,0
            36.2596751,50.087277,0
            36.2582267,50.0871462,0
            36.2578512,50.0870292,0
            36.25754,50.0870016,0
            36.2568641,50.086802,0
            36.2538279,50.0858727,0
            36.2535704,50.0857832,0
            36.2480021,50.0840139,0
            36.2425197,50.0822859,0
            36.242584,50.0822102,0
            36.2428003,50.0822851,0
          </coordinates>
        </LineString>
      </Placemark>
      <Placemark>
        <name>Станция метро Госпром
</name>
        <description>Автобус-96.</description>
        <styleUrl>#icon-1499-A52714</styleUrl>
        <Point>
          <coordinates>
            36.230666,50.0059987,0
          </coordinates>
        </Point>
      </Placemark>
      <Placemark>
        <name>Станция метро Университет
</name>
        <description>Автобус-31, 47, 96. Троллейбус -2, 58.</description>
        <styleUrl>#icon-1626-A52714</styleUrl>
        <Point>
          <coordinates>
            36.235651,50.0057731,0
          </coordinates>
        </Point>
      </Placemark>
      <Placemark>
        <name>Остановка ул. Мыколы Хвилевого 
</name>
        <description>Автобус-31, 62, 96. Троллейбус -2, 40, 55.</description>
        <styleUrl>#icon-1532-A52714</styleUrl>
        <Point>
          <coordinates>
            36.2414427,50.010797,0
          </coordinates>
        </Point>
      </Placemark>
      <Placemark>
        <name>Остановка ул. Олеся Гончара
</name>
        <description>Автобус-31, 62, 96. Троллейбус -2, 40, 55.</description>
        <styleUrl>#icon-1532-A52714</styleUrl>
        <Point>
          <coordinates>
            36.2438296,50.0128826,0
          </coordinates>
        </Point>
      </Placemark>
      <Placemark>
        <name>Остановка Центральный парк
</name>
        <description>Автобус-31, 62, 96. Троллейбус -2, 40, 55.</description>
        <styleUrl>#icon-1720-A52714</styleUrl>
        <Point>
          <coordinates>
            36.2482799,50.0164297,0
          </coordinates>
        </Point>
      </Placemark>
      <Placemark>
        <name>Остановка Детская Железная дорога
</name>
        <description>Автобус-31, 33, 62, 63, 96. Троллейбус -2, 12.</description>
        <styleUrl>#icon-1662-A52714</styleUrl>
        <Point>
          <coordinates>
            36.2526686,50.0206698,0
          </coordinates>
        </Point>
      </Placemark>
      <Placemark>
        <name>Остановка Сокольники
</name>
        <description>Автобус-31, 33, 62, 63, 96. Троллейбус -2, 12, 55.</description>
        <styleUrl>#icon-1532-A52714</styleUrl>
        <Point>
          <coordinates>
            36.2590143,50.0268941,0
          </coordinates>
        </Point>
      </Placemark>
      <Placemark>
        <name>Остановка Велоцентр
</name>
        <description>Автобус-31, 33, 62, 63, 96. Троллейбус -2, 12, 55.</description>
        <styleUrl>#icon-1522-A52714</styleUrl>
        <Point>
          <coordinates>
            36.2638452,50.0319047,0
          </coordinates>
        </Point>
      </Placemark>
      <Placemark>
        <name>Остановка Мемориал Славы
</name>
        <description>Автобус-31, 33, 62, 63, 96. Троллейбус -2, 12.</description>
        <styleUrl>#icon-1600-A52714</styleUrl>
        <Point>
          <coordinates>
            36.2693384,50.0376142,0
          </coordinates>
        </Point>
      </Placemark>
      <Placemark>
        <name>Остановка Лесопарк</name>
        <description>Автобус-31, 33, 62, 63, 96. Троллейбус -2, 12.</description>
        <styleUrl>#icon-1720-A52714</styleUrl>
        <Point>
          <coordinates>
            36.2718952,50.0401532,0
          </coordinates>
        </Point>
      </Placemark>
      <Placemark>
        <name>Остановка ш. Харьковское
</name>
        <description>Автобус-96.</description>
        <styleUrl>#icon-1532-A52714</styleUrl>
        <Point>
          <coordinates>
            36.2755001,50.0444114,0
          </coordinates>
        </Point>
      </Placemark>
      <Placemark>
        <name>Остановка Дубовый гай
</name>
        <description>Автобус-96.</description>
        <styleUrl>#icon-1886-A52714</styleUrl>
        <Point>
          <coordinates>
            36.2728471,50.0507592,0
          </coordinates>
        </Point>
      </Placemark>
      <Placemark>
        <name>Остановка Кабанова Дача
</name>
        <description>Автобус-96.</description>
        <styleUrl>#icon-1532-A52714</styleUrl>
        <Point>
          <coordinates>
            36.2703548,50.0559874,0
          </coordinates>
        </Point>
      </Placemark>
      <Placemark>
        <name>Остановка Харьковская Швейцария
</name>
        <description>Автобус-96.</description>
        <styleUrl>#icon-1634-A52714</styleUrl>
        <Point>
          <coordinates>
            36.2666,50.0639594,0
          </coordinates>
        </Point>
      </Placemark>
      <Placemark>
        <name>Остановка Дубовый гай
</name>
        <description>Автобус-96.</description>
        <styleUrl>#icon-1886-A52714</styleUrl>
        <Point>
          <coordinates>
            36.2646474,50.0688011,0
          </coordinates>
        </Point>
      </Placemark>
      <Placemark>
        <name>Остановка По требованию
</name>
        <description>Автобус-96.</description>
        <styleUrl>#icon-1769-A52714</styleUrl>
        <Point>
          <coordinates>
            36.2633131,50.07512,0
          </coordinates>
        </Point>
      </Placemark>
      <Placemark>
        <name>Остановка ш. Харьковское
</name>
        <description>Автобус-96.</description>
        <styleUrl>#icon-1532-A52714</styleUrl>
        <Point>
          <coordinates>
            36.2620486,50.0786865,0
          </coordinates>
        </Point>
      </Placemark>
      <Placemark>
        <name>Остановка жертвам тоталитаризму
</name>
        <description>Автобус-96.</description>
        <styleUrl>#icon-1600-A52714</styleUrl>
        <Point>
          <coordinates>
            36.2617141,50.080468,0
          </coordinates>
        </Point>
      </Placemark>
      <Placemark>
        <name>Остановка Ромашка
</name>
        <description>Автобус-96.</description>
        <styleUrl>#icon-1532-A52714</styleUrl>
        <Point>
          <coordinates>
            36.2608236,50.0838272,0
          </coordinates>
        </Point>
      </Placemark>
      <Placemark>
        <name>Остановка пр. Курчатова
</name>
        <description>Автобус-96.</description>
        <styleUrl>#icon-1532-A52714</styleUrl>
        <Point>
          <coordinates>
            36.2574118,50.0869113,0
          </coordinates>
        </Point>
      </Placemark>
      <Placemark>
        <name>Остановка Харьковский физико-технический институт
</name>
        <description>Автобус-96.</description>
        <styleUrl>#icon-1532-A52714</styleUrl>
        <Point>
          <coordinates>
            36.252658,50.0855469,0
          </coordinates>
        </Point>
      </Placemark>
      <Placemark>
        <name>Остановка Пятихатки
</name>
        <description>Автобус-96.</description>
        <styleUrl>#icon-1532-A52714</styleUrl>
        <Point>
          <coordinates>
            36.24309,50.0824916,0
          </coordinates>
        </Point>
      </Placemark>
    </Folder>
    <Folder>
      <name>Маршрут обратно</name>
      <Placemark>
        <name>Линия маршрута</name>
        <styleUrl>#line-000000-5069-nodesc</styleUrl>
        <LineString>
          <tessellate>1</tessellate>
          <coordinates>
            36.2428003,50.0822851,0
            36.2463408,50.0833935,0
            36.2536901,50.0857479,0
            36.2536257,50.0858856,0
            36.2521773,50.0876961,0
            36.2546986,50.0884808,0
            36.2554389,50.0886942,0
            36.2557607,50.0887906,0
            36.2563401,50.0890521,0
            36.2570911,50.0896097,0
            36.2588828,50.0923768,0
            36.2591403,50.0927691,0
            36.2622409,50.0919294,0
            36.2614577,50.0907524,0
            36.2606853,50.0895133,0
            36.2603527,50.0889971,0
            36.2601166,50.0884739,0
            36.2599986,50.0881573,0
            36.2598591,50.0876754,0
            36.2597948,50.0872004,0
            36.2599235,50.0864363,0
            36.2603205,50.0850595,0
            36.2610071,50.0822369,0
            36.2616938,50.079483,0
            36.2625199,50.076185,0
            36.2633031,50.0732035,0
            36.2641721,50.0696916,0
            36.2647944,50.0673846,0
            36.2649661,50.066875,0
            36.2651485,50.0665031,0
            36.265363,50.0660141,0
            36.2655991,50.0654356,0
            36.2658458,50.0649536,0
            36.2662643,50.064072,0
            36.2666398,50.0633213,0
            36.2677878,50.0608831,0
            36.2687426,50.0588719,0
            36.2701374,50.0559996,0
            36.270588,50.0550007,0
            36.2714785,50.0530926,0
            36.2718218,50.0524244,0
            36.2735384,50.0488765,0
            36.274783,50.0462171,0
            36.2750619,50.0456246,0
            36.2752014,50.0452388,0
            36.275255,50.0446876,0
            36.2752014,50.0442122,0
            36.2750726,50.0437506,0
            36.2724977,50.0410909,0
            36.2711781,50.0397541,0
            36.2683778,50.0368806,0
            36.2644618,50.0329043,0
            36.2609106,50.029293,0
            36.2574559,50.0257572,0
            36.2562221,50.0244269,0
            36.2550419,50.0231999,0
            36.2534648,50.0216352,0
            36.2513404,50.019705,0
            36.2499242,50.0184504,0
            36.246255,50.0152585,0
            36.2414377,50.010977,0
            36.2397855,50.009467,0
            36.2379616,50.0079018,0
            36.2376075,50.0075571,0
            36.2367707,50.0064469,0
            36.2363308,50.005785,0
            36.2358587,50.0045575,0
            36.2334018,50.0048816,0
            36.2318783,50.0051437,0
            36.230666,50.0059987,0
          </coordinates>
        </LineString>
      </Placemark>
      <Placemark>
        <name>Остановка Пятихатки
</name>
        <description>Автобус-96.</description>
        <styleUrl>#icon-1499-000000</styleUrl>
        <Point>
          <coordinates>
            36.2431758,50.0822851,0
          </coordinates>
        </Point>
      </Placemark>
      <Placemark>
        <name>Остановка ул. Академическая
</name>
        <description>Автобус-96.</description>
        <styleUrl>#icon-1532-000000</styleUrl>
        <Point>
          <coordinates>
            36.2525195,50.0874735,0
          </coordinates>
        </Point>
      </Placemark>
      <Placemark>
        <name>Остановка ул. Академика Вальтера
</name>
        <description>Автобус-96.</description>
        <styleUrl>#icon-1532-000000</styleUrl>
        <Point>
          <coordinates>
            36.2579482,50.090835,0
          </coordinates>
        </Point>
      </Placemark>
      <Placemark>
        <name>Остановка ул. Гаркуши
</name>
        <description>Автобус-96.</description>
        <styleUrl>#icon-1532-000000</styleUrl>
        <Point>
          <coordinates>
            36.2602979,50.0889144,0
          </coordinates>
        </Point>
      </Placemark>
      <Placemark>
        <name>Остановка Ромашка
</name>
        <description>Автобус-96.</description>
        <styleUrl>#icon-1532-000000</styleUrl>
        <Point>
          <coordinates>
            36.2605875,50.0832627,0
          </coordinates>
        </Point>
      </Placemark>
      <Placemark>
        <name>Остановка Мемориал жертвам тоталитаризма
</name>
        <description>Автобус-96.</description>
        <styleUrl>#icon-1600-000000</styleUrl>
        <Point>
          <coordinates>
            36.26148,50.0802382,0
          </coordinates>
        </Point>
      </Placemark>
      <Placemark>
        <name>Остановка ш. Харьковское
</name>
        <description>Автобус-96.</description>
        <styleUrl>#icon-1532-000000</styleUrl>
        <Point>
          <coordinates>
            36.2619628,50.0781632,0
          </coordinates>
        </Point>
      </Placemark>
      <Placemark>
        <name>Остановка По требованию
</name>
        <description>Автобус-96.</description>
        <styleUrl>#icon-1769-000000</styleUrl>
        <Point>
          <coordinates>
            36.2627788,50.075008,0
          </coordinates>
        </Point>
      </Placemark>
      <Placemark>
        <name>Остановка Дубовый гай
</name>
        <description>Автобус-96.</description>
        <styleUrl>#icon-1886-000000</styleUrl>
        <Point>
          <coordinates>
            36.2644113,50.0684981,0
          </coordinates>
        </Point>
      </Placemark>
      <Placemark>
        <name>Остановка Харьковская Швейцария
</name>
        <description>Автобус-96.</description>
        <styleUrl>#icon-1634-000000</styleUrl>
        <Point>
          <coordinates>
            36.2664788,50.0637103,0
          </coordinates>
        </Point>
      </Placemark>
      <Placemark>
        <name>Остановка Кабанова Дача
</name>
        <description>Автобус-96.</description>
        <styleUrl>#icon-1532-000000</styleUrl>
        <Point>
          <coordinates>
            36.2703548,50.0555879,0
          </coordinates>
        </Point>
      </Placemark>
      <Placemark>
        <name>Остановка Дубовый гай
</name>
        <description>Автобус-96.</description>
        <styleUrl>#icon-1886-000000</styleUrl>
        <Point>
          <coordinates>
            36.2732548,50.0493125,0
          </coordinates>
        </Point>
      </Placemark>
      <Placemark>
        <name>Остановка ш. Харьковское
</name>
        <description>Автобус-96.</description>
        <styleUrl>#icon-1532-000000</styleUrl>
        <Point>
          <coordinates>
            36.2751308,50.0445029,0
          </coordinates>
        </Point>
      </Placemark>
      <Placemark>
        <name>Остановка Лесопарк
</name>
        <description>Автобус-31, 33, 62, 63, 96. Троллейбус -2, 12.</description>
        <styleUrl>#icon-1720-000000</styleUrl>
        <Point>
          <coordinates>
            36.2723413,50.0410702,0
          </coordinates>
        </Point>
      </Placemark>
      <Placemark>
        <name>Остановка Мемориал Славы
</name>
        <description>Автобус-31, 33, 62, 63, 96. Троллейбус -2, 12.</description>
        <styleUrl>#icon-1600-000000</styleUrl>
        <Point>
          <coordinates>
            36.2673009,50.0360984,0
          </coordinates>
        </Point>
      </Placemark>
      <Placemark>
        <name>Остановка Велоцентр
</name>
        <description>Автобус-31, 33, 62, 63, 96. Троллейбус -2, 12, 55.</description>
        <styleUrl>#icon-1522-000000</styleUrl>
        <Point>
          <coordinates>
            36.2639311,50.0324253,0
          </coordinates>
        </Point>
      </Placemark>
      <Placemark>
        <name>Остановка Сокольники 
</name>
        <description>Автобус-31, 33, 62, 63, 96. Троллейбус -2, 12, 55.</description>
        <styleUrl>#icon-1532-000000</styleUrl>
        <Point>
          <coordinates>
            36.2573191,50.0259733,0
          </coordinates>
        </Point>
      </Placemark>
      <Placemark>
        <name>Остановка Детская железная дорога
</name>
        <description>Автобус-31, 33, 62, 63, 96. Троллейбус -2, 12, 55.</description>
        <styleUrl>#icon-1662-000000</styleUrl>
        <Point>
          <coordinates>
            36.2519175,50.0203259,0
          </coordinates>
        </Point>
      </Placemark>
      <Placemark>
        <name>Остановка Центральный парк
</name>
        <description>Автобус-31, 62, 96. Троллейбус -2, 40, 55.</description>
        <styleUrl>#icon-1720-000000</styleUrl>
        <Point>
          <coordinates>
            36.247045,50.0159483,0
          </coordinates>
        </Point>
      </Placemark>
      <Placemark>
        <name>Остановка ул. Олеся Гончара
</name>
        <description>Автобус-31, 62, 96. Троллейбус -2, 40, 55.</description>
        <styleUrl>#icon-1532-000000</styleUrl>
        <Point>
          <coordinates>
            36.2437442,50.0131002,0
          </coordinates>
        </Point>
      </Placemark>
      <Placemark>
        <name>Остановка ул. Мыколы Хвылевого
</name>
        <description>Автобус-31, 62, 96. Троллейбус -2, 40, 55.</description>
        <styleUrl>#icon-1532-000000</styleUrl>
        <Point>
          <coordinates>
            36.2408097,50.0103527,0
          </coordinates>
        </Point>
      </Placemark>
      <Placemark>
        <name>Остановка ул. Сумская
</name>
        <description>Автобус-31, 47, 62, 96. Троллейбус -2, 40, 55.</description>
        <styleUrl>#icon-1532-000000</styleUrl>
        <Point>
          <coordinates>
            36.2366786,50.0065289,0
          </coordinates>
        </Point>
      </Placemark>
    </Folder>
  </Document>
</kml>
