<?xml version="1.0" encoding="UTF-8"?>
<kml xmlns="http://www.opengis.net/kml/2.2">
  <Document>
    <name>Автобусный маршрут №21 Харьков (м. Индустриальная - м/н Затишье)   kharkiv.inform.city</name>
    <description>Подробно https://kharkiv.inform.city/-ru/-tr/tr_city/tr_city_a/</description>
    <Style id="icon-1499-000000-normal">
      <IconStyle>
        <color>ff000000</color>
        <scale>1</scale>
        <Icon>
          <href>https://www.gstatic.com/mapspro/images/stock/503-wht-blank_maps.png</href>
        </Icon>
      </IconStyle>
      <LabelStyle>
        <scale>0</scale>
      </LabelStyle>
    </Style>
    <Style id="icon-1499-000000-highlight">
      <IconStyle>
        <color>ff000000</color>
        <scale>1</scale>
        <Icon>
          <href>https://www.gstatic.com/mapspro/images/stock/503-wht-blank_maps.png</href>
        </Icon>
      </IconStyle>
      <LabelStyle>
        <scale>1</scale>
      </LabelStyle>
    </Style>
    <StyleMap id="icon-1499-000000">
      <Pair>
        <key>normal</key>
        <styleUrl>#icon-1499-000000-normal</styleUrl>
      </Pair>
      <Pair>
        <key>highlight</key>
        <styleUrl>#icon-1499-000000-highlight</styleUrl>
      </Pair>
    </StyleMap>
    <Style id="icon-1499-A52714-normal">
      <IconStyle>
        <color>ff1427a5</color>
        <scale>1</scale>
        <Icon>
          <href>https://www.gstatic.com/mapspro/images/stock/503-wht-blank_maps.png</href>
        </Icon>
      </IconStyle>
      <LabelStyle>
        <scale>0</scale>
      </LabelStyle>
    </Style>
    <Style id="icon-1499-A52714-highlight">
      <IconStyle>
        <color>ff1427a5</color>
        <scale>1</scale>
        <Icon>
          <href>https://www.gstatic.com/mapspro/images/stock/503-wht-blank_maps.png</href>
        </Icon>
      </IconStyle>
      <LabelStyle>
        <scale>1</scale>
      </LabelStyle>
    </Style>
    <StyleMap id="icon-1499-A52714">
      <Pair>
        <key>normal</key>
        <styleUrl>#icon-1499-A52714-normal</styleUrl>
      </Pair>
      <Pair>
        <key>highlight</key>
        <styleUrl>#icon-1499-A52714-highlight</styleUrl>
      </Pair>
    </StyleMap>
    <Style id="icon-1532-000000-normal">
      <IconStyle>
        <color>ff000000</color>
        <scale>1</scale>
        <Icon>
          <href>https://www.gstatic.com/mapspro/images/stock/503-wht-blank_maps.png</href>
        </Icon>
      </IconStyle>
      <LabelStyle>
        <scale>0</scale>
      </LabelStyle>
    </Style>
    <Style id="icon-1532-000000-highlight">
      <IconStyle>
        <color>ff000000</color>
        <scale>1</scale>
        <Icon>
          <href>https://www.gstatic.com/mapspro/images/stock/503-wht-blank_maps.png</href>
        </Icon>
      </IconStyle>
      <LabelStyle>
        <scale>1</scale>
      </LabelStyle>
    </Style>
    <StyleMap id="icon-1532-000000">
      <Pair>
        <key>normal</key>
        <styleUrl>#icon-1532-000000-normal</styleUrl>
      </Pair>
      <Pair>
        <key>highlight</key>
        <styleUrl>#icon-1532-000000-highlight</styleUrl>
      </Pair>
    </StyleMap>
    <Style id="icon-1532-A52714-normal">
      <IconStyle>
        <color>ff1427a5</color>
        <scale>1</scale>
        <Icon>
          <href>https://www.gstatic.com/mapspro/images/stock/503-wht-blank_maps.png</href>
        </Icon>
      </IconStyle>
      <LabelStyle>
        <scale>0</scale>
      </LabelStyle>
    </Style>
    <Style id="icon-1532-A52714-highlight">
      <IconStyle>
        <color>ff1427a5</color>
        <scale>1</scale>
        <Icon>
          <href>https://www.gstatic.com/mapspro/images/stock/503-wht-blank_maps.png</href>
        </Icon>
      </IconStyle>
      <LabelStyle>
        <scale>1</scale>
      </LabelStyle>
    </Style>
    <StyleMap id="icon-1532-A52714">
      <Pair>
        <key>normal</key>
        <styleUrl>#icon-1532-A52714-normal</styleUrl>
      </Pair>
      <Pair>
        <key>highlight</key>
        <styleUrl>#icon-1532-A52714-highlight</styleUrl>
      </Pair>
    </StyleMap>
    <Style id="icon-1542-000000-normal">
      <IconStyle>
        <color>ff000000</color>
        <scale>1</scale>
        <Icon>
          <href>https://www.gstatic.com/mapspro/images/stock/503-wht-blank_maps.png</href>
        </Icon>
      </IconStyle>
      <LabelStyle>
        <scale>0</scale>
      </LabelStyle>
    </Style>
    <Style id="icon-1542-000000-highlight">
      <IconStyle>
        <color>ff000000</color>
        <scale>1</scale>
        <Icon>
          <href>https://www.gstatic.com/mapspro/images/stock/503-wht-blank_maps.png</href>
        </Icon>
      </IconStyle>
      <LabelStyle>
        <scale>1</scale>
      </LabelStyle>
    </Style>
    <StyleMap id="icon-1542-000000">
      <Pair>
        <key>normal</key>
        <styleUrl>#icon-1542-000000-normal</styleUrl>
      </Pair>
      <Pair>
        <key>highlight</key>
        <styleUrl>#icon-1542-000000-highlight</styleUrl>
      </Pair>
    </StyleMap>
    <Style id="icon-1542-A52714-normal">
      <IconStyle>
        <color>ff1427a5</color>
        <scale>1</scale>
        <Icon>
          <href>https://www.gstatic.com/mapspro/images/stock/503-wht-blank_maps.png</href>
        </Icon>
      </IconStyle>
      <LabelStyle>
        <scale>0</scale>
      </LabelStyle>
    </Style>
    <Style id="icon-1542-A52714-highlight">
      <IconStyle>
        <color>ff1427a5</color>
        <scale>1</scale>
        <Icon>
          <href>https://www.gstatic.com/mapspro/images/stock/503-wht-blank_maps.png</href>
        </Icon>
      </IconStyle>
      <LabelStyle>
        <scale>1</scale>
      </LabelStyle>
    </Style>
    <StyleMap id="icon-1542-A52714">
      <Pair>
        <key>normal</key>
        <styleUrl>#icon-1542-A52714-normal</styleUrl>
      </Pair>
      <Pair>
        <key>highlight</key>
        <styleUrl>#icon-1542-A52714-highlight</styleUrl>
      </Pair>
    </StyleMap>
    <Style id="icon-1546-000000-normal">
      <IconStyle>
        <color>ff000000</color>
        <scale>1</scale>
        <Icon>
          <href>https://www.gstatic.com/mapspro/images/stock/503-wht-blank_maps.png</href>
        </Icon>
      </IconStyle>
      <LabelStyle>
        <scale>0</scale>
      </LabelStyle>
    </Style>
    <Style id="icon-1546-000000-highlight">
      <IconStyle>
        <color>ff000000</color>
        <scale>1</scale>
        <Icon>
          <href>https://www.gstatic.com/mapspro/images/stock/503-wht-blank_maps.png</href>
        </Icon>
      </IconStyle>
      <LabelStyle>
        <scale>1</scale>
      </LabelStyle>
    </Style>
    <StyleMap id="icon-1546-000000">
      <Pair>
        <key>normal</key>
        <styleUrl>#icon-1546-000000-normal</styleUrl>
      </Pair>
      <Pair>
        <key>highlight</key>
        <styleUrl>#icon-1546-000000-highlight</styleUrl>
      </Pair>
    </StyleMap>
    <Style id="icon-1546-A52714-normal">
      <IconStyle>
        <color>ff1427a5</color>
        <scale>1</scale>
        <Icon>
          <href>https://www.gstatic.com/mapspro/images/stock/503-wht-blank_maps.png</href>
        </Icon>
      </IconStyle>
      <LabelStyle>
        <scale>0</scale>
      </LabelStyle>
    </Style>
    <Style id="icon-1546-A52714-highlight">
      <IconStyle>
        <color>ff1427a5</color>
        <scale>1</scale>
        <Icon>
          <href>https://www.gstatic.com/mapspro/images/stock/503-wht-blank_maps.png</href>
        </Icon>
      </IconStyle>
      <LabelStyle>
        <scale>1</scale>
      </LabelStyle>
    </Style>
    <StyleMap id="icon-1546-A52714">
      <Pair>
        <key>normal</key>
        <styleUrl>#icon-1546-A52714-normal</styleUrl>
      </Pair>
      <Pair>
        <key>highlight</key>
        <styleUrl>#icon-1546-A52714-highlight</styleUrl>
      </Pair>
    </StyleMap>
    <Style id="icon-1626-000000-normal">
      <IconStyle>
        <color>ff000000</color>
        <scale>1</scale>
        <Icon>
          <href>https://www.gstatic.com/mapspro/images/stock/503-wht-blank_maps.png</href>
        </Icon>
      </IconStyle>
      <LabelStyle>
        <scale>0</scale>
      </LabelStyle>
    </Style>
    <Style id="icon-1626-000000-highlight">
      <IconStyle>
        <color>ff000000</color>
        <scale>1</scale>
        <Icon>
          <href>https://www.gstatic.com/mapspro/images/stock/503-wht-blank_maps.png</href>
        </Icon>
      </IconStyle>
      <LabelStyle>
        <scale>1</scale>
      </LabelStyle>
    </Style>
    <StyleMap id="icon-1626-000000">
      <Pair>
        <key>normal</key>
        <styleUrl>#icon-1626-000000-normal</styleUrl>
      </Pair>
      <Pair>
        <key>highlight</key>
        <styleUrl>#icon-1626-000000-highlight</styleUrl>
      </Pair>
    </StyleMap>
    <Style id="icon-1659-000000-normal">
      <IconStyle>
        <color>ff000000</color>
        <scale>1</scale>
        <Icon>
          <href>https://www.gstatic.com/mapspro/images/stock/503-wht-blank_maps.png</href>
        </Icon>
      </IconStyle>
      <LabelStyle>
        <scale>0</scale>
      </LabelStyle>
    </Style>
    <Style id="icon-1659-000000-highlight">
      <IconStyle>
        <color>ff000000</color>
        <scale>1</scale>
        <Icon>
          <href>https://www.gstatic.com/mapspro/images/stock/503-wht-blank_maps.png</href>
        </Icon>
      </IconStyle>
      <LabelStyle>
        <scale>1</scale>
      </LabelStyle>
    </Style>
    <StyleMap id="icon-1659-000000">
      <Pair>
        <key>normal</key>
        <styleUrl>#icon-1659-000000-normal</styleUrl>
      </Pair>
      <Pair>
        <key>highlight</key>
        <styleUrl>#icon-1659-000000-highlight</styleUrl>
      </Pair>
    </StyleMap>
    <Style id="icon-1659-A52714-normal">
      <IconStyle>
        <color>ff1427a5</color>
        <scale>1</scale>
        <Icon>
          <href>https://www.gstatic.com/mapspro/images/stock/503-wht-blank_maps.png</href>
        </Icon>
      </IconStyle>
      <LabelStyle>
        <scale>0</scale>
      </LabelStyle>
    </Style>
    <Style id="icon-1659-A52714-highlight">
      <IconStyle>
        <color>ff1427a5</color>
        <scale>1</scale>
        <Icon>
          <href>https://www.gstatic.com/mapspro/images/stock/503-wht-blank_maps.png</href>
        </Icon>
      </IconStyle>
      <LabelStyle>
        <scale>1</scale>
      </LabelStyle>
    </Style>
    <StyleMap id="icon-1659-A52714">
      <Pair>
        <key>normal</key>
        <styleUrl>#icon-1659-A52714-normal</styleUrl>
      </Pair>
      <Pair>
        <key>highlight</key>
        <styleUrl>#icon-1659-A52714-highlight</styleUrl>
      </Pair>
    </StyleMap>
    <Style id="icon-1685-000000-normal">
      <IconStyle>
        <color>ff000000</color>
        <scale>1</scale>
        <Icon>
          <href>https://www.gstatic.com/mapspro/images/stock/503-wht-blank_maps.png</href>
        </Icon>
      </IconStyle>
      <LabelStyle>
        <scale>0</scale>
      </LabelStyle>
    </Style>
    <Style id="icon-1685-000000-highlight">
      <IconStyle>
        <color>ff000000</color>
        <scale>1</scale>
        <Icon>
          <href>https://www.gstatic.com/mapspro/images/stock/503-wht-blank_maps.png</href>
        </Icon>
      </IconStyle>
      <LabelStyle>
        <scale>1</scale>
      </LabelStyle>
    </Style>
    <StyleMap id="icon-1685-000000">
      <Pair>
        <key>normal</key>
        <styleUrl>#icon-1685-000000-normal</styleUrl>
      </Pair>
      <Pair>
        <key>highlight</key>
        <styleUrl>#icon-1685-000000-highlight</styleUrl>
      </Pair>
    </StyleMap>
    <Style id="icon-1685-A52714-normal">
      <IconStyle>
        <color>ff1427a5</color>
        <scale>1</scale>
        <Icon>
          <href>https://www.gstatic.com/mapspro/images/stock/503-wht-blank_maps.png</href>
        </Icon>
      </IconStyle>
      <LabelStyle>
        <scale>0</scale>
      </LabelStyle>
    </Style>
    <Style id="icon-1685-A52714-highlight">
      <IconStyle>
        <color>ff1427a5</color>
        <scale>1</scale>
        <Icon>
          <href>https://www.gstatic.com/mapspro/images/stock/503-wht-blank_maps.png</href>
        </Icon>
      </IconStyle>
      <LabelStyle>
        <scale>1</scale>
      </LabelStyle>
    </Style>
    <StyleMap id="icon-1685-A52714">
      <Pair>
        <key>normal</key>
        <styleUrl>#icon-1685-A52714-normal</styleUrl>
      </Pair>
      <Pair>
        <key>highlight</key>
        <styleUrl>#icon-1685-A52714-highlight</styleUrl>
      </Pair>
    </StyleMap>
    <Style id="line-000000-5069-nodesc-normal">
      <LineStyle>
        <color>ff000000</color>
        <width>5.069</width>
      </LineStyle>
      <BalloonStyle>
        <text><![CDATA[<h3>$[name]</h3>]]></text>
      </BalloonStyle>
    </Style>
    <Style id="line-000000-5069-nodesc-highlight">
      <LineStyle>
        <color>ff000000</color>
        <width>7.6035</width>
      </LineStyle>
      <BalloonStyle>
        <text><![CDATA[<h3>$[name]</h3>]]></text>
      </BalloonStyle>
    </Style>
    <StyleMap id="line-000000-5069-nodesc">
      <Pair>
        <key>normal</key>
        <styleUrl>#line-000000-5069-nodesc-normal</styleUrl>
      </Pair>
      <Pair>
        <key>highlight</key>
        <styleUrl>#line-000000-5069-nodesc-highlight</styleUrl>
      </Pair>
    </StyleMap>
    <Style id="line-A52714-5263-nodesc-normal">
      <LineStyle>
        <color>ff1427a5</color>
        <width>5.263</width>
      </LineStyle>
      <BalloonStyle>
        <text><![CDATA[<h3>$[name]</h3>]]></text>
      </BalloonStyle>
    </Style>
    <Style id="line-A52714-5263-nodesc-highlight">
      <LineStyle>
        <color>ff1427a5</color>
        <width>7.8945</width>
      </LineStyle>
      <BalloonStyle>
        <text><![CDATA[<h3>$[name]</h3>]]></text>
      </BalloonStyle>
    </Style>
    <StyleMap id="line-A52714-5263-nodesc">
      <Pair>
        <key>normal</key>
        <styleUrl>#line-A52714-5263-nodesc-normal</styleUrl>
      </Pair>
      <Pair>
        <key>highlight</key>
        <styleUrl>#line-A52714-5263-nodesc-highlight</styleUrl>
      </Pair>
    </StyleMap>
    <Folder>
      <name>Маршрут туда</name>
      <Placemark>
        <name>Линия маршрута</name>
        <styleUrl>#line-A52714-5263-nodesc</styleUrl>
        <LineString>
          <tessellate>1</tessellate>
          <coordinates>
            36.3979648,49.9451792,0
            36.3982437,49.945124,0
            36.3986192,49.9450963,0
            36.3989089,49.9450756,0
            36.4012371,49.9443162,0
            36.4063547,49.9426867,0
            36.412159,49.9408224,0
            36.4128135,49.9405877,0
            36.4130066,49.9404634,0
            36.4166437,49.9393448,0
            36.4244114,49.9369003,0
            36.4253555,49.9365689,0
            36.4271365,49.9360164,0
            36.4346145,49.9336409,0
            36.4348291,49.9334268,0
            36.4349149,49.9332058,0
            36.4349149,49.9329917,0
            36.4347325,49.9327431,0
            36.4345823,49.9326395,0
            36.4342712,49.9325981,0
            36.4338957,49.9326326,0
            36.4335845,49.9327776,0
            36.4334129,49.9329779,0
            36.4333056,49.9332265,0
            36.4334236,49.9334406,0
            36.4339064,49.9341864,0
            36.4349578,49.9359819,0
            36.4356445,49.9374942,0
            36.4358698,49.9380742,0
            36.4360414,49.9387509,0
            36.4363418,49.9401181,0
            36.4364491,49.9407327,0
            36.4364813,49.9431286,0
            36.4364169,49.9438467,0
            36.4361594,49.9450825,0
            36.4359449,49.9457661,0
            36.4344857,49.9497979,0
            36.4342926,49.9500602,0
            36.4340888,49.9504814,0
            36.4337025,49.9514685,0
            36.4317499,49.9567286,0
            36.43131,49.956984,0
            36.4308057,49.9571634,0
            36.4268683,49.958751,0
            36.4266215,49.9586682,0
            36.4261387,49.9586889,0
            36.4228771,49.9588821,0
            36.4223622,49.9581229,0
            36.4220188,49.9576466,0
            36.4219115,49.9572118,0
            36.4209996,49.9563144,0
            36.4204739,49.9560935,0
            36.4200018,49.9559624,0
            36.4178024,49.9553204,0
            36.4155279,49.954713,0
            36.4134358,49.9541435,0
            36.4134787,49.9540986,0
            36.4138649,49.954216,0
          </coordinates>
        </LineString>
      </Placemark>
      <Placemark>
        <name>Станция метро Индустриальная</name>
        <description>Автобус- 21.</description>
        <styleUrl>#icon-1499-A52714</styleUrl>
        <Point>
          <coordinates>
            36.397819,49.9451942,0
          </coordinates>
        </Point>
      </Placemark>
      <Placemark>
        <name>Остановка ул. Плиточная</name>
        <description>Автобус- 21, 70. Троллейбус-46, 53.</description>
        <styleUrl>#icon-1532-A52714</styleUrl>
        <Point>
          <coordinates>
            36.4132793,49.940292,0
          </coordinates>
        </Point>
      </Placemark>
      <Placemark>
        <name>Остановка ул. Пятихатская
</name>
        <description>Автобус- 21, 70. Троллейбус-46, 53.</description>
        <styleUrl>#icon-1532-A52714</styleUrl>
        <Point>
          <coordinates>
            36.4247236,49.9366115,0
          </coordinates>
        </Point>
      </Placemark>
      <Placemark>
        <name>Остановка м/н Солнечный</name>
        <description>Автобус- 21, 70. Троллейбус-46, 53.</description>
        <styleUrl>#icon-1546-A52714</styleUrl>
        <Point>
          <coordinates>
            36.429101,49.9353409,0
          </coordinates>
        </Point>
      </Placemark>
      <Placemark>
        <name><![CDATA[Остановка ТЦ "Первый километр"]]></name>
        <description>Автобус-21.</description>
        <styleUrl>#icon-1685-A52714</styleUrl>
        <Point>
          <coordinates>
            36.4367399,49.9424808,0
          </coordinates>
        </Point>
      </Placemark>
      <Placemark>
        <name>Остановка Кладбище</name>
        <description>Автобус-21т.</description>
        <styleUrl>#icon-1542-A52714</styleUrl>
        <Point>
          <coordinates>
            36.4280496,49.9582906,0
          </coordinates>
        </Point>
      </Placemark>
      <Placemark>
        <name>Остановка Почта</name>
        <description>Автобус-21т.</description>
        <styleUrl>#icon-1659-A52714</styleUrl>
        <Point>
          <coordinates>
            36.4207164,49.9562199,0
          </coordinates>
        </Point>
      </Placemark>
      <Placemark>
        <name>Остановка ул. Затишнянская
</name>
        <description>Автобус-21.</description>
        <styleUrl>#icon-1532-A52714</styleUrl>
        <Point>
          <coordinates>
            36.416103,49.9549083,0
          </coordinates>
        </Point>
      </Placemark>
    </Folder>
    <Folder>
      <name>Маршрут обратно</name>
      <Placemark>
        <name>Линия маршрута</name>
        <styleUrl>#line-000000-5069-nodesc</styleUrl>
        <LineString>
          <tessellate>1</tessellate>
          <coordinates>
            36.4138649,49.954216,0
            36.4152864,49.9546038,0
            36.4172873,49.9551387,0
            36.4193848,49.9556979,0
            36.4196423,49.9558049,0
            36.4199105,49.9558877,0
            36.4207367,49.9561327,0
            36.4209834,49.9562639,0
            36.4211497,49.9563881,0
            36.4219812,49.9571923,0
            36.4220187,49.95732,0
            36.4220724,49.9575305,0
            36.4221475,49.9577238,0
            36.422523,49.9582414,0
            36.4229575,49.958804,0
            36.4231721,49.9588005,0
            36.426439,49.9586004,0
            36.4266912,49.9586418,0
            36.4268735,49.9586728,0
            36.4278982,49.9582656,0
            36.4295075,49.9575719,0
            36.4310685,49.9569783,0
            36.431664,49.956647,0
            36.4321039,49.9555218,0
            36.4327208,49.9537651,0
            36.4328549,49.9533958,0
            36.4337936,49.9509762,0
            36.4340887,49.9501788,0
            36.4342013,49.9500166,0
            36.4344213,49.9497128,0
            36.4350221,49.9481146,0
            36.4357248,49.9460642,0
            36.4360145,49.9451148,0
            36.4362023,49.9440447,0
            36.4363203,49.9430297,0
            36.4363203,49.9422737,0
            36.436213,49.940147,0
            36.4361915,49.9399571,0
            36.4357248,49.9380927,0
            36.4355478,49.9376059,0
            36.435285,49.9369016,0
            36.4349738,49.9365943,0
            36.4346305,49.9362179,0
            36.4341852,49.9359279,0
            36.4337025,49.9357173,0
            36.4329943,49.9355239,0
            36.4324794,49.93541,0
            36.4314816,49.9352408,0
            36.4309398,49.9352373,0
            36.4301619,49.935296,0
            36.4297542,49.9353064,0
            36.4294699,49.9353754,0
            36.4253501,49.9366771,0
            36.4248726,49.9368774,0
            36.4225123,49.9376024,0
            36.4194063,49.9386072,0
            36.4161233,49.9396567,0
            36.4126578,49.9407408,0
            36.4090851,49.9419181,0
            36.4051906,49.9431816,0
            36.4010546,49.94449,0
            36.3973961,49.9456292,0
            36.3973746,49.9454566,0
            36.3975463,49.9453254,0
            36.3979648,49.9451792,0
          </coordinates>
        </LineString>
      </Placemark>
      <Placemark>
        <name>Остановка м/н Затишье</name>
        <description>Автобус-21.</description>
        <styleUrl>#icon-1499-000000</styleUrl>
        <Point>
          <coordinates>
            36.4136729,49.9542871,0
          </coordinates>
        </Point>
      </Placemark>
      <Placemark>
        <name>Остановка ул. Затишнянская
</name>
        <description>Автобус-21.</description>
        <styleUrl>#icon-1532-000000</styleUrl>
        <Point>
          <coordinates>
            36.416366,49.9548704,0
          </coordinates>
        </Point>
      </Placemark>
      <Placemark>
        <name>Остановка Почта
</name>
        <description>Автобус-21.</description>
        <styleUrl>#icon-1659-000000</styleUrl>
        <Point>
          <coordinates>
            36.4209241,49.9561447,0
          </coordinates>
        </Point>
      </Placemark>
      <Placemark>
        <name>Остановка Кладбище
</name>
        <description>Автобус-21.</description>
        <styleUrl>#icon-1542-000000</styleUrl>
        <Point>
          <coordinates>
            36.4282676,49.9580245,0
          </coordinates>
        </Point>
      </Placemark>
      <Placemark>
        <name>Остановка ТЦ 1 киломентр
</name>
        <description>Автобус-21.</description>
        <styleUrl>#icon-1685-000000</styleUrl>
        <Point>
          <coordinates>
            36.4362729,49.9425731,0
          </coordinates>
        </Point>
      </Placemark>
      <Placemark>
        <name>Остановка м/н Солнечный
</name>
        <description>Автобус- 21, 70. Троллейбус-46, 53.</description>
        <styleUrl>#icon-1546-000000</styleUrl>
        <Point>
          <coordinates>
            36.428416,49.9358259,0
          </coordinates>
        </Point>
      </Placemark>
      <Placemark>
        <name>Остановка ул. Пятихатская
</name>
        <description>Автобус- 21, 70. Троллейбус-46, 53.</description>
        <styleUrl>#icon-1532-000000</styleUrl>
        <Point>
          <coordinates>
            36.4239099,49.9373728,0
          </coordinates>
        </Point>
      </Placemark>
      <Placemark>
        <name>Остановка ул. Плиточная
</name>
        <description>Автобус- 21, 70. Троллейбус-46, 53.</description>
        <styleUrl>#icon-1532-000000</styleUrl>
        <Point>
          <coordinates>
            36.4120801,49.9410601,0
          </coordinates>
        </Point>
      </Placemark>
      <Placemark>
        <name>Станция метро Индустриальная 
</name>
        <description>Автобус- 21, 70. Троллейбус-46, 53.</description>
        <styleUrl>#icon-1626-000000</styleUrl>
        <Point>
          <coordinates>
            36.3981579,49.9454347,0
          </coordinates>
        </Point>
      </Placemark>
    </Folder>
  </Document>
</kml>
