<?xml version="1.0" encoding="UTF-8"?>
<kml xmlns="http://www.opengis.net/kml/2.2">
  <Document>
    <name>Автобусный маршрут №272 Харьков ( м. Площадь Конституции - ул. Светлая ) kharkiv.inform.city</name>
    <description>Подробно https://kharkiv.inform.city/-ru/-tr/tr_city/tr_city_a/</description>
    <Style id="icon-1499-000000-normal">
      <IconStyle>
        <color>ff000000</color>
        <scale>1</scale>
        <Icon>
          <href>https://www.gstatic.com/mapspro/images/stock/503-wht-blank_maps.png</href>
        </Icon>
      </IconStyle>
      <LabelStyle>
        <scale>0</scale>
      </LabelStyle>
    </Style>
    <Style id="icon-1499-000000-highlight">
      <IconStyle>
        <color>ff000000</color>
        <scale>1</scale>
        <Icon>
          <href>https://www.gstatic.com/mapspro/images/stock/503-wht-blank_maps.png</href>
        </Icon>
      </IconStyle>
      <LabelStyle>
        <scale>1</scale>
      </LabelStyle>
    </Style>
    <StyleMap id="icon-1499-000000">
      <Pair>
        <key>normal</key>
        <styleUrl>#icon-1499-000000-normal</styleUrl>
      </Pair>
      <Pair>
        <key>highlight</key>
        <styleUrl>#icon-1499-000000-highlight</styleUrl>
      </Pair>
    </StyleMap>
    <Style id="icon-1499-A52714-normal">
      <IconStyle>
        <color>ff1427a5</color>
        <scale>1</scale>
        <Icon>
          <href>https://www.gstatic.com/mapspro/images/stock/503-wht-blank_maps.png</href>
        </Icon>
      </IconStyle>
      <LabelStyle>
        <scale>0</scale>
      </LabelStyle>
    </Style>
    <Style id="icon-1499-A52714-highlight">
      <IconStyle>
        <color>ff1427a5</color>
        <scale>1</scale>
        <Icon>
          <href>https://www.gstatic.com/mapspro/images/stock/503-wht-blank_maps.png</href>
        </Icon>
      </IconStyle>
      <LabelStyle>
        <scale>1</scale>
      </LabelStyle>
    </Style>
    <StyleMap id="icon-1499-A52714">
      <Pair>
        <key>normal</key>
        <styleUrl>#icon-1499-A52714-normal</styleUrl>
      </Pair>
      <Pair>
        <key>highlight</key>
        <styleUrl>#icon-1499-A52714-highlight</styleUrl>
      </Pair>
    </StyleMap>
    <Style id="icon-1532-000000-normal">
      <IconStyle>
        <color>ff000000</color>
        <scale>1</scale>
        <Icon>
          <href>https://www.gstatic.com/mapspro/images/stock/503-wht-blank_maps.png</href>
        </Icon>
      </IconStyle>
      <LabelStyle>
        <scale>0</scale>
      </LabelStyle>
    </Style>
    <Style id="icon-1532-000000-highlight">
      <IconStyle>
        <color>ff000000</color>
        <scale>1</scale>
        <Icon>
          <href>https://www.gstatic.com/mapspro/images/stock/503-wht-blank_maps.png</href>
        </Icon>
      </IconStyle>
      <LabelStyle>
        <scale>1</scale>
      </LabelStyle>
    </Style>
    <StyleMap id="icon-1532-000000">
      <Pair>
        <key>normal</key>
        <styleUrl>#icon-1532-000000-normal</styleUrl>
      </Pair>
      <Pair>
        <key>highlight</key>
        <styleUrl>#icon-1532-000000-highlight</styleUrl>
      </Pair>
    </StyleMap>
    <Style id="icon-1532-A52714-normal">
      <IconStyle>
        <color>ff1427a5</color>
        <scale>1</scale>
        <Icon>
          <href>https://www.gstatic.com/mapspro/images/stock/503-wht-blank_maps.png</href>
        </Icon>
      </IconStyle>
      <LabelStyle>
        <scale>0</scale>
      </LabelStyle>
    </Style>
    <Style id="icon-1532-A52714-highlight">
      <IconStyle>
        <color>ff1427a5</color>
        <scale>1</scale>
        <Icon>
          <href>https://www.gstatic.com/mapspro/images/stock/503-wht-blank_maps.png</href>
        </Icon>
      </IconStyle>
      <LabelStyle>
        <scale>1</scale>
      </LabelStyle>
    </Style>
    <StyleMap id="icon-1532-A52714">
      <Pair>
        <key>normal</key>
        <styleUrl>#icon-1532-A52714-normal</styleUrl>
      </Pair>
      <Pair>
        <key>highlight</key>
        <styleUrl>#icon-1532-A52714-highlight</styleUrl>
      </Pair>
    </StyleMap>
    <Style id="icon-1546-000000-normal">
      <IconStyle>
        <color>ff000000</color>
        <scale>1</scale>
        <Icon>
          <href>https://www.gstatic.com/mapspro/images/stock/503-wht-blank_maps.png</href>
        </Icon>
      </IconStyle>
      <LabelStyle>
        <scale>0</scale>
      </LabelStyle>
    </Style>
    <Style id="icon-1546-000000-highlight">
      <IconStyle>
        <color>ff000000</color>
        <scale>1</scale>
        <Icon>
          <href>https://www.gstatic.com/mapspro/images/stock/503-wht-blank_maps.png</href>
        </Icon>
      </IconStyle>
      <LabelStyle>
        <scale>1</scale>
      </LabelStyle>
    </Style>
    <StyleMap id="icon-1546-000000">
      <Pair>
        <key>normal</key>
        <styleUrl>#icon-1546-000000-normal</styleUrl>
      </Pair>
      <Pair>
        <key>highlight</key>
        <styleUrl>#icon-1546-000000-highlight</styleUrl>
      </Pair>
    </StyleMap>
    <Style id="icon-1546-A52714-normal">
      <IconStyle>
        <color>ff1427a5</color>
        <scale>1</scale>
        <Icon>
          <href>https://www.gstatic.com/mapspro/images/stock/503-wht-blank_maps.png</href>
        </Icon>
      </IconStyle>
      <LabelStyle>
        <scale>0</scale>
      </LabelStyle>
    </Style>
    <Style id="icon-1546-A52714-highlight">
      <IconStyle>
        <color>ff1427a5</color>
        <scale>1</scale>
        <Icon>
          <href>https://www.gstatic.com/mapspro/images/stock/503-wht-blank_maps.png</href>
        </Icon>
      </IconStyle>
      <LabelStyle>
        <scale>1</scale>
      </LabelStyle>
    </Style>
    <StyleMap id="icon-1546-A52714">
      <Pair>
        <key>normal</key>
        <styleUrl>#icon-1546-A52714-normal</styleUrl>
      </Pair>
      <Pair>
        <key>highlight</key>
        <styleUrl>#icon-1546-A52714-highlight</styleUrl>
      </Pair>
    </StyleMap>
    <Style id="icon-1548-000000-normal">
      <IconStyle>
        <color>ff000000</color>
        <scale>1</scale>
        <Icon>
          <href>https://www.gstatic.com/mapspro/images/stock/503-wht-blank_maps.png</href>
        </Icon>
      </IconStyle>
      <LabelStyle>
        <scale>0</scale>
      </LabelStyle>
    </Style>
    <Style id="icon-1548-000000-highlight">
      <IconStyle>
        <color>ff000000</color>
        <scale>1</scale>
        <Icon>
          <href>https://www.gstatic.com/mapspro/images/stock/503-wht-blank_maps.png</href>
        </Icon>
      </IconStyle>
      <LabelStyle>
        <scale>1</scale>
      </LabelStyle>
    </Style>
    <StyleMap id="icon-1548-000000">
      <Pair>
        <key>normal</key>
        <styleUrl>#icon-1548-000000-normal</styleUrl>
      </Pair>
      <Pair>
        <key>highlight</key>
        <styleUrl>#icon-1548-000000-highlight</styleUrl>
      </Pair>
    </StyleMap>
    <Style id="icon-1548-A52714-normal">
      <IconStyle>
        <color>ff1427a5</color>
        <scale>1</scale>
        <Icon>
          <href>https://www.gstatic.com/mapspro/images/stock/503-wht-blank_maps.png</href>
        </Icon>
      </IconStyle>
      <LabelStyle>
        <scale>0</scale>
      </LabelStyle>
    </Style>
    <Style id="icon-1548-A52714-highlight">
      <IconStyle>
        <color>ff1427a5</color>
        <scale>1</scale>
        <Icon>
          <href>https://www.gstatic.com/mapspro/images/stock/503-wht-blank_maps.png</href>
        </Icon>
      </IconStyle>
      <LabelStyle>
        <scale>1</scale>
      </LabelStyle>
    </Style>
    <StyleMap id="icon-1548-A52714">
      <Pair>
        <key>normal</key>
        <styleUrl>#icon-1548-A52714-normal</styleUrl>
      </Pair>
      <Pair>
        <key>highlight</key>
        <styleUrl>#icon-1548-A52714-highlight</styleUrl>
      </Pair>
    </StyleMap>
    <Style id="icon-1576-000000-normal">
      <IconStyle>
        <color>ff000000</color>
        <scale>1</scale>
        <Icon>
          <href>https://www.gstatic.com/mapspro/images/stock/503-wht-blank_maps.png</href>
        </Icon>
      </IconStyle>
      <LabelStyle>
        <scale>0</scale>
      </LabelStyle>
    </Style>
    <Style id="icon-1576-000000-highlight">
      <IconStyle>
        <color>ff000000</color>
        <scale>1</scale>
        <Icon>
          <href>https://www.gstatic.com/mapspro/images/stock/503-wht-blank_maps.png</href>
        </Icon>
      </IconStyle>
      <LabelStyle>
        <scale>1</scale>
      </LabelStyle>
    </Style>
    <StyleMap id="icon-1576-000000">
      <Pair>
        <key>normal</key>
        <styleUrl>#icon-1576-000000-normal</styleUrl>
      </Pair>
      <Pair>
        <key>highlight</key>
        <styleUrl>#icon-1576-000000-highlight</styleUrl>
      </Pair>
    </StyleMap>
    <Style id="icon-1576-A52714-normal">
      <IconStyle>
        <color>ff1427a5</color>
        <scale>1</scale>
        <Icon>
          <href>https://www.gstatic.com/mapspro/images/stock/503-wht-blank_maps.png</href>
        </Icon>
      </IconStyle>
      <LabelStyle>
        <scale>0</scale>
      </LabelStyle>
    </Style>
    <Style id="icon-1576-A52714-highlight">
      <IconStyle>
        <color>ff1427a5</color>
        <scale>1</scale>
        <Icon>
          <href>https://www.gstatic.com/mapspro/images/stock/503-wht-blank_maps.png</href>
        </Icon>
      </IconStyle>
      <LabelStyle>
        <scale>1</scale>
      </LabelStyle>
    </Style>
    <StyleMap id="icon-1576-A52714">
      <Pair>
        <key>normal</key>
        <styleUrl>#icon-1576-A52714-normal</styleUrl>
      </Pair>
      <Pair>
        <key>highlight</key>
        <styleUrl>#icon-1576-A52714-highlight</styleUrl>
      </Pair>
    </StyleMap>
    <Style id="icon-1624-000000-normal">
      <IconStyle>
        <color>ff000000</color>
        <scale>1</scale>
        <Icon>
          <href>https://www.gstatic.com/mapspro/images/stock/503-wht-blank_maps.png</href>
        </Icon>
      </IconStyle>
      <LabelStyle>
        <scale>0</scale>
      </LabelStyle>
    </Style>
    <Style id="icon-1624-000000-highlight">
      <IconStyle>
        <color>ff000000</color>
        <scale>1</scale>
        <Icon>
          <href>https://www.gstatic.com/mapspro/images/stock/503-wht-blank_maps.png</href>
        </Icon>
      </IconStyle>
      <LabelStyle>
        <scale>1</scale>
      </LabelStyle>
    </Style>
    <StyleMap id="icon-1624-000000">
      <Pair>
        <key>normal</key>
        <styleUrl>#icon-1624-000000-normal</styleUrl>
      </Pair>
      <Pair>
        <key>highlight</key>
        <styleUrl>#icon-1624-000000-highlight</styleUrl>
      </Pair>
    </StyleMap>
    <Style id="icon-1624-A52714-normal">
      <IconStyle>
        <color>ff1427a5</color>
        <scale>1</scale>
        <Icon>
          <href>https://www.gstatic.com/mapspro/images/stock/503-wht-blank_maps.png</href>
        </Icon>
      </IconStyle>
      <LabelStyle>
        <scale>0</scale>
      </LabelStyle>
    </Style>
    <Style id="icon-1624-A52714-highlight">
      <IconStyle>
        <color>ff1427a5</color>
        <scale>1</scale>
        <Icon>
          <href>https://www.gstatic.com/mapspro/images/stock/503-wht-blank_maps.png</href>
        </Icon>
      </IconStyle>
      <LabelStyle>
        <scale>1</scale>
      </LabelStyle>
    </Style>
    <StyleMap id="icon-1624-A52714">
      <Pair>
        <key>normal</key>
        <styleUrl>#icon-1624-A52714-normal</styleUrl>
      </Pair>
      <Pair>
        <key>highlight</key>
        <styleUrl>#icon-1624-A52714-highlight</styleUrl>
      </Pair>
    </StyleMap>
    <Style id="icon-1626-000000-normal">
      <IconStyle>
        <color>ff000000</color>
        <scale>1</scale>
        <Icon>
          <href>https://www.gstatic.com/mapspro/images/stock/503-wht-blank_maps.png</href>
        </Icon>
      </IconStyle>
      <LabelStyle>
        <scale>0</scale>
      </LabelStyle>
    </Style>
    <Style id="icon-1626-000000-highlight">
      <IconStyle>
        <color>ff000000</color>
        <scale>1</scale>
        <Icon>
          <href>https://www.gstatic.com/mapspro/images/stock/503-wht-blank_maps.png</href>
        </Icon>
      </IconStyle>
      <LabelStyle>
        <scale>1</scale>
      </LabelStyle>
    </Style>
    <StyleMap id="icon-1626-000000">
      <Pair>
        <key>normal</key>
        <styleUrl>#icon-1626-000000-normal</styleUrl>
      </Pair>
      <Pair>
        <key>highlight</key>
        <styleUrl>#icon-1626-000000-highlight</styleUrl>
      </Pair>
    </StyleMap>
    <Style id="icon-1626-A52714-normal">
      <IconStyle>
        <color>ff1427a5</color>
        <scale>1</scale>
        <Icon>
          <href>https://www.gstatic.com/mapspro/images/stock/503-wht-blank_maps.png</href>
        </Icon>
      </IconStyle>
      <LabelStyle>
        <scale>0</scale>
      </LabelStyle>
    </Style>
    <Style id="icon-1626-A52714-highlight">
      <IconStyle>
        <color>ff1427a5</color>
        <scale>1</scale>
        <Icon>
          <href>https://www.gstatic.com/mapspro/images/stock/503-wht-blank_maps.png</href>
        </Icon>
      </IconStyle>
      <LabelStyle>
        <scale>1</scale>
      </LabelStyle>
    </Style>
    <StyleMap id="icon-1626-A52714">
      <Pair>
        <key>normal</key>
        <styleUrl>#icon-1626-A52714-normal</styleUrl>
      </Pair>
      <Pair>
        <key>highlight</key>
        <styleUrl>#icon-1626-A52714-highlight</styleUrl>
      </Pair>
    </StyleMap>
    <Style id="icon-1670-A52714-normal">
      <IconStyle>
        <color>ff1427a5</color>
        <scale>1</scale>
        <Icon>
          <href>https://www.gstatic.com/mapspro/images/stock/503-wht-blank_maps.png</href>
        </Icon>
      </IconStyle>
      <LabelStyle>
        <scale>0</scale>
      </LabelStyle>
    </Style>
    <Style id="icon-1670-A52714-highlight">
      <IconStyle>
        <color>ff1427a5</color>
        <scale>1</scale>
        <Icon>
          <href>https://www.gstatic.com/mapspro/images/stock/503-wht-blank_maps.png</href>
        </Icon>
      </IconStyle>
      <LabelStyle>
        <scale>1</scale>
      </LabelStyle>
    </Style>
    <StyleMap id="icon-1670-A52714">
      <Pair>
        <key>normal</key>
        <styleUrl>#icon-1670-A52714-normal</styleUrl>
      </Pair>
      <Pair>
        <key>highlight</key>
        <styleUrl>#icon-1670-A52714-highlight</styleUrl>
      </Pair>
    </StyleMap>
    <Style id="icon-1720-000000-normal">
      <IconStyle>
        <color>ff000000</color>
        <scale>1</scale>
        <Icon>
          <href>https://www.gstatic.com/mapspro/images/stock/503-wht-blank_maps.png</href>
        </Icon>
      </IconStyle>
      <LabelStyle>
        <scale>0</scale>
      </LabelStyle>
    </Style>
    <Style id="icon-1720-000000-highlight">
      <IconStyle>
        <color>ff000000</color>
        <scale>1</scale>
        <Icon>
          <href>https://www.gstatic.com/mapspro/images/stock/503-wht-blank_maps.png</href>
        </Icon>
      </IconStyle>
      <LabelStyle>
        <scale>1</scale>
      </LabelStyle>
    </Style>
    <StyleMap id="icon-1720-000000">
      <Pair>
        <key>normal</key>
        <styleUrl>#icon-1720-000000-normal</styleUrl>
      </Pair>
      <Pair>
        <key>highlight</key>
        <styleUrl>#icon-1720-000000-highlight</styleUrl>
      </Pair>
    </StyleMap>
    <Style id="icon-1720-A52714-normal">
      <IconStyle>
        <color>ff1427a5</color>
        <scale>1</scale>
        <Icon>
          <href>https://www.gstatic.com/mapspro/images/stock/503-wht-blank_maps.png</href>
        </Icon>
      </IconStyle>
      <LabelStyle>
        <scale>0</scale>
      </LabelStyle>
    </Style>
    <Style id="icon-1720-A52714-highlight">
      <IconStyle>
        <color>ff1427a5</color>
        <scale>1</scale>
        <Icon>
          <href>https://www.gstatic.com/mapspro/images/stock/503-wht-blank_maps.png</href>
        </Icon>
      </IconStyle>
      <LabelStyle>
        <scale>1</scale>
      </LabelStyle>
    </Style>
    <StyleMap id="icon-1720-A52714">
      <Pair>
        <key>normal</key>
        <styleUrl>#icon-1720-A52714-normal</styleUrl>
      </Pair>
      <Pair>
        <key>highlight</key>
        <styleUrl>#icon-1720-A52714-highlight</styleUrl>
      </Pair>
    </StyleMap>
    <Style id="icon-1726-000000-normal">
      <IconStyle>
        <color>ff000000</color>
        <scale>1</scale>
        <Icon>
          <href>https://www.gstatic.com/mapspro/images/stock/503-wht-blank_maps.png</href>
        </Icon>
      </IconStyle>
      <LabelStyle>
        <scale>0</scale>
      </LabelStyle>
    </Style>
    <Style id="icon-1726-000000-highlight">
      <IconStyle>
        <color>ff000000</color>
        <scale>1</scale>
        <Icon>
          <href>https://www.gstatic.com/mapspro/images/stock/503-wht-blank_maps.png</href>
        </Icon>
      </IconStyle>
      <LabelStyle>
        <scale>1</scale>
      </LabelStyle>
    </Style>
    <StyleMap id="icon-1726-000000">
      <Pair>
        <key>normal</key>
        <styleUrl>#icon-1726-000000-normal</styleUrl>
      </Pair>
      <Pair>
        <key>highlight</key>
        <styleUrl>#icon-1726-000000-highlight</styleUrl>
      </Pair>
    </StyleMap>
    <Style id="icon-1726-A52714-normal">
      <IconStyle>
        <color>ff1427a5</color>
        <scale>1</scale>
        <Icon>
          <href>https://www.gstatic.com/mapspro/images/stock/503-wht-blank_maps.png</href>
        </Icon>
      </IconStyle>
      <LabelStyle>
        <scale>0</scale>
      </LabelStyle>
    </Style>
    <Style id="icon-1726-A52714-highlight">
      <IconStyle>
        <color>ff1427a5</color>
        <scale>1</scale>
        <Icon>
          <href>https://www.gstatic.com/mapspro/images/stock/503-wht-blank_maps.png</href>
        </Icon>
      </IconStyle>
      <LabelStyle>
        <scale>1</scale>
      </LabelStyle>
    </Style>
    <StyleMap id="icon-1726-A52714">
      <Pair>
        <key>normal</key>
        <styleUrl>#icon-1726-A52714-normal</styleUrl>
      </Pair>
      <Pair>
        <key>highlight</key>
        <styleUrl>#icon-1726-A52714-highlight</styleUrl>
      </Pair>
    </StyleMap>
    <Style id="icon-1883-000000-normal">
      <IconStyle>
        <color>ff000000</color>
        <scale>1</scale>
        <Icon>
          <href>https://www.gstatic.com/mapspro/images/stock/503-wht-blank_maps.png</href>
        </Icon>
      </IconStyle>
      <LabelStyle>
        <scale>0</scale>
      </LabelStyle>
    </Style>
    <Style id="icon-1883-000000-highlight">
      <IconStyle>
        <color>ff000000</color>
        <scale>1</scale>
        <Icon>
          <href>https://www.gstatic.com/mapspro/images/stock/503-wht-blank_maps.png</href>
        </Icon>
      </IconStyle>
      <LabelStyle>
        <scale>1</scale>
      </LabelStyle>
    </Style>
    <StyleMap id="icon-1883-000000">
      <Pair>
        <key>normal</key>
        <styleUrl>#icon-1883-000000-normal</styleUrl>
      </Pair>
      <Pair>
        <key>highlight</key>
        <styleUrl>#icon-1883-000000-highlight</styleUrl>
      </Pair>
    </StyleMap>
    <Style id="line-000000-5263-nodesc-normal">
      <LineStyle>
        <color>ff000000</color>
        <width>5.263</width>
      </LineStyle>
      <BalloonStyle>
        <text><![CDATA[<h3>$[name]</h3>]]></text>
      </BalloonStyle>
    </Style>
    <Style id="line-000000-5263-nodesc-highlight">
      <LineStyle>
        <color>ff000000</color>
        <width>7.8945</width>
      </LineStyle>
      <BalloonStyle>
        <text><![CDATA[<h3>$[name]</h3>]]></text>
      </BalloonStyle>
    </Style>
    <StyleMap id="line-000000-5263-nodesc">
      <Pair>
        <key>normal</key>
        <styleUrl>#line-000000-5263-nodesc-normal</styleUrl>
      </Pair>
      <Pair>
        <key>highlight</key>
        <styleUrl>#line-000000-5263-nodesc-highlight</styleUrl>
      </Pair>
    </StyleMap>
    <Style id="line-A52714-5456-nodesc-normal">
      <LineStyle>
        <color>ff1427a5</color>
        <width>5.456</width>
      </LineStyle>
      <BalloonStyle>
        <text><![CDATA[<h3>$[name]</h3>]]></text>
      </BalloonStyle>
    </Style>
    <Style id="line-A52714-5456-nodesc-highlight">
      <LineStyle>
        <color>ff1427a5</color>
        <width>8.184</width>
      </LineStyle>
      <BalloonStyle>
        <text><![CDATA[<h3>$[name]</h3>]]></text>
      </BalloonStyle>
    </Style>
    <StyleMap id="line-A52714-5456-nodesc">
      <Pair>
        <key>normal</key>
        <styleUrl>#line-A52714-5456-nodesc-normal</styleUrl>
      </Pair>
      <Pair>
        <key>highlight</key>
        <styleUrl>#line-A52714-5456-nodesc-highlight</styleUrl>
      </Pair>
    </StyleMap>
    <Folder>
      <name>Маршрут туда</name>
      <Placemark>
        <name>Линия маршрута</name>
        <styleUrl>#line-A52714-5456-nodesc</styleUrl>
        <LineString>
          <tessellate>1</tessellate>
          <coordinates>
            36.2309808,49.9915637,0
            36.2314743,49.9915637,0
            36.2318927,49.9915568,0
            36.2321395,49.9915154,0
            36.2323004,49.9914327,0
            36.2324292,49.9913016,0
            36.232515,49.9910878,0
            36.2326223,49.9899014,0
            36.2331051,49.9897427,0
            36.2360019,49.9892599,0
            36.2375147,49.9889977,0
            36.2394137,49.988639,0
            36.2399394,49.9885563,0
            36.2402827,49.9886321,0
            36.2402183,49.9889357,0
            36.240111,49.9895979,0
            36.2400467,49.9903152,0
            36.2399823,49.9906256,0
            36.2399286,49.9907981,0
            36.239993,49.9909222,0
            36.2413448,49.991681,0
            36.2440485,49.9931294,0
            36.2448317,49.9935709,0
            36.2459797,49.9940537,0
            36.2468166,49.994364,0
            36.2483722,49.9947641,0
            36.2491554,49.9950331,0
            36.2499065,49.9953503,0
            36.2503571,49.9955641,0
            36.2514836,49.9962676,0
            36.2519664,49.9965435,0
            36.2527496,49.9969642,0
            36.2536079,49.997447,0
            36.2541014,49.9978125,0
            36.2545628,49.9981573,0
            36.255185,49.9986608,0
            36.2559468,49.999247,0
            36.2565476,49.9996746,0
            36.2570089,49.9998953,0
            36.2578565,50.0001021,0
            36.2591869,50.0003504,0
            36.2598843,50.0005021,0
            36.2617833,50.000709,0
            36.263457,50.0008125,0
            36.2656242,50.0009573,0
            36.2662465,50.0009987,0
            36.2672228,50.0011159,0
            36.2682099,50.0013986,0
            36.2697548,50.0019365,0
            36.2711496,50.0024193,0
            36.2740356,50.0035088,0
            36.2750441,50.0039433,0
            36.2756449,50.0043432,0
            36.2764174,50.0047914,0
            36.277898,50.0057154,0
            36.2792927,50.006605,0
            36.2817389,50.008115,0
            36.2841851,50.0097078,0
            36.2855584,50.0105903,0
            36.2866742,50.0114039,0
            36.2884552,50.0127898,0
            36.2890882,50.0132517,0
            36.2898177,50.0139756,0
            36.2907833,50.0149408,0
            36.2914914,50.0157957,0
            36.291824,50.0166023,0
            36.2928325,50.0187463,0
            36.2931759,50.0191461,0
            36.2937552,50.0196769,0
            36.2949676,50.0209729,0
            36.2966198,50.0227927,0
            36.2981862,50.0245021,0
            36.2997312,50.0261977,0
            36.3014371,50.0280863,0
            36.3020915,50.02881,0
            36.3024885,50.0291339,0
            36.3026709,50.0292924,0
            36.3030786,50.0293062,0
            36.3036043,50.0292373,0
            36.3046986,50.0291201,0
            36.3052565,50.0289892,0
            36.3059324,50.0289133,0
            36.3074881,50.0289616,0
            36.3091404,50.0290512,0
            36.3113076,50.0290857,0
            36.3140971,50.0290788,0
            36.3157279,50.0290236,0
            36.317423,50.0288927,0
            36.3187427,50.0287617,0
            36.3211888,50.0284378,0
            36.3229806,50.0281276,0
            36.3239354,50.0278933,0
            36.3244183,50.0277555,0
            36.3234955,50.0267215,0
            36.3211674,50.0246814,0
            36.3191933,50.0233303,0
            36.3181419,50.022517,0
            36.3179863,50.0222757,0
            36.318217,50.0219793,0
            36.3200544,50.0206734,0
            36.3214612,50.0198446,0
            36.3229967,50.0191261,0
            36.3267059,50.0177199,0
            36.3307921,50.0164237,0
            36.3363542,50.0146861,0
            36.3398435,50.0136793,0
            36.3436551,50.0124657,0
            36.3465089,50.0115832,0
            36.3498885,50.0104248,0
            36.3523561,50.0125347,0
            36.3552851,50.0148581,0
            36.3583321,50.0174778,0
            36.3600916,50.0188152,0
            36.3606387,50.0192633,0
            36.3609714,50.019153,0
            36.3634068,50.0179742,0
            36.3650805,50.0171331,0
            36.3664216,50.0163472,0
            36.3678164,50.015451,0
            36.3678915,50.0155268,0
            36.366486,50.0164506,0
          </coordinates>
        </LineString>
      </Placemark>
      <Placemark>
        <name>Станция метро Площадь Конституции
</name>
        <description>Автобус-272.</description>
        <styleUrl>#icon-1499-A52714</styleUrl>
        <Point>
          <coordinates>
            36.2309244,49.9914241,0
          </coordinates>
        </Point>
      </Placemark>
      <Placemark>
        <name>Остановка пер. Короленко
</name>
        <description>Автобус - 272.</description>
        <styleUrl>#icon-1532-A52714</styleUrl>
        <Point>
          <coordinates>
            36.2365801,49.9890296,0
          </coordinates>
        </Point>
      </Placemark>
      <Placemark>
        <name>Остановка Харьковская набережная</name>
        <description>Автобус - 272.</description>
        <styleUrl>#icon-1576-A52714</styleUrl>
        <Point>
          <coordinates>
            36.240215,49.9892291,0
          </coordinates>
        </Point>
      </Placemark>
      <Placemark>
        <name>Остановка ул. Героев Спасателей
</name>
        <description>Автобус - 272.</description>
        <styleUrl>#icon-1532-A52714</styleUrl>
        <Point>
          <coordinates>
            36.2478933,49.9945636,0
          </coordinates>
        </Point>
      </Placemark>
      <Placemark>
        <name>Остановка ул. Шевченко
</name>
        <description>Автобус - 272.</description>
        <styleUrl>#icon-1532-A52714</styleUrl>
        <Point>
          <coordinates>
            36.2534143,49.9972278,0
          </coordinates>
        </Point>
      </Placemark>
      <Placemark>
        <name>Остановка 23 больница
</name>
        <description>Автобус - 272.</description>
        <styleUrl>#icon-1624-A52714</styleUrl>
        <Point>
          <coordinates>
            36.2648073,50.0007227,0
          </coordinates>
        </Point>
      </Placemark>
      <Placemark>
        <name>Станция метро Киевская
</name>
        <description>Автобус- 47, 241, 272.</description>
        <styleUrl>#icon-1626-A52714</styleUrl>
        <Point>
          <coordinates>
            36.2705051,50.0022439,0
          </coordinates>
        </Point>
      </Placemark>
      <Placemark>
        <name>Остановка ул. Кольцовская
</name>
        <description>Автобус- 47, 241, 272.</description>
        <styleUrl>#icon-1532-A52714</styleUrl>
        <Point>
          <coordinates>
            36.2746893,50.0037748,0
          </coordinates>
        </Point>
      </Placemark>
      <Placemark>
        <name>Остановка Жилищно коммунальный техникум
</name>
        <description>Автобус- 47, 241, 272.</description>
        <styleUrl>#icon-1726-A52714</styleUrl>
        <Point>
          <coordinates>
            36.2809442,50.0075812,0
          </coordinates>
        </Point>
      </Placemark>
      <Placemark>
        <name>Остановка ул. Луганская
</name>
        <description>Автобус- 47, 241, 272.</description>
        <styleUrl>#icon-1532-A52714</styleUrl>
        <Point>
          <coordinates>
            36.2865342,50.0112374,0
          </coordinates>
        </Point>
      </Placemark>
      <Placemark>
        <name>Остановка ул. Тахиаташская
</name>
        <description>Автобус- 241э.</description>
        <styleUrl>#icon-1532-A52714</styleUrl>
        <Point>
          <coordinates>
            36.2895615,50.0135946,0
          </coordinates>
        </Point>
      </Placemark>
      <Placemark>
        <name>Остановка Журавлевский гидропарк
</name>
        <description>Автобус- 47, 241, 272.</description>
        <styleUrl>#icon-1720-A52714</styleUrl>
        <Point>
          <coordinates>
            36.293445,50.0193152,0
          </coordinates>
        </Point>
      </Placemark>
      <Placemark>
        <name>Остановка ул. Ковпака
</name>
        <description>Автобус- 47, 241, 272.</description>
        <styleUrl>#icon-1532-A52714</styleUrl>
        <Point>
          <coordinates>
            36.297108,50.0233978,0
          </coordinates>
        </Point>
      </Placemark>
      <Placemark>
        <name>Остановка ул. Архитектора Гинзбурга
</name>
        <description>Автобус- 47, 63, 208, 272.</description>
        <styleUrl>#icon-1532-A52714</styleUrl>
        <Point>
          <coordinates>
            36.3032933,50.0291592,0
          </coordinates>
        </Point>
      </Placemark>
      <Placemark>
        <name>Остановка Сосновый бор
</name>
        <description>Автобус- 47, 63, 208, 272.</description>
        <styleUrl>#icon-1720-A52714</styleUrl>
        <Point>
          <coordinates>
            36.3161947,50.0288629,0
          </coordinates>
        </Point>
      </Placemark>
      <Placemark>
        <name>Остановка ул. Барабашова
</name>
        <description>Автобус- 272.</description>
        <styleUrl>#icon-1532-A52714</styleUrl>
        <Point>
          <coordinates>
            36.3222743,50.0257766,0
          </coordinates>
        </Point>
      </Placemark>
      <Placemark>
        <name>Остановка Педагогический университет 
</name>
        <description>Автобус- 272.</description>
        <styleUrl>#icon-1726-A52714</styleUrl>
        <Point>
          <coordinates>
            36.3184735,50.0217358,0
          </coordinates>
        </Point>
      </Placemark>
      <Placemark>
        <name>Остановка Фармацевтический университет
</name>
        <description>Автобус- 272. Троллейбус - 34.</description>
        <styleUrl>#icon-1726-A52714</styleUrl>
        <Point>
          <coordinates>
            36.3218169,50.0196001,0
          </coordinates>
        </Point>
      </Placemark>
      <Placemark>
        <name>Станция метро Студенческая
</name>
        <description>Автобус- 272. Троллейбус - 34.</description>
        <styleUrl>#icon-1626-A52714</styleUrl>
        <Point>
          <coordinates>
            36.3308057,50.0163377,0
          </coordinates>
        </Point>
      </Placemark>
      <Placemark>
        <name>Остановка 531 м/р
</name>
        <description>Автобус- 272. Троллейбус - 34.</description>
        <styleUrl>#icon-1546-A52714</styleUrl>
        <Point>
          <coordinates>
            36.3357841,50.0146831,0
          </coordinates>
        </Point>
      </Placemark>
      <Placemark>
        <name>Остановка ул. Гвардейцев Широнинцев
</name>
        <description>Автобус- 272. Троллейбус - 34.</description>
        <styleUrl>#icon-1532-A52714</styleUrl>
        <Point>
          <coordinates>
            36.3418188,50.0129113,0
          </coordinates>
        </Point>
      </Placemark>
      <Placemark>
        <name>Остановка ул. Валентиновская
</name>
        <description>Автобус- 204, 272.</description>
        <styleUrl>#icon-1532-A52714</styleUrl>
        <Point>
          <coordinates>
            36.3503912,50.0108085,0
          </coordinates>
        </Point>
      </Placemark>
      <Placemark>
        <name>Остановка 606 м/р
</name>
        <description>Автобус- 204, 272.</description>
        <styleUrl>#icon-1546-A52714</styleUrl>
        <Point>
          <coordinates>
            36.3565117,50.015938,0
          </coordinates>
        </Point>
      </Placemark>
      <Placemark>
        <name>Остановка Региональный центр услуг
</name>
        <description>Автобус- 204, 272.</description>
        <styleUrl>#icon-1548-A52714</styleUrl>
        <Point>
          <coordinates>
            36.3594407,50.0181923,0
          </coordinates>
        </Point>
      </Placemark>
      <Placemark>
        <name>Остановка Владимирская церковь 
</name>
        <description>Автобус- 47э, 212э, 266э.</description>
        <styleUrl>#icon-1670-A52714</styleUrl>
        <Point>
          <coordinates>
            36.3611736,50.0189643,0
          </coordinates>
        </Point>
      </Placemark>
    </Folder>
    <Folder>
      <name>Маршрут обратно</name>
      <Placemark>
        <name>Линия маршрута</name>
        <styleUrl>#line-000000-5263-nodesc</styleUrl>
        <LineString>
          <tessellate>1</tessellate>
          <coordinates>
            36.3664003,50.016497,0
            36.3660355,50.0167107,0
            36.3649733,50.0173242,0
            36.3638254,50.0179378,0
            36.3625808,50.0185237,0
            36.361465,50.0191166,0
            36.3605746,50.0194819,0
            36.3594158,50.0185927,0
            36.3572807,50.0168968,0
            36.3531394,50.0134497,0
            36.3497598,50.0106436,0
            36.3435694,50.0126775,0
            36.338559,50.0142012,0
            36.3355442,50.0150974,0
            36.3319607,50.0162695,0
            36.3293107,50.0171174,0
            36.3267358,50.0179171,0
            36.3254161,50.0184204,0
            36.3242145,50.0188201,0
            36.322927,50.0193717,0
            36.3215323,50.0201162,0
            36.3198264,50.0210399,0
            36.3188823,50.0216878,0
            36.31826,50.0221979,0
            36.3182546,50.0224392,0
            36.3189574,50.0229424,0
            36.3215643,50.0247726,0
            36.3233348,50.026244,0
            36.324236,50.0271539,0
            36.3245471,50.027595,0
            36.3247188,50.0278638,0
            36.3235386,50.0281257,0
            36.3219936,50.0284083,0
            36.3207169,50.0286151,0
            36.3189788,50.0288494,0
            36.3154383,50.0291733,0
            36.311812,50.0292216,0
            36.3095696,50.0291596,0
            36.3083358,50.0291182,0
            36.3070591,50.0291044,0
            36.3055785,50.0291182,0
            36.3044305,50.0292629,0
            36.3036151,50.0293456,0
            36.3027997,50.0294077,0
            36.3023599,50.0293525,0
            36.3018878,50.0289873,0
            36.3017698,50.0287736,0
            36.3003965,50.0271194,0
            36.2992378,50.0258167,0
            36.2971564,50.023611,0
            36.2949355,50.0212329,0
            36.2935515,50.0197784,0
            36.292661,50.0188546,0
            36.2923928,50.0183997,0
            36.2919958,50.0175035,0
            36.291513,50.0163315,0
            36.2912448,50.0158282,0
            36.2909229,50.0153663,0
            36.2903006,50.0147665,0
            36.2894745,50.0139323,0
            36.2889488,50.0134014,0
            36.2880154,50.012712,0
            36.2866314,50.011602,0
            36.2849899,50.0104367,0
            36.2834127,50.0094301,0
            36.2810739,50.0079132,0
            36.2786169,50.0064376,0
            36.2759777,50.0047413,0
            36.2746258,50.0039207,0
            36.2734671,50.0034931,0
            36.2709136,50.0024656,0
            36.269712,50.0021001,0
            36.2677808,50.0014105,0
            36.266944,50.0012036,0
            36.2654312,50.0010519,0
            36.2636073,50.0009899,0
            36.2615474,50.0008037,0
            36.2600561,50.0006657,0
            36.2587901,50.0004519,0
            36.2570842,50.0000795,0
            36.2565585,49.9998658,0
            36.2558182,49.9993761,0
            36.2543483,49.9982313,0
            36.2536295,49.9976658,0
            36.2525995,49.9970657,0
            36.2506898,49.9959829,0
            36.2497135,49.9954243,0
            36.2486728,49.9950174,0
            36.2472029,49.9945966,0
            36.2458082,49.9941414,0
            36.2445207,49.9935689,0
            36.2434586,49.9929827,0
            36.2419458,49.9921619,0
            36.2401326,49.9911893,0
            36.2397678,49.9909203,0
            36.2396713,49.9906444,0
            36.2398644,49.9899408,0
            36.240079,49.9886785,0
            36.2382551,49.9885682,0
            36.232719,49.988444,0
            36.2323006,49.988306,0
            36.2307342,49.9878163,0
            36.230305,49.9877128,0
            36.2301977,49.9880508,0
            36.2300797,49.9905685,0
            36.2300904,49.9914652,0
            36.2303157,49.9915066,0
            36.2309808,49.9915637,0
          </coordinates>
        </LineString>
      </Placemark>
      <Placemark>
        <name>Остановка ул. Светлая
</name>
        <description>Автобус- 47, 222, 272.</description>
        <styleUrl>#icon-1499-000000</styleUrl>
        <Point>
          <coordinates>
            36.366581,50.0161792,0
          </coordinates>
        </Point>
      </Placemark>
      <Placemark>
        <name>Остановка Региональный центр услуг
</name>
        <description>Автобус- 204, 272.</description>
        <styleUrl>#icon-1548-000000</styleUrl>
        <Point>
          <coordinates>
            36.3598233,50.0189814,0
          </coordinates>
        </Point>
      </Placemark>
      <Placemark>
        <name>Остановка 606 м/р
</name>
        <description>Автобус- 204, 272.</description>
        <styleUrl>#icon-1546-000000</styleUrl>
        <Point>
          <coordinates>
            36.3561881,50.0159779,0
          </coordinates>
        </Point>
      </Placemark>
      <Placemark>
        <name>Остановка ул. Валентиновская
</name>
        <description>Автобус- 204, 272.</description>
        <styleUrl>#icon-1532-000000</styleUrl>
        <Point>
          <coordinates>
            36.3504052,50.0111838,0
          </coordinates>
        </Point>
      </Placemark>
      <Placemark>
        <name>Остановка пр. Тракторостроителей
</name>
        <description>Автобус- 272. Троллейбус - 34, 56.</description>
        <styleUrl>#icon-1883-000000</styleUrl>
        <Point>
          <coordinates>
            36.3490148,50.0110186,0
          </coordinates>
        </Point>
      </Placemark>
      <Placemark>
        <name>Остановка ул. Гвардейцев Широнинцев
</name>
        <description>Автобус- 272. Троллейбус - 34.</description>
        <styleUrl>#icon-1532-000000</styleUrl>
        <Point>
          <coordinates>
            36.3403698,50.0136512,0
          </coordinates>
        </Point>
      </Placemark>
      <Placemark>
        <name>Остановка 531 м/р</name>
        <description>Автобус- 272. Троллейбус - 34.</description>
        <styleUrl>#icon-1546-000000</styleUrl>
        <Point>
          <coordinates>
            36.3348123,50.0153335,0
          </coordinates>
        </Point>
      </Placemark>
      <Placemark>
        <name>Станция метро Студенческая
</name>
        <description>Автобус- 272. Троллейбус - 34.</description>
        <styleUrl>#icon-1626-000000</styleUrl>
        <Point>
          <coordinates>
            36.3285283,50.0172455,0
          </coordinates>
        </Point>
      </Placemark>
      <Placemark>
        <name>Остановка Педагогический университет
</name>
        <description>Автобус- 272.</description>
        <styleUrl>#icon-1726-000000</styleUrl>
        <Point>
          <coordinates>
            36.3186792,50.0228017,0
          </coordinates>
        </Point>
      </Placemark>
      <Placemark>
        <name>Остановка Фармацевтический университет
</name>
        <description>Автобус- 272. Троллейбус - 34.</description>
        <styleUrl>#icon-1726-000000</styleUrl>
        <Point>
          <coordinates>
            36.3212366,50.0201791,0
          </coordinates>
        </Point>
      </Placemark>
      <Placemark>
        <name>Остановка ул. Барабашова
</name>
        <description>Автобус- 272.</description>
        <styleUrl>#icon-1532-000000</styleUrl>
        <Point>
          <coordinates>
            36.3235069,50.0282364,0
          </coordinates>
        </Point>
      </Placemark>
      <Placemark>
        <name>Остановка Сосновый бор
</name>
        <description>Автобус- 47, 63, 208, 272.</description>
        <styleUrl>#icon-1720-000000</styleUrl>
        <Point>
          <coordinates>
            36.3163042,50.0291629,0
          </coordinates>
        </Point>
      </Placemark>
      <Placemark>
        <name>Остановка ул. Архитектора Гинзбурга
</name>
        <description>Автобус- 47, 63, 208, 272.</description>
        <styleUrl>#icon-1532-000000</styleUrl>
        <Point>
          <coordinates>
            36.3042664,50.0292525,0
          </coordinates>
        </Point>
      </Placemark>
      <Placemark>
        <name>Остановка ул. Саперная
</name>
        <description>Автобус- 47, 63, 208, 272.</description>
        <styleUrl>#icon-1532-000000</styleUrl>
        <Point>
          <coordinates>
            36.302007,50.0290811,0
          </coordinates>
        </Point>
      </Placemark>
      <Placemark>
        <name>Остановка ул. Борткевича
</name>
        <description>Автобус- 47, 241, 272.</description>
        <styleUrl>#icon-1532-000000</styleUrl>
        <Point>
          <coordinates>
            36.2972914,50.0239746,0
          </coordinates>
        </Point>
      </Placemark>
      <Placemark>
        <name>Остановка Журавлевский гидропарк
</name>
        <description>Автобус- 47, 241, 272.</description>
        <styleUrl>#icon-1720-000000</styleUrl>
        <Point>
          <coordinates>
            36.2930713,50.0192049,0
          </coordinates>
        </Point>
      </Placemark>
      <Placemark>
        <name>Остановка ул. Тахиаташская
</name>
        <description>Автобус- 47, 241, 272.</description>
        <styleUrl>#icon-1532-000000</styleUrl>
        <Point>
          <coordinates>
            36.2890605,50.0138954,0
          </coordinates>
        </Point>
      </Placemark>
      <Placemark>
        <name>Остановка ул. Луганская
</name>
        <description>Автобус- 47, 241, 272.</description>
        <styleUrl>#icon-1532-000000</styleUrl>
        <Point>
          <coordinates>
            36.285901,50.0110826,0
          </coordinates>
        </Point>
      </Placemark>
      <Placemark>
        <name>Остановка Жилищно коммунальный техникум
</name>
        <description>Автобус- 47, 241, 272.</description>
        <styleUrl>#icon-1726-000000</styleUrl>
        <Point>
          <coordinates>
            36.2801184,50.0074041,0
          </coordinates>
        </Point>
      </Placemark>
      <Placemark>
        <name>Остановка ул. Кольцовская
</name>
        <description>Автобус- 47, 241, 272.</description>
        <styleUrl>#icon-1532-000000</styleUrl>
        <Point>
          <coordinates>
            36.2738539,50.0036495,0
          </coordinates>
        </Point>
      </Placemark>
      <Placemark>
        <name>Станция метро Киевская
</name>
        <description>Автобус- 47, 241, 272.</description>
        <styleUrl>#icon-1626-000000</styleUrl>
        <Point>
          <coordinates>
            36.2697647,50.0024594,0
          </coordinates>
        </Point>
      </Placemark>
      <Placemark>
        <name>Остановка 23 больница
</name>
        <description>Автобус - 272.</description>
        <styleUrl>#icon-1624-000000</styleUrl>
        <Point>
          <coordinates>
            36.2634672,50.001014,0
          </coordinates>
        </Point>
      </Placemark>
      <Placemark>
        <name>Остановка ул. Шевченко
</name>
        <description>Автобус - 272.</description>
        <styleUrl>#icon-1532-000000</styleUrl>
        <Point>
          <coordinates>
            36.2522341,49.9967864,0
          </coordinates>
        </Point>
      </Placemark>
      <Placemark>
        <name>Остановка ул. Героев Спасателей
</name>
        <description>Автобус - 272.</description>
        <styleUrl>#icon-1532-000000</styleUrl>
        <Point>
          <coordinates>
            36.2490341,49.9953265,0
          </coordinates>
        </Point>
      </Placemark>
      <Placemark>
        <name>Остановка Харьковская набережная
</name>
        <description>Автобус - 272.</description>
        <styleUrl>#icon-1576-000000</styleUrl>
        <Point>
          <coordinates>
            36.2386186,49.9885743,0
          </coordinates>
        </Point>
      </Placemark>
      <Placemark>
        <name>Остановка Харьковская набережная
</name>
        <description>Автобус - 272.</description>
        <styleUrl>#icon-1576-000000</styleUrl>
        <Point>
          <coordinates>
            36.2398073,49.9904018,0
          </coordinates>
        </Point>
      </Placemark>
    </Folder>
  </Document>
</kml>
