<?xml version="1.0" encoding="UTF-8"?>
<kml xmlns="http://www.opengis.net/kml/2.2">
  <Document>
    <name>Автобусный маршрут №102 Харьков (Основянское озеро - рынок ХТЗ) kharkiv.inform.city</name>
    <description>Подробно https://kharkiv.inform.city/-ru/-tr/tr_city/tr_city_a/</description>
    <Style id="icon-1499-000000-normal">
      <IconStyle>
        <color>ff000000</color>
        <scale>1</scale>
        <Icon>
          <href>https://www.gstatic.com/mapspro/images/stock/503-wht-blank_maps.png</href>
        </Icon>
      </IconStyle>
      <LabelStyle>
        <scale>0</scale>
      </LabelStyle>
    </Style>
    <Style id="icon-1499-000000-highlight">
      <IconStyle>
        <color>ff000000</color>
        <scale>1</scale>
        <Icon>
          <href>https://www.gstatic.com/mapspro/images/stock/503-wht-blank_maps.png</href>
        </Icon>
      </IconStyle>
      <LabelStyle>
        <scale>1</scale>
      </LabelStyle>
    </Style>
    <StyleMap id="icon-1499-000000">
      <Pair>
        <key>normal</key>
        <styleUrl>#icon-1499-000000-normal</styleUrl>
      </Pair>
      <Pair>
        <key>highlight</key>
        <styleUrl>#icon-1499-000000-highlight</styleUrl>
      </Pair>
    </StyleMap>
    <Style id="icon-1499-A52714-normal">
      <IconStyle>
        <color>ff1427a5</color>
        <scale>1</scale>
        <Icon>
          <href>https://www.gstatic.com/mapspro/images/stock/503-wht-blank_maps.png</href>
        </Icon>
      </IconStyle>
      <LabelStyle>
        <scale>0</scale>
      </LabelStyle>
    </Style>
    <Style id="icon-1499-A52714-highlight">
      <IconStyle>
        <color>ff1427a5</color>
        <scale>1</scale>
        <Icon>
          <href>https://www.gstatic.com/mapspro/images/stock/503-wht-blank_maps.png</href>
        </Icon>
      </IconStyle>
      <LabelStyle>
        <scale>1</scale>
      </LabelStyle>
    </Style>
    <StyleMap id="icon-1499-A52714">
      <Pair>
        <key>normal</key>
        <styleUrl>#icon-1499-A52714-normal</styleUrl>
      </Pair>
      <Pair>
        <key>highlight</key>
        <styleUrl>#icon-1499-A52714-highlight</styleUrl>
      </Pair>
    </StyleMap>
    <Style id="icon-1520-000000-normal">
      <IconStyle>
        <color>ff000000</color>
        <scale>1</scale>
        <Icon>
          <href>https://www.gstatic.com/mapspro/images/stock/503-wht-blank_maps.png</href>
        </Icon>
      </IconStyle>
      <LabelStyle>
        <scale>0</scale>
      </LabelStyle>
    </Style>
    <Style id="icon-1520-000000-highlight">
      <IconStyle>
        <color>ff000000</color>
        <scale>1</scale>
        <Icon>
          <href>https://www.gstatic.com/mapspro/images/stock/503-wht-blank_maps.png</href>
        </Icon>
      </IconStyle>
      <LabelStyle>
        <scale>1</scale>
      </LabelStyle>
    </Style>
    <StyleMap id="icon-1520-000000">
      <Pair>
        <key>normal</key>
        <styleUrl>#icon-1520-000000-normal</styleUrl>
      </Pair>
      <Pair>
        <key>highlight</key>
        <styleUrl>#icon-1520-000000-highlight</styleUrl>
      </Pair>
    </StyleMap>
    <Style id="icon-1520-A52714-normal">
      <IconStyle>
        <color>ff1427a5</color>
        <scale>1</scale>
        <Icon>
          <href>https://www.gstatic.com/mapspro/images/stock/503-wht-blank_maps.png</href>
        </Icon>
      </IconStyle>
      <LabelStyle>
        <scale>0</scale>
      </LabelStyle>
    </Style>
    <Style id="icon-1520-A52714-highlight">
      <IconStyle>
        <color>ff1427a5</color>
        <scale>1</scale>
        <Icon>
          <href>https://www.gstatic.com/mapspro/images/stock/503-wht-blank_maps.png</href>
        </Icon>
      </IconStyle>
      <LabelStyle>
        <scale>1</scale>
      </LabelStyle>
    </Style>
    <StyleMap id="icon-1520-A52714">
      <Pair>
        <key>normal</key>
        <styleUrl>#icon-1520-A52714-normal</styleUrl>
      </Pair>
      <Pair>
        <key>highlight</key>
        <styleUrl>#icon-1520-A52714-highlight</styleUrl>
      </Pair>
    </StyleMap>
    <Style id="icon-1532-000000-normal">
      <IconStyle>
        <color>ff000000</color>
        <scale>1</scale>
        <Icon>
          <href>https://www.gstatic.com/mapspro/images/stock/503-wht-blank_maps.png</href>
        </Icon>
      </IconStyle>
      <LabelStyle>
        <scale>0</scale>
      </LabelStyle>
    </Style>
    <Style id="icon-1532-000000-highlight">
      <IconStyle>
        <color>ff000000</color>
        <scale>1</scale>
        <Icon>
          <href>https://www.gstatic.com/mapspro/images/stock/503-wht-blank_maps.png</href>
        </Icon>
      </IconStyle>
      <LabelStyle>
        <scale>1</scale>
      </LabelStyle>
    </Style>
    <StyleMap id="icon-1532-000000">
      <Pair>
        <key>normal</key>
        <styleUrl>#icon-1532-000000-normal</styleUrl>
      </Pair>
      <Pair>
        <key>highlight</key>
        <styleUrl>#icon-1532-000000-highlight</styleUrl>
      </Pair>
    </StyleMap>
    <Style id="icon-1532-A52714-normal">
      <IconStyle>
        <color>ff1427a5</color>
        <scale>1</scale>
        <Icon>
          <href>https://www.gstatic.com/mapspro/images/stock/503-wht-blank_maps.png</href>
        </Icon>
      </IconStyle>
      <LabelStyle>
        <scale>0</scale>
      </LabelStyle>
    </Style>
    <Style id="icon-1532-A52714-highlight">
      <IconStyle>
        <color>ff1427a5</color>
        <scale>1</scale>
        <Icon>
          <href>https://www.gstatic.com/mapspro/images/stock/503-wht-blank_maps.png</href>
        </Icon>
      </IconStyle>
      <LabelStyle>
        <scale>1</scale>
      </LabelStyle>
    </Style>
    <StyleMap id="icon-1532-A52714">
      <Pair>
        <key>normal</key>
        <styleUrl>#icon-1532-A52714-normal</styleUrl>
      </Pair>
      <Pair>
        <key>highlight</key>
        <styleUrl>#icon-1532-A52714-highlight</styleUrl>
      </Pair>
    </StyleMap>
    <Style id="icon-1542-A52714-normal">
      <IconStyle>
        <color>ff1427a5</color>
        <scale>1</scale>
        <Icon>
          <href>https://www.gstatic.com/mapspro/images/stock/503-wht-blank_maps.png</href>
        </Icon>
      </IconStyle>
      <LabelStyle>
        <scale>0</scale>
      </LabelStyle>
    </Style>
    <Style id="icon-1542-A52714-highlight">
      <IconStyle>
        <color>ff1427a5</color>
        <scale>1</scale>
        <Icon>
          <href>https://www.gstatic.com/mapspro/images/stock/503-wht-blank_maps.png</href>
        </Icon>
      </IconStyle>
      <LabelStyle>
        <scale>1</scale>
      </LabelStyle>
    </Style>
    <StyleMap id="icon-1542-A52714">
      <Pair>
        <key>normal</key>
        <styleUrl>#icon-1542-A52714-normal</styleUrl>
      </Pair>
      <Pair>
        <key>highlight</key>
        <styleUrl>#icon-1542-A52714-highlight</styleUrl>
      </Pair>
    </StyleMap>
    <Style id="icon-1546-000000-normal">
      <IconStyle>
        <color>ff000000</color>
        <scale>1</scale>
        <Icon>
          <href>https://www.gstatic.com/mapspro/images/stock/503-wht-blank_maps.png</href>
        </Icon>
      </IconStyle>
      <LabelStyle>
        <scale>0</scale>
      </LabelStyle>
    </Style>
    <Style id="icon-1546-000000-highlight">
      <IconStyle>
        <color>ff000000</color>
        <scale>1</scale>
        <Icon>
          <href>https://www.gstatic.com/mapspro/images/stock/503-wht-blank_maps.png</href>
        </Icon>
      </IconStyle>
      <LabelStyle>
        <scale>1</scale>
      </LabelStyle>
    </Style>
    <StyleMap id="icon-1546-000000">
      <Pair>
        <key>normal</key>
        <styleUrl>#icon-1546-000000-normal</styleUrl>
      </Pair>
      <Pair>
        <key>highlight</key>
        <styleUrl>#icon-1546-000000-highlight</styleUrl>
      </Pair>
    </StyleMap>
    <Style id="icon-1546-A52714-normal">
      <IconStyle>
        <color>ff1427a5</color>
        <scale>1</scale>
        <Icon>
          <href>https://www.gstatic.com/mapspro/images/stock/503-wht-blank_maps.png</href>
        </Icon>
      </IconStyle>
      <LabelStyle>
        <scale>0</scale>
      </LabelStyle>
    </Style>
    <Style id="icon-1546-A52714-highlight">
      <IconStyle>
        <color>ff1427a5</color>
        <scale>1</scale>
        <Icon>
          <href>https://www.gstatic.com/mapspro/images/stock/503-wht-blank_maps.png</href>
        </Icon>
      </IconStyle>
      <LabelStyle>
        <scale>1</scale>
      </LabelStyle>
    </Style>
    <StyleMap id="icon-1546-A52714">
      <Pair>
        <key>normal</key>
        <styleUrl>#icon-1546-A52714-normal</styleUrl>
      </Pair>
      <Pair>
        <key>highlight</key>
        <styleUrl>#icon-1546-A52714-highlight</styleUrl>
      </Pair>
    </StyleMap>
    <Style id="icon-1565-000000-normal">
      <IconStyle>
        <color>ff000000</color>
        <scale>1</scale>
        <Icon>
          <href>https://www.gstatic.com/mapspro/images/stock/503-wht-blank_maps.png</href>
        </Icon>
      </IconStyle>
      <LabelStyle>
        <scale>0</scale>
      </LabelStyle>
    </Style>
    <Style id="icon-1565-000000-highlight">
      <IconStyle>
        <color>ff000000</color>
        <scale>1</scale>
        <Icon>
          <href>https://www.gstatic.com/mapspro/images/stock/503-wht-blank_maps.png</href>
        </Icon>
      </IconStyle>
      <LabelStyle>
        <scale>1</scale>
      </LabelStyle>
    </Style>
    <StyleMap id="icon-1565-000000">
      <Pair>
        <key>normal</key>
        <styleUrl>#icon-1565-000000-normal</styleUrl>
      </Pair>
      <Pair>
        <key>highlight</key>
        <styleUrl>#icon-1565-000000-highlight</styleUrl>
      </Pair>
    </StyleMap>
    <Style id="icon-1582-000000-normal">
      <IconStyle>
        <color>ff000000</color>
        <scale>1</scale>
        <Icon>
          <href>https://www.gstatic.com/mapspro/images/stock/503-wht-blank_maps.png</href>
        </Icon>
      </IconStyle>
      <LabelStyle>
        <scale>0</scale>
      </LabelStyle>
    </Style>
    <Style id="icon-1582-000000-highlight">
      <IconStyle>
        <color>ff000000</color>
        <scale>1</scale>
        <Icon>
          <href>https://www.gstatic.com/mapspro/images/stock/503-wht-blank_maps.png</href>
        </Icon>
      </IconStyle>
      <LabelStyle>
        <scale>1</scale>
      </LabelStyle>
    </Style>
    <StyleMap id="icon-1582-000000">
      <Pair>
        <key>normal</key>
        <styleUrl>#icon-1582-000000-normal</styleUrl>
      </Pair>
      <Pair>
        <key>highlight</key>
        <styleUrl>#icon-1582-000000-highlight</styleUrl>
      </Pair>
    </StyleMap>
    <Style id="icon-1582-A52714-normal">
      <IconStyle>
        <color>ff1427a5</color>
        <scale>1</scale>
        <Icon>
          <href>https://www.gstatic.com/mapspro/images/stock/503-wht-blank_maps.png</href>
        </Icon>
      </IconStyle>
      <LabelStyle>
        <scale>0</scale>
      </LabelStyle>
    </Style>
    <Style id="icon-1582-A52714-highlight">
      <IconStyle>
        <color>ff1427a5</color>
        <scale>1</scale>
        <Icon>
          <href>https://www.gstatic.com/mapspro/images/stock/503-wht-blank_maps.png</href>
        </Icon>
      </IconStyle>
      <LabelStyle>
        <scale>1</scale>
      </LabelStyle>
    </Style>
    <StyleMap id="icon-1582-A52714">
      <Pair>
        <key>normal</key>
        <styleUrl>#icon-1582-A52714-normal</styleUrl>
      </Pair>
      <Pair>
        <key>highlight</key>
        <styleUrl>#icon-1582-A52714-highlight</styleUrl>
      </Pair>
    </StyleMap>
    <Style id="icon-1626-000000-normal">
      <IconStyle>
        <color>ff000000</color>
        <scale>1</scale>
        <Icon>
          <href>https://www.gstatic.com/mapspro/images/stock/503-wht-blank_maps.png</href>
        </Icon>
      </IconStyle>
      <LabelStyle>
        <scale>0</scale>
      </LabelStyle>
    </Style>
    <Style id="icon-1626-000000-highlight">
      <IconStyle>
        <color>ff000000</color>
        <scale>1</scale>
        <Icon>
          <href>https://www.gstatic.com/mapspro/images/stock/503-wht-blank_maps.png</href>
        </Icon>
      </IconStyle>
      <LabelStyle>
        <scale>1</scale>
      </LabelStyle>
    </Style>
    <StyleMap id="icon-1626-000000">
      <Pair>
        <key>normal</key>
        <styleUrl>#icon-1626-000000-normal</styleUrl>
      </Pair>
      <Pair>
        <key>highlight</key>
        <styleUrl>#icon-1626-000000-highlight</styleUrl>
      </Pair>
    </StyleMap>
    <Style id="icon-1626-A52714-normal">
      <IconStyle>
        <color>ff1427a5</color>
        <scale>1</scale>
        <Icon>
          <href>https://www.gstatic.com/mapspro/images/stock/503-wht-blank_maps.png</href>
        </Icon>
      </IconStyle>
      <LabelStyle>
        <scale>0</scale>
      </LabelStyle>
    </Style>
    <Style id="icon-1626-A52714-highlight">
      <IconStyle>
        <color>ff1427a5</color>
        <scale>1</scale>
        <Icon>
          <href>https://www.gstatic.com/mapspro/images/stock/503-wht-blank_maps.png</href>
        </Icon>
      </IconStyle>
      <LabelStyle>
        <scale>1</scale>
      </LabelStyle>
    </Style>
    <StyleMap id="icon-1626-A52714">
      <Pair>
        <key>normal</key>
        <styleUrl>#icon-1626-A52714-normal</styleUrl>
      </Pair>
      <Pair>
        <key>highlight</key>
        <styleUrl>#icon-1626-A52714-highlight</styleUrl>
      </Pair>
    </StyleMap>
    <Style id="icon-1662-000000-normal">
      <IconStyle>
        <color>ff000000</color>
        <scale>1</scale>
        <Icon>
          <href>https://www.gstatic.com/mapspro/images/stock/503-wht-blank_maps.png</href>
        </Icon>
      </IconStyle>
      <LabelStyle>
        <scale>0</scale>
      </LabelStyle>
    </Style>
    <Style id="icon-1662-000000-highlight">
      <IconStyle>
        <color>ff000000</color>
        <scale>1</scale>
        <Icon>
          <href>https://www.gstatic.com/mapspro/images/stock/503-wht-blank_maps.png</href>
        </Icon>
      </IconStyle>
      <LabelStyle>
        <scale>1</scale>
      </LabelStyle>
    </Style>
    <StyleMap id="icon-1662-000000">
      <Pair>
        <key>normal</key>
        <styleUrl>#icon-1662-000000-normal</styleUrl>
      </Pair>
      <Pair>
        <key>highlight</key>
        <styleUrl>#icon-1662-000000-highlight</styleUrl>
      </Pair>
    </StyleMap>
    <Style id="icon-1662-A52714-normal">
      <IconStyle>
        <color>ff1427a5</color>
        <scale>1</scale>
        <Icon>
          <href>https://www.gstatic.com/mapspro/images/stock/503-wht-blank_maps.png</href>
        </Icon>
      </IconStyle>
      <LabelStyle>
        <scale>0</scale>
      </LabelStyle>
    </Style>
    <Style id="icon-1662-A52714-highlight">
      <IconStyle>
        <color>ff1427a5</color>
        <scale>1</scale>
        <Icon>
          <href>https://www.gstatic.com/mapspro/images/stock/503-wht-blank_maps.png</href>
        </Icon>
      </IconStyle>
      <LabelStyle>
        <scale>1</scale>
      </LabelStyle>
    </Style>
    <StyleMap id="icon-1662-A52714">
      <Pair>
        <key>normal</key>
        <styleUrl>#icon-1662-A52714-normal</styleUrl>
      </Pair>
      <Pair>
        <key>highlight</key>
        <styleUrl>#icon-1662-A52714-highlight</styleUrl>
      </Pair>
    </StyleMap>
    <Style id="icon-1680-000000-normal">
      <IconStyle>
        <color>ff000000</color>
        <scale>1</scale>
        <Icon>
          <href>https://www.gstatic.com/mapspro/images/stock/503-wht-blank_maps.png</href>
        </Icon>
      </IconStyle>
      <LabelStyle>
        <scale>0</scale>
      </LabelStyle>
    </Style>
    <Style id="icon-1680-000000-highlight">
      <IconStyle>
        <color>ff000000</color>
        <scale>1</scale>
        <Icon>
          <href>https://www.gstatic.com/mapspro/images/stock/503-wht-blank_maps.png</href>
        </Icon>
      </IconStyle>
      <LabelStyle>
        <scale>1</scale>
      </LabelStyle>
    </Style>
    <StyleMap id="icon-1680-000000">
      <Pair>
        <key>normal</key>
        <styleUrl>#icon-1680-000000-normal</styleUrl>
      </Pair>
      <Pair>
        <key>highlight</key>
        <styleUrl>#icon-1680-000000-highlight</styleUrl>
      </Pair>
    </StyleMap>
    <Style id="icon-1680-A52714-normal">
      <IconStyle>
        <color>ff1427a5</color>
        <scale>1</scale>
        <Icon>
          <href>https://www.gstatic.com/mapspro/images/stock/503-wht-blank_maps.png</href>
        </Icon>
      </IconStyle>
      <LabelStyle>
        <scale>0</scale>
      </LabelStyle>
    </Style>
    <Style id="icon-1680-A52714-highlight">
      <IconStyle>
        <color>ff1427a5</color>
        <scale>1</scale>
        <Icon>
          <href>https://www.gstatic.com/mapspro/images/stock/503-wht-blank_maps.png</href>
        </Icon>
      </IconStyle>
      <LabelStyle>
        <scale>1</scale>
      </LabelStyle>
    </Style>
    <StyleMap id="icon-1680-A52714">
      <Pair>
        <key>normal</key>
        <styleUrl>#icon-1680-A52714-normal</styleUrl>
      </Pair>
      <Pair>
        <key>highlight</key>
        <styleUrl>#icon-1680-A52714-highlight</styleUrl>
      </Pair>
    </StyleMap>
    <Style id="line-000000-5069-nodesc-normal">
      <LineStyle>
        <color>ff000000</color>
        <width>5.069</width>
      </LineStyle>
      <BalloonStyle>
        <text><![CDATA[<h3>$[name]</h3>]]></text>
      </BalloonStyle>
    </Style>
    <Style id="line-000000-5069-nodesc-highlight">
      <LineStyle>
        <color>ff000000</color>
        <width>7.6035</width>
      </LineStyle>
      <BalloonStyle>
        <text><![CDATA[<h3>$[name]</h3>]]></text>
      </BalloonStyle>
    </Style>
    <StyleMap id="line-000000-5069-nodesc">
      <Pair>
        <key>normal</key>
        <styleUrl>#line-000000-5069-nodesc-normal</styleUrl>
      </Pair>
      <Pair>
        <key>highlight</key>
        <styleUrl>#line-000000-5069-nodesc-highlight</styleUrl>
      </Pair>
    </StyleMap>
    <Style id="line-A52714-5456-nodesc-normal">
      <LineStyle>
        <color>ff1427a5</color>
        <width>5.456</width>
      </LineStyle>
      <BalloonStyle>
        <text><![CDATA[<h3>$[name]</h3>]]></text>
      </BalloonStyle>
    </Style>
    <Style id="line-A52714-5456-nodesc-highlight">
      <LineStyle>
        <color>ff1427a5</color>
        <width>8.184</width>
      </LineStyle>
      <BalloonStyle>
        <text><![CDATA[<h3>$[name]</h3>]]></text>
      </BalloonStyle>
    </Style>
    <StyleMap id="line-A52714-5456-nodesc">
      <Pair>
        <key>normal</key>
        <styleUrl>#line-A52714-5456-nodesc-normal</styleUrl>
      </Pair>
      <Pair>
        <key>highlight</key>
        <styleUrl>#line-A52714-5456-nodesc-highlight</styleUrl>
      </Pair>
    </StyleMap>
    <Folder>
      <name>Маршрут туда</name>
      <Placemark>
        <name>Остановка Основянское озеро 
</name>
        <description>Автобус-32, 102. Маршрутка - 220э, 259э.</description>
        <styleUrl>#icon-1499-A52714</styleUrl>
        <Point>
          <coordinates>
            36.2253485,49.9395872,0
          </coordinates>
        </Point>
      </Placemark>
      <Placemark>
        <name>Остановка пер. Заводской
</name>
        <description>Автобус-32, 102, 123. Маршрутка - 220э, 259э.</description>
        <styleUrl>#icon-1532-A52714</styleUrl>
        <Point>
          <coordinates>
            36.2376848,49.9419916,0
          </coordinates>
        </Point>
      </Placemark>
      <Placemark>
        <name>Станция Основа
</name>
        <description>Автобус-102. Маршрутка - 259э.</description>
        <styleUrl>#icon-1662-A52714</styleUrl>
        <Point>
          <coordinates>
            36.242184,49.936355,0
          </coordinates>
        </Point>
      </Placemark>
      <Placemark>
        <name>Остановка ул. Алексеева
</name>
        <description>Автобус-102, 107, 260. Маршрутка - 259э.Троллейбус-6.</description>
        <styleUrl>#icon-1532-A52714</styleUrl>
        <Point>
          <coordinates>
            36.244095,49.9343015,0
          </coordinates>
        </Point>
      </Placemark>
      <Placemark>
        <name>Остановка ул. Деповская
</name>
        <description>Автобус-102, 107, 260. Маршрутка - 259э.Троллейбус-6.</description>
        <styleUrl>#icon-1532-A52714</styleUrl>
        <Point>
          <coordinates>
            36.2500063,49.9313525,0
          </coordinates>
        </Point>
      </Placemark>
      <Placemark>
        <name>Остановка ул. Эстакадная
</name>
        <description>Автобус-102, 107, 260. Маршрутка - 259э.Троллейбус-6.</description>
        <styleUrl>#icon-1532-A52714</styleUrl>
        <Point>
          <coordinates>
            36.2538656,49.9301139,0
          </coordinates>
        </Point>
      </Placemark>
      <Placemark>
        <name>Остановка ул. Южнопроектная
</name>
        <description>Автобус-102, 107, 260. Маршрутка - 259э.Троллейбус-6, 49, 58.</description>
        <styleUrl>#icon-1532-A52714</styleUrl>
        <Point>
          <coordinates>
            36.2625707,49.9315133,0
          </coordinates>
        </Point>
      </Placemark>
      <Placemark>
        <name>Остановка ул. Льговская 
</name>
        <description>Автобус-102, 107, 260. Маршрутка - 259э.Троллейбус-6, 49, 58.</description>
        <styleUrl>#icon-1532-A52714</styleUrl>
        <Point>
          <coordinates>
            36.2615359,49.9365211,0
          </coordinates>
        </Point>
      </Placemark>
      <Placemark>
        <name>Остановка ул. Пильчикова
</name>
        <description>Автобус-102, 107, 260. Маршрутка - 259э.Троллейбус-6, 49, 58.</description>
        <styleUrl>#icon-1542-A52714</styleUrl>
        <Point>
          <coordinates>
            36.2609274,49.9405557,0
          </coordinates>
        </Point>
      </Placemark>
      <Placemark>
        <name>Остановка ул. Одесская
</name>
        <description>Автобус-102, 107, 260. Маршрутка - 259э.Троллейбус-6, 49, 58.</description>
        <styleUrl>#icon-1532-A52714</styleUrl>
        <Point>
          <coordinates>
            36.2609507,49.9462794,0
          </coordinates>
        </Point>
      </Placemark>
      <Placemark>
        <name>Остановка ул. Монюшко
</name>
        <description>Автобус-102, 107, 260. Маршрутка - 259э.Троллейбус-3, 19, 35, 59.</description>
        <styleUrl>#icon-1532-A52714</styleUrl>
        <Point>
          <coordinates>
            36.2684066,49.9448979,0
          </coordinates>
        </Point>
      </Placemark>
      <Placemark>
        <name>Остановка ул. Николая Кравченко
</name>
        <description>Автобус-102, 107, 260. Маршрутка - 259э.Троллейбус-3, 19, 35, 59.</description>
        <styleUrl>#icon-1532-A52714</styleUrl>
        <Point>
          <coordinates>
            36.2751887,49.9440054,0
          </coordinates>
        </Point>
      </Placemark>
      <Placemark>
        <name>Остановка ул. Морозова
</name>
        <description>Автобус-102, 107, 260. Маршрутка - 259э.Троллейбус-3, 19, 35, 59.</description>
        <styleUrl>#icon-1532-A52714</styleUrl>
        <Point>
          <coordinates>
            36.280692,49.9439226,0
          </coordinates>
        </Point>
      </Placemark>
      <Placemark>
        <name>Остановка ул. Павла Чубинского
</name>
        <description>Автобус-102, 107. Троллейбус-3, 19, 35, 59.</description>
        <styleUrl>#icon-1532-A52714</styleUrl>
        <Point>
          <coordinates>
            36.290798,49.9438957,0
          </coordinates>
        </Point>
      </Placemark>
      <Placemark>
        <name>Остановка 28 микрорайон
</name>
        <description>Автобус-102, 107. Троллейбус-19, 35.</description>
        <styleUrl>#icon-1546-A52714</styleUrl>
        <Point>
          <coordinates>
            36.30172,49.9446385,0
          </coordinates>
        </Point>
      </Placemark>
      <Placemark>
        <name>Остановка проезд Садовый
</name>
        <description>Автобус-102, 107. Троллейбус-19, 35.</description>
        <styleUrl>#icon-1582-A52714</styleUrl>
        <Point>
          <coordinates>
            36.3020141,49.9483619,0
          </coordinates>
        </Point>
      </Placemark>
      <Placemark>
        <name>Остановка ул. Киргизская
</name>
        <description>Автобус-102, 107. Троллейбус-19, 35.</description>
        <styleUrl>#icon-1532-A52714</styleUrl>
        <Point>
          <coordinates>
            36.3021755,49.9519395,0
          </coordinates>
        </Point>
      </Placemark>
      <Placemark>
        <name>Остановка ул. Ковтуна
</name>
        <description>Автобус-102, 107. Троллейбус-19, 35.</description>
        <styleUrl>#icon-1532-A52714</styleUrl>
        <Point>
          <coordinates>
            36.3043156,49.9590736,0
          </coordinates>
        </Point>
      </Placemark>
      <Placemark>
        <name>Остановка ул. Олимпийская
</name>
        <description>Автобус-102.</description>
        <styleUrl>#icon-1532-A52714</styleUrl>
        <Point>
          <coordinates>
            36.3100018,49.960454,0
          </coordinates>
        </Point>
      </Placemark>
      <Placemark>
        <name>Остановка Дворец Спорта
</name>
        <description>Автобус- 102. Троллейбус-1, 25.</description>
        <styleUrl>#icon-1520-A52714</styleUrl>
        <Point>
          <coordinates>
            36.3190208,49.9614845,0
          </coordinates>
        </Point>
      </Placemark>
      <Placemark>
        <name>Станция метро Дворец Спорта
</name>
        <description>Автобус- 102.</description>
        <styleUrl>#icon-1626-A52714</styleUrl>
        <Point>
          <coordinates>
            36.3216387,49.9658084,0
          </coordinates>
        </Point>
      </Placemark>
      <Placemark>
        <name>Остановка ул. Василия Мельникова 
</name>
        <description>Автобус-102. Троллейбус-13, 57.</description>
        <styleUrl>#icon-1532-A52714</styleUrl>
        <Point>
          <coordinates>
            36.3262806,49.9647019,0
          </coordinates>
        </Point>
      </Placemark>
      <Placemark>
        <name>Остановка пр. Героев Харькова
</name>
        <description>Автобус-102. Троллейбус-13, 57.</description>
        <styleUrl>#icon-1532-A52714</styleUrl>
        <Point>
          <coordinates>
            36.3349209,49.9630238,0
          </coordinates>
        </Point>
      </Placemark>
      <Placemark>
        <name>Станция метро Армейская
</name>
        <description>Автобус-102.</description>
        <styleUrl>#icon-1626-A52714</styleUrl>
        <Point>
          <coordinates>
            36.3446075,49.9612146,0
          </coordinates>
        </Point>
      </Placemark>
      <Placemark>
        <name>Остановка бул. Богдана Хмельницкого
</name>
        <description>Автобус-102.Троллейбус -7, 25.</description>
        <styleUrl>#icon-1532-A52714</styleUrl>
        <Point>
          <coordinates>
            36.3503448,49.9581485,0
          </coordinates>
        </Point>
      </Placemark>
      <Placemark>
        <name>Остановка Спорткомплекс ХТЗ
</name>
        <description>Автобус-102.</description>
        <styleUrl>#icon-1680-A52714</styleUrl>
        <Point>
          <coordinates>
            36.3489529,49.9550975,0
          </coordinates>
        </Point>
      </Placemark>
      <Placemark>
        <name>Остановка ул. Филиппова
</name>
        <description>Автобус-102. Троллейбус - 7.</description>
        <styleUrl>#icon-1532-A52714</styleUrl>
        <Point>
          <coordinates>
            36.3480572,49.9531282,0
          </coordinates>
        </Point>
      </Placemark>
      <Placemark>
        <name>Остановка ул. Осипенко
</name>
        <description>Автобус-102. Троллейбус - 7.</description>
        <styleUrl>#icon-1532-A52714</styleUrl>
        <Point>
          <coordinates>
            36.3466445,49.9498317,0
          </coordinates>
        </Point>
      </Placemark>
      <Placemark>
        <name>Остановка ул. Коммунальщиков 
</name>
        <description>Автобус -102. Троллейбус-3, 7, 59.</description>
        <styleUrl>#icon-1532-A52714</styleUrl>
        <Point>
          <coordinates>
            36.3554284,49.9478838,0
          </coordinates>
        </Point>
      </Placemark>
      <Placemark>
        <name>Остановка ул. Северина Потоцкого
</name>
        <description>Автобус -102. Троллейбус-3, 7, 59.</description>
        <styleUrl>#icon-1532-A52714</styleUrl>
        <Point>
          <coordinates>
            36.3636528,49.9444205,0
          </coordinates>
        </Point>
      </Placemark>
      <Placemark>
        <name>Остановка ул. Бекетова
</name>
        <description>Автобус -102, 224. Троллейбус-3, 7, 59.</description>
        <styleUrl>#icon-1532-A52714</styleUrl>
        <Point>
          <coordinates>
            36.3710124,49.9419835,0
          </coordinates>
        </Point>
      </Placemark>
      <Placemark>
        <name>Линия маршрута</name>
        <styleUrl>#line-A52714-5456-nodesc</styleUrl>
        <LineString>
          <tessellate>1</tessellate>
          <coordinates>
            36.2254626,49.9394174,0
            36.2260526,49.9396246,0
            36.2263423,49.9397903,0
            36.2265891,49.9399008,0
            36.2285095,49.9404808,0
            36.2313956,49.9413301,0
            36.2329942,49.9416822,0
            36.2336701,49.9417858,0
            36.2351292,49.9418825,0
            36.2396568,49.9420965,0
            36.2394959,49.9416408,0
            36.23941,49.9411713,0
            36.2393671,49.940833,0
            36.2394208,49.9403082,0
            36.2396568,49.9392241,0
            36.2397534,49.9389893,0
            36.2402362,49.9385129,0
            36.2418669,49.9367037,0
            36.2436157,49.9348116,0
            36.2448925,49.9334718,0
            36.2451392,49.9332577,0
            36.2453645,49.9332577,0
            36.245665,49.9333268,0
            36.2458903,49.9333406,0
            36.2460297,49.9333337,0
            36.2464374,49.9332025,0
            36.2490123,49.9324083,0
            36.2492591,49.9322771,0
            36.249699,49.9317868,0
            36.2504178,49.9310271,0
            36.2506968,49.9306749,0
            36.2510508,49.9303848,0
            36.2513405,49.9302259,0
            36.2515765,49.9301154,0
            36.2518877,49.9300464,0
            36.2523919,49.9300671,0
            36.2600523,49.9306472,0
            36.2624663,49.9308682,0
            36.2628096,49.9309994,0
            36.2626058,49.9312481,0
            36.2622946,49.9317591,0
            36.2621015,49.9322978,0
            36.2619191,49.9332232,0
            36.2613505,49.9368004,0
            36.2608033,49.9402944,0
            36.2603098,49.9433186,0
            36.2602776,49.9439193,0
            36.2603849,49.9466051,0
            36.2605673,49.9465567,0
            36.2611681,49.9462806,0
            36.2622517,49.9458801,0
            36.2632281,49.9455694,0
            36.2639254,49.9454797,0
            36.2653202,49.9453071,0
            36.2678951,49.9449964,0
            36.2715536,49.944589,0
            36.2728947,49.9444164,0
            36.274429,49.9442162,0
            36.2750083,49.9441334,0
            36.2763923,49.9440436,0
            36.2780124,49.9440229,0
            36.2801152,49.9440022,0
            36.2824863,49.9439884,0
            36.2919062,49.9439193,0
            36.3013583,49.9438227,0
            36.3016266,49.9442853,0
            36.301809,49.9452242,0
            36.3018411,49.9461218,0
            36.3018519,49.9483586,0
            36.3019055,49.9514169,0
            36.3021094,49.9534948,0
            36.3023025,49.9540953,0
            36.3027853,49.9554276,0
            36.3035899,49.9575536,0
            36.304695,49.9605561,0
            36.3051456,49.9616052,0
            36.3058966,49.9614671,0
            36.3087183,49.9609978,0
            36.3093621,49.9607838,0
            36.3098556,49.9605906,0
            36.3104135,49.9604249,0
            36.3113254,49.9602593,0
            36.3176018,49.9590514,0
            36.3178378,49.9590238,0
            36.3179773,49.9595138,0
            36.3198656,49.9635514,0
            36.3207883,49.9655322,0
            36.3209814,49.9660636,0
            36.3224727,49.9656702,0
            36.3247365,49.965125,0
            36.326099,49.9648489,0
            36.3273221,49.9646212,0
            36.328674,49.964352,0
            36.3324183,49.9636205,0
            36.3360125,49.9629579,0
            36.3381797,49.9625093,0
            36.3418382,49.9618674,0
            36.3431364,49.9616052,0
            36.3457328,49.9610875,0
            36.3463765,49.9609495,0
            36.3478571,49.9606527,0
            36.3511616,49.9600315,0
            36.3504428,49.9584233,0
            36.3499707,49.9573327,0
            36.3491875,49.9554759,0
            36.3482112,49.9531979,0
            36.3468271,49.9499672,0
            36.3466448,49.949553,0
            36.3469774,49.9494287,0
            36.3475889,49.9493252,0
            36.3539296,49.9482137,0
            36.3549703,49.9480411,0
            36.3559896,49.9477787,0
            36.3563544,49.947613,0
            36.3571805,49.9471436,0
            36.3580281,49.9466948,0
            36.358822,49.9463634,0
            36.3599271,49.9459354,0
            36.3628238,49.9447686,0
            36.3634354,49.9445476,0
            36.3677055,49.9431322,0
            36.369186,49.9426489,0
            36.3749796,49.9407087,0
            36.3750654,49.9407915,0
            36.3744934,49.9410169,0
          </coordinates>
        </LineString>
      </Placemark>
    </Folder>
    <Folder>
      <name>Маршрут обратно</name>
      <Placemark>
        <name>Линия маршрута</name>
        <styleUrl>#line-000000-5069-nodesc</styleUrl>
        <LineString>
          <tessellate>1</tessellate>
          <coordinates>
            36.3744934,49.9410169,0
            36.3738926,49.9412172,0
            36.3691183,49.9427845,0
            36.3660927,49.9438133,0
            36.3629385,49.9448628,0
            36.3622625,49.9451389,0
            36.3607498,49.9457258,0
            36.3582392,49.9467338,0
            36.357574,49.9470514,0
            36.357102,49.9473137,0
            36.3565977,49.9476244,0
            36.3561042,49.9478315,0
            36.3555141,49.9480179,0
            36.3543769,49.9482388,0
            36.349345,49.9491501,0
            36.3469847,49.9495367,0
            36.3473173,49.9503513,0
            36.3484116,49.9527951,0
            36.3499137,49.9562811,0
            36.3508685,49.9583656,0
            36.3517054,49.9603327,0
            36.3478752,49.9611127,0
            36.3416632,49.9623136,0
            36.3346143,49.9636318,0
            36.3262351,49.9651915,0
            36.3253339,49.9653572,0
            36.3229414,49.9659852,0
            36.3210424,49.9665235,0
            36.3206454,49.9657229,0
            36.3194652,49.9631487,0
            36.3183816,49.9607814,0
            36.3176306,49.9591594,0
            36.310571,49.9604846,0
            36.3099166,49.9606502,0
            36.3095732,49.9608228,0
            36.3088437,49.9610713,0
            36.3064941,49.9614854,0
            36.3048847,49.9617407,0
            36.3039084,49.9593595,0
            36.3027175,49.9559083,0
            36.3020094,49.9539203,0
            36.3018592,49.9534302,0
            36.3017841,49.9529263,0
            36.301709,49.9523464,0
            36.3016339,49.949012,0
            36.3016339,49.9470652,0
            36.3015803,49.945926,0
            36.3015588,49.9453737,0
            36.3013549,49.944559,0
            36.3010975,49.9439514,0
            36.299059,49.943979,0
            36.2893279,49.9440549,0
            36.2811525,49.9441378,0
            36.2774833,49.9441654,0
            36.2757881,49.9442276,0
            36.2740286,49.9444002,0
            36.272709,49.9445797,0
            36.2703486,49.9448904,0
            36.2684174,49.9450906,0
            36.2634071,49.9456567,0
            36.2629564,49.9457741,0
            36.2615724,49.9462781,0
            36.2610145,49.9465612,0
            36.2605532,49.9466993,0
            36.2599095,49.9466854,0
            36.2599738,49.9454979,0
            36.2599738,49.9440549,0
            36.2600811,49.9430814,0
            36.260285,49.9416936,0
            36.2605961,49.9396083,0
            36.260875,49.9377923,0
            36.2611218,49.9361902,0
            36.2615724,49.9333796,0
            36.2617977,49.9321434,0
            36.2621625,49.9314183,0
            36.2624522,49.9309694,0
            36.2614651,49.9308796,0
            36.2582572,49.930631,0
            36.2546523,49.9303271,0
            36.2532039,49.9302511,0
            36.2523564,49.9301682,0
            36.252013,49.930182,0
            36.2516697,49.9302028,0
            36.2514337,49.9302787,0
            36.2509187,49.9307138,0
            36.249996,49.9316945,0
            36.2496098,49.9321365,0
            36.249245,49.9324335,0
            36.2488802,49.9325785,0
            36.2465306,49.9333174,0
            36.2460049,49.9334763,0
            36.2457045,49.9334417,0
            36.2452324,49.9334072,0
            36.2450178,49.9334832,0
            36.2428935,49.9358242,0
            36.2412949,49.9375989,0
            36.2401684,49.9387383,0
            36.2398573,49.9391457,0
            36.2397392,49.9396981,0
            36.2394817,49.9408443,0
            36.2398143,49.9422045,0
            36.2362416,49.9420595,0
            36.2345465,49.9419767,0
            36.2335058,49.9418731,0
            36.2329157,49.941811,0
            36.2305554,49.9412034,0
            36.2264677,49.9400088,0
            36.2260385,49.9397395,0
            36.2256523,49.9396152,0
            36.2251266,49.9394357,0
            36.2248369,49.9393943,0
            36.2241502,49.9393943,0
            36.2225516,49.9393943,0
            36.2219616,49.93927,0
            36.2220581,49.9390628,0
            36.2224014,49.9389592,0
            36.2226267,49.9390421,0
            36.2226911,49.9392078,0
            36.222734,49.9392838,0
            36.2237962,49.9392769,0
            36.2246009,49.9392631,0
            36.225266,49.9393528,0
            36.2255986,49.9394909,0
          </coordinates>
        </LineString>
      </Placemark>
      <Placemark>
        <name><![CDATA[Остановка рынок "ХТЗ"]]></name>
        <description>Автобус-102.</description>
        <styleUrl>#icon-1499-000000</styleUrl>
        <Point>
          <coordinates>
            36.3742528,49.9410941,0
          </coordinates>
        </Point>
      </Placemark>
      <Placemark>
        <name>Остановка ул. Архитектора Алешина
</name>
        <description>Автобус -102, 224. Троллейбус-3, 7, 59.</description>
        <styleUrl>#icon-1532-000000</styleUrl>
        <Point>
          <coordinates>
            36.369201,49.9428686,0
          </coordinates>
        </Point>
      </Placemark>
      <Placemark>
        <name>Остановка ул. Северина Потоцкого
</name>
        <description>Автобус -102. Троллейбус-3, 7, 59.</description>
        <styleUrl>#icon-1532-000000</styleUrl>
        <Point>
          <coordinates>
            36.3623131,49.9452575,0
          </coordinates>
        </Point>
      </Placemark>
      <Placemark>
        <name>Остановка ул. Коммунальщиков
</name>
        <description>Автобус -102. Троллейбус-3, 7, 59.</description>
        <styleUrl>#icon-1532-000000</styleUrl>
        <Point>
          <coordinates>
            36.3541565,49.9483661,0
          </coordinates>
        </Point>
      </Placemark>
      <Placemark>
        <name>Остановка ул. Осипенко
</name>
        <description>Автобус-102. Троллейбус - 7.</description>
        <styleUrl>#icon-1532-000000</styleUrl>
        <Point>
          <coordinates>
            36.3471537,49.949853,0
          </coordinates>
        </Point>
      </Placemark>
      <Placemark>
        <name>Остановка ул. Филиппова
</name>
        <description>Автобус-102. Троллейбус - 7.</description>
        <styleUrl>#icon-1532-000000</styleUrl>
        <Point>
          <coordinates>
            36.3483446,49.952283,0
          </coordinates>
        </Point>
      </Placemark>
      <Placemark>
        <name>Остановка спорткомплекс ХТЗ
</name>
        <description>Автобус-102. Троллейбус-25.</description>
        <styleUrl>#icon-1680-000000</styleUrl>
        <Point>
          <coordinates>
            36.3497284,49.9554464,0
          </coordinates>
        </Point>
      </Placemark>
      <Placemark>
        <name>Остановка бульвар Богдана Хмельницкого
</name>
        <description>Автобус-102.</description>
        <styleUrl>#icon-1532-000000</styleUrl>
        <Point>
          <coordinates>
            36.3513485,49.9592428,0
          </coordinates>
        </Point>
      </Placemark>
      <Placemark>
        <name>Станция метро Армейская
</name>
        <description>Автобус-102э. Троллейбус-36.</description>
        <styleUrl>#icon-1626-000000</styleUrl>
        <Point>
          <coordinates>
            36.3438107,49.9619656,0
          </coordinates>
        </Point>
      </Placemark>
      <Placemark>
        <name>Остановка пр. Героев Харькова
</name>
        <description>Автобус-102. Троллейбус-13, 57.</description>
        <styleUrl>#icon-1532-000000</styleUrl>
        <Point>
          <coordinates>
            36.3335416,49.9639361,0
          </coordinates>
        </Point>
      </Placemark>
      <Placemark>
        <name>Остановка ул. Василия Мельникова</name>
        <description>Автобус-102. Троллейбус-13, 57.</description>
        <styleUrl>#icon-1532-000000</styleUrl>
        <Point>
          <coordinates>
            36.3266537,49.965168,0
          </coordinates>
        </Point>
      </Placemark>
      <Placemark>
        <name>Станция метро Дворец Спорта 
</name>
        <description>Автобус-102. Троллейбус-1.</description>
        <styleUrl>#icon-1626-000000</styleUrl>
        <Point>
          <coordinates>
            36.320053,49.9646642,0
          </coordinates>
        </Point>
      </Placemark>
      <Placemark>
        <name>Остановка Дворец спорта 
</name>
        <description>Автобус- 102. Троллейбус-1, 25. </description>
        <styleUrl>#icon-1520-000000</styleUrl>
        <Point>
          <coordinates>
            36.3184312,49.9615323,0
          </coordinates>
        </Point>
      </Placemark>
      <Placemark>
        <name>Остановка ул. Олимпийская
</name>
        <description>Автобус-102.</description>
        <styleUrl>#icon-1532-000000</styleUrl>
        <Point>
          <coordinates>
            36.3110318,49.9604402,0
          </coordinates>
        </Point>
      </Placemark>
      <Placemark>
        <name>Остановка ул. Олимпийская
</name>
        <description>Автобус-102, 107. Троллейбус-19, 35.</description>
        <styleUrl>#icon-1532-000000</styleUrl>
        <Point>
          <coordinates>
            36.3046505,49.961201,0
          </coordinates>
        </Point>
      </Placemark>
      <Placemark>
        <name>Остановка ул. Ковтуна
</name>
        <description>Автобус-102, 107. Троллейбус-19, 35.</description>
        <styleUrl>#icon-1532-000000</styleUrl>
        <Point>
          <coordinates>
            36.3034702,49.958544,0
          </coordinates>
        </Point>
      </Placemark>
      <Placemark>
        <name>Остановка Энергоремонтное предприятие
</name>
        <description>Автобус-102, 107. Троллейбус-19, 35.</description>
        <styleUrl>#icon-1565-000000</styleUrl>
        <Point>
          <coordinates>
            36.3017307,49.9535856,0
          </coordinates>
        </Point>
      </Placemark>
      <Placemark>
        <name>Остановка проезд  Садовый</name>
        <description>Автобус-102, 107. Троллейбус-19, 35.</description>
        <styleUrl>#icon-1582-000000</styleUrl>
        <Point>
          <coordinates>
            36.3013874,49.9493814,0
          </coordinates>
        </Point>
      </Placemark>
      <Placemark>
        <name>Остановка 28 микрорайон
</name>
        <description>Автобус-102, 107. Троллейбус-3, 19, 35, 59.</description>
        <styleUrl>#icon-1546-000000</styleUrl>
        <Point>
          <coordinates>
            36.3000701,49.9440816,0
          </coordinates>
        </Point>
      </Placemark>
      <Placemark>
        <name>Остановка ул. Павла Чубинского
</name>
        <description>Автобус-102, 107. Троллейбус-3, 19, 35, 59.</description>
        <styleUrl>#icon-1532-000000</styleUrl>
        <Point>
          <coordinates>
            36.2903694,49.9441578,0
          </coordinates>
        </Point>
      </Placemark>
      <Placemark>
        <name>Остановка ул. Морозова
</name>
        <description>Автобус-102, 107, 260. Маршрутка - 259э.Троллейбус-3, 19, 35, 59.</description>
        <styleUrl>#icon-1532-000000</styleUrl>
        <Point>
          <coordinates>
            36.2803809,49.9442148,0
          </coordinates>
        </Point>
      </Placemark>
      <Placemark>
        <name>Остановка ул. Николая Кравченко 
</name>
        <description>Автобус-102, 107, 260. Маршрутка - 259э.Троллейбус-3, 19, 35, 59.</description>
        <styleUrl>#icon-1532-000000</styleUrl>
        <Point>
          <coordinates>
            36.2744013,49.9444031,0
          </coordinates>
        </Point>
      </Placemark>
      <Placemark>
        <name>Остановка ул. Манюшко
</name>
        <description>Автобус-102, 107, 260. Маршрутка - 259э.Троллейбус-3, 19, 35, 59.</description>
        <styleUrl>#icon-1532-000000</styleUrl>
        <Point>
          <coordinates>
            36.2695304,49.9449624,0
          </coordinates>
        </Point>
      </Placemark>
      <Placemark>
        <name>Остановка ул. Одесская
</name>
        <description>Автобус-102, 107, 260. Маршрутка - 259э.Троллейбус-6, 49, 58.</description>
        <styleUrl>#icon-1532-000000</styleUrl>
        <Point>
          <coordinates>
            36.2595956,49.9461154,0
          </coordinates>
        </Point>
      </Placemark>
      <Placemark>
        <name>Остановка ул. Пильчикова</name>
        <description>Автобус-102, 107, 260. Маршрутка - 259э.Троллейбус-6, 49, 58.</description>
        <styleUrl>#icon-1532-000000</styleUrl>
        <Point>
          <coordinates>
            36.2603788,49.940136,0
          </coordinates>
        </Point>
      </Placemark>
      <Placemark>
        <name>Остановка ул. Льговская
</name>
        <description>Автобус-102, 107, 260. Маршрутка - 259э.Троллейбус-6, 49, 58.</description>
        <styleUrl>#icon-1532-000000</styleUrl>
        <Point>
          <coordinates>
            36.2611177,49.9353716,0
          </coordinates>
        </Point>
      </Placemark>
      <Placemark>
        <name>Остановка ул. Южнопроектная
</name>
        <description>Автобус-102, 107, 260. Маршрутка - 259э.Троллейбус-6.</description>
        <styleUrl>#icon-1532-000000</styleUrl>
        <Point>
          <coordinates>
            36.2609803,49.9308736,0
          </coordinates>
        </Point>
      </Placemark>
      <Placemark>
        <name>Остановка ул. Лисичанская
</name>
        <description>Автобус-102, 107, 260. Маршрутка - 259э.Троллейбус-6.</description>
        <styleUrl>#icon-1532-000000</styleUrl>
        <Point>
          <coordinates>
            36.2562914,49.9304239,0
          </coordinates>
        </Point>
      </Placemark>
      <Placemark>
        <name>Остановка ул. Алексеева</name>
        <description>Автобус-102, 107, 260. Маршрутка - 259э.Троллейбус-6.</description>
        <styleUrl>#icon-1532-000000</styleUrl>
        <Point>
          <coordinates>
            36.2439855,49.9347858,0
          </coordinates>
        </Point>
      </Placemark>
      <Placemark>
        <name>Остановка станция Основа
</name>
        <description>Автобус-102. Маршрутка - 259э.</description>
        <styleUrl>#icon-1662-000000</styleUrl>
        <Point>
          <coordinates>
            36.2417155,49.9371828,0
          </coordinates>
        </Point>
      </Placemark>
      <Placemark>
        <name>Остановка ул. Деповская
</name>
        <description>Автобус-102, 107, 260. Маршрутка - 259э.Троллейбус-6.</description>
        <styleUrl>#icon-1532-000000</styleUrl>
        <Point>
          <coordinates>
            36.2504027,49.9312118,0
          </coordinates>
        </Point>
      </Placemark>
      <Placemark>
        <name>Остановка пер. Заводской
</name>
        <description>Автобус-32, 102, 123. Маршрутка - 220э, 259э.</description>
        <styleUrl>#icon-1532-000000</styleUrl>
        <Point>
          <coordinates>
            36.238365,49.9421796,0
          </coordinates>
        </Point>
      </Placemark>
    </Folder>
  </Document>
</kml>
