<?xml version="1.0" encoding="UTF-8"?>
<kml xmlns="http://www.opengis.net/kml/2.2">
  <Document>
    <name>Автобусный маршрут №222 Харьков ( ул. Светлая - м. Салтовская) kharkiv.inform.city</name>
    <description>Подробно https://kharkiv.inform.city/-ru/-tr/tr_city/tr_city_a/</description>
    <Style id="icon-1499-000000-normal">
      <IconStyle>
        <color>ff000000</color>
        <scale>1</scale>
        <Icon>
          <href>https://www.gstatic.com/mapspro/images/stock/503-wht-blank_maps.png</href>
        </Icon>
      </IconStyle>
      <LabelStyle>
        <scale>0</scale>
      </LabelStyle>
    </Style>
    <Style id="icon-1499-000000-highlight">
      <IconStyle>
        <color>ff000000</color>
        <scale>1</scale>
        <Icon>
          <href>https://www.gstatic.com/mapspro/images/stock/503-wht-blank_maps.png</href>
        </Icon>
      </IconStyle>
      <LabelStyle>
        <scale>1</scale>
      </LabelStyle>
    </Style>
    <StyleMap id="icon-1499-000000">
      <Pair>
        <key>normal</key>
        <styleUrl>#icon-1499-000000-normal</styleUrl>
      </Pair>
      <Pair>
        <key>highlight</key>
        <styleUrl>#icon-1499-000000-highlight</styleUrl>
      </Pair>
    </StyleMap>
    <Style id="icon-1499-A52714-normal">
      <IconStyle>
        <color>ff1427a5</color>
        <scale>1</scale>
        <Icon>
          <href>https://www.gstatic.com/mapspro/images/stock/503-wht-blank_maps.png</href>
        </Icon>
      </IconStyle>
      <LabelStyle>
        <scale>0</scale>
      </LabelStyle>
    </Style>
    <Style id="icon-1499-A52714-highlight">
      <IconStyle>
        <color>ff1427a5</color>
        <scale>1</scale>
        <Icon>
          <href>https://www.gstatic.com/mapspro/images/stock/503-wht-blank_maps.png</href>
        </Icon>
      </IconStyle>
      <LabelStyle>
        <scale>1</scale>
      </LabelStyle>
    </Style>
    <StyleMap id="icon-1499-A52714">
      <Pair>
        <key>normal</key>
        <styleUrl>#icon-1499-A52714-normal</styleUrl>
      </Pair>
      <Pair>
        <key>highlight</key>
        <styleUrl>#icon-1499-A52714-highlight</styleUrl>
      </Pair>
    </StyleMap>
    <Style id="icon-1532-000000-normal">
      <IconStyle>
        <color>ff000000</color>
        <scale>1</scale>
        <Icon>
          <href>https://www.gstatic.com/mapspro/images/stock/503-wht-blank_maps.png</href>
        </Icon>
      </IconStyle>
      <LabelStyle>
        <scale>0</scale>
      </LabelStyle>
    </Style>
    <Style id="icon-1532-000000-highlight">
      <IconStyle>
        <color>ff000000</color>
        <scale>1</scale>
        <Icon>
          <href>https://www.gstatic.com/mapspro/images/stock/503-wht-blank_maps.png</href>
        </Icon>
      </IconStyle>
      <LabelStyle>
        <scale>1</scale>
      </LabelStyle>
    </Style>
    <StyleMap id="icon-1532-000000">
      <Pair>
        <key>normal</key>
        <styleUrl>#icon-1532-000000-normal</styleUrl>
      </Pair>
      <Pair>
        <key>highlight</key>
        <styleUrl>#icon-1532-000000-highlight</styleUrl>
      </Pair>
    </StyleMap>
    <Style id="icon-1532-A52714-normal">
      <IconStyle>
        <color>ff1427a5</color>
        <scale>1</scale>
        <Icon>
          <href>https://www.gstatic.com/mapspro/images/stock/503-wht-blank_maps.png</href>
        </Icon>
      </IconStyle>
      <LabelStyle>
        <scale>0</scale>
      </LabelStyle>
    </Style>
    <Style id="icon-1532-A52714-highlight">
      <IconStyle>
        <color>ff1427a5</color>
        <scale>1</scale>
        <Icon>
          <href>https://www.gstatic.com/mapspro/images/stock/503-wht-blank_maps.png</href>
        </Icon>
      </IconStyle>
      <LabelStyle>
        <scale>1</scale>
      </LabelStyle>
    </Style>
    <StyleMap id="icon-1532-A52714">
      <Pair>
        <key>normal</key>
        <styleUrl>#icon-1532-A52714-normal</styleUrl>
      </Pair>
      <Pair>
        <key>highlight</key>
        <styleUrl>#icon-1532-A52714-highlight</styleUrl>
      </Pair>
    </StyleMap>
    <Style id="icon-1546-000000-normal">
      <IconStyle>
        <color>ff000000</color>
        <scale>1</scale>
        <Icon>
          <href>https://www.gstatic.com/mapspro/images/stock/503-wht-blank_maps.png</href>
        </Icon>
      </IconStyle>
      <LabelStyle>
        <scale>0</scale>
      </LabelStyle>
    </Style>
    <Style id="icon-1546-000000-highlight">
      <IconStyle>
        <color>ff000000</color>
        <scale>1</scale>
        <Icon>
          <href>https://www.gstatic.com/mapspro/images/stock/503-wht-blank_maps.png</href>
        </Icon>
      </IconStyle>
      <LabelStyle>
        <scale>1</scale>
      </LabelStyle>
    </Style>
    <StyleMap id="icon-1546-000000">
      <Pair>
        <key>normal</key>
        <styleUrl>#icon-1546-000000-normal</styleUrl>
      </Pair>
      <Pair>
        <key>highlight</key>
        <styleUrl>#icon-1546-000000-highlight</styleUrl>
      </Pair>
    </StyleMap>
    <Style id="icon-1546-A52714-normal">
      <IconStyle>
        <color>ff1427a5</color>
        <scale>1</scale>
        <Icon>
          <href>https://www.gstatic.com/mapspro/images/stock/503-wht-blank_maps.png</href>
        </Icon>
      </IconStyle>
      <LabelStyle>
        <scale>0</scale>
      </LabelStyle>
    </Style>
    <Style id="icon-1546-A52714-highlight">
      <IconStyle>
        <color>ff1427a5</color>
        <scale>1</scale>
        <Icon>
          <href>https://www.gstatic.com/mapspro/images/stock/503-wht-blank_maps.png</href>
        </Icon>
      </IconStyle>
      <LabelStyle>
        <scale>1</scale>
      </LabelStyle>
    </Style>
    <StyleMap id="icon-1546-A52714">
      <Pair>
        <key>normal</key>
        <styleUrl>#icon-1546-A52714-normal</styleUrl>
      </Pair>
      <Pair>
        <key>highlight</key>
        <styleUrl>#icon-1546-A52714-highlight</styleUrl>
      </Pair>
    </StyleMap>
    <Style id="icon-1578-000000-normal">
      <IconStyle>
        <color>ff000000</color>
        <scale>1</scale>
        <Icon>
          <href>https://www.gstatic.com/mapspro/images/stock/503-wht-blank_maps.png</href>
        </Icon>
      </IconStyle>
      <LabelStyle>
        <scale>0</scale>
      </LabelStyle>
    </Style>
    <Style id="icon-1578-000000-highlight">
      <IconStyle>
        <color>ff000000</color>
        <scale>1</scale>
        <Icon>
          <href>https://www.gstatic.com/mapspro/images/stock/503-wht-blank_maps.png</href>
        </Icon>
      </IconStyle>
      <LabelStyle>
        <scale>1</scale>
      </LabelStyle>
    </Style>
    <StyleMap id="icon-1578-000000">
      <Pair>
        <key>normal</key>
        <styleUrl>#icon-1578-000000-normal</styleUrl>
      </Pair>
      <Pair>
        <key>highlight</key>
        <styleUrl>#icon-1578-000000-highlight</styleUrl>
      </Pair>
    </StyleMap>
    <Style id="icon-1578-A52714-normal">
      <IconStyle>
        <color>ff1427a5</color>
        <scale>1</scale>
        <Icon>
          <href>https://www.gstatic.com/mapspro/images/stock/503-wht-blank_maps.png</href>
        </Icon>
      </IconStyle>
      <LabelStyle>
        <scale>0</scale>
      </LabelStyle>
    </Style>
    <Style id="icon-1578-A52714-highlight">
      <IconStyle>
        <color>ff1427a5</color>
        <scale>1</scale>
        <Icon>
          <href>https://www.gstatic.com/mapspro/images/stock/503-wht-blank_maps.png</href>
        </Icon>
      </IconStyle>
      <LabelStyle>
        <scale>1</scale>
      </LabelStyle>
    </Style>
    <StyleMap id="icon-1578-A52714">
      <Pair>
        <key>normal</key>
        <styleUrl>#icon-1578-A52714-normal</styleUrl>
      </Pair>
      <Pair>
        <key>highlight</key>
        <styleUrl>#icon-1578-A52714-highlight</styleUrl>
      </Pair>
    </StyleMap>
    <Style id="icon-1626-000000-normal">
      <IconStyle>
        <color>ff000000</color>
        <scale>1</scale>
        <Icon>
          <href>https://www.gstatic.com/mapspro/images/stock/503-wht-blank_maps.png</href>
        </Icon>
      </IconStyle>
      <LabelStyle>
        <scale>0</scale>
      </LabelStyle>
    </Style>
    <Style id="icon-1626-000000-highlight">
      <IconStyle>
        <color>ff000000</color>
        <scale>1</scale>
        <Icon>
          <href>https://www.gstatic.com/mapspro/images/stock/503-wht-blank_maps.png</href>
        </Icon>
      </IconStyle>
      <LabelStyle>
        <scale>1</scale>
      </LabelStyle>
    </Style>
    <StyleMap id="icon-1626-000000">
      <Pair>
        <key>normal</key>
        <styleUrl>#icon-1626-000000-normal</styleUrl>
      </Pair>
      <Pair>
        <key>highlight</key>
        <styleUrl>#icon-1626-000000-highlight</styleUrl>
      </Pair>
    </StyleMap>
    <Style id="icon-1626-A52714-normal">
      <IconStyle>
        <color>ff1427a5</color>
        <scale>1</scale>
        <Icon>
          <href>https://www.gstatic.com/mapspro/images/stock/503-wht-blank_maps.png</href>
        </Icon>
      </IconStyle>
      <LabelStyle>
        <scale>0</scale>
      </LabelStyle>
    </Style>
    <Style id="icon-1626-A52714-highlight">
      <IconStyle>
        <color>ff1427a5</color>
        <scale>1</scale>
        <Icon>
          <href>https://www.gstatic.com/mapspro/images/stock/503-wht-blank_maps.png</href>
        </Icon>
      </IconStyle>
      <LabelStyle>
        <scale>1</scale>
      </LabelStyle>
    </Style>
    <StyleMap id="icon-1626-A52714">
      <Pair>
        <key>normal</key>
        <styleUrl>#icon-1626-A52714-normal</styleUrl>
      </Pair>
      <Pair>
        <key>highlight</key>
        <styleUrl>#icon-1626-A52714-highlight</styleUrl>
      </Pair>
    </StyleMap>
    <Style id="icon-1670-000000-normal">
      <IconStyle>
        <color>ff000000</color>
        <scale>1</scale>
        <Icon>
          <href>https://www.gstatic.com/mapspro/images/stock/503-wht-blank_maps.png</href>
        </Icon>
      </IconStyle>
      <LabelStyle>
        <scale>0</scale>
      </LabelStyle>
    </Style>
    <Style id="icon-1670-000000-highlight">
      <IconStyle>
        <color>ff000000</color>
        <scale>1</scale>
        <Icon>
          <href>https://www.gstatic.com/mapspro/images/stock/503-wht-blank_maps.png</href>
        </Icon>
      </IconStyle>
      <LabelStyle>
        <scale>1</scale>
      </LabelStyle>
    </Style>
    <StyleMap id="icon-1670-000000">
      <Pair>
        <key>normal</key>
        <styleUrl>#icon-1670-000000-normal</styleUrl>
      </Pair>
      <Pair>
        <key>highlight</key>
        <styleUrl>#icon-1670-000000-highlight</styleUrl>
      </Pair>
    </StyleMap>
    <Style id="icon-1670-A52714-normal">
      <IconStyle>
        <color>ff1427a5</color>
        <scale>1</scale>
        <Icon>
          <href>https://www.gstatic.com/mapspro/images/stock/503-wht-blank_maps.png</href>
        </Icon>
      </IconStyle>
      <LabelStyle>
        <scale>0</scale>
      </LabelStyle>
    </Style>
    <Style id="icon-1670-A52714-highlight">
      <IconStyle>
        <color>ff1427a5</color>
        <scale>1</scale>
        <Icon>
          <href>https://www.gstatic.com/mapspro/images/stock/503-wht-blank_maps.png</href>
        </Icon>
      </IconStyle>
      <LabelStyle>
        <scale>1</scale>
      </LabelStyle>
    </Style>
    <StyleMap id="icon-1670-A52714">
      <Pair>
        <key>normal</key>
        <styleUrl>#icon-1670-A52714-normal</styleUrl>
      </Pair>
      <Pair>
        <key>highlight</key>
        <styleUrl>#icon-1670-A52714-highlight</styleUrl>
      </Pair>
    </StyleMap>
    <Style id="line-000000-5456-nodesc-normal">
      <LineStyle>
        <color>ff000000</color>
        <width>5.456</width>
      </LineStyle>
      <BalloonStyle>
        <text><![CDATA[<h3>$[name]</h3>]]></text>
      </BalloonStyle>
    </Style>
    <Style id="line-000000-5456-nodesc-highlight">
      <LineStyle>
        <color>ff000000</color>
        <width>8.184</width>
      </LineStyle>
      <BalloonStyle>
        <text><![CDATA[<h3>$[name]</h3>]]></text>
      </BalloonStyle>
    </Style>
    <StyleMap id="line-000000-5456-nodesc">
      <Pair>
        <key>normal</key>
        <styleUrl>#line-000000-5456-nodesc-normal</styleUrl>
      </Pair>
      <Pair>
        <key>highlight</key>
        <styleUrl>#line-000000-5456-nodesc-highlight</styleUrl>
      </Pair>
    </StyleMap>
    <Style id="line-A52714-5650-nodesc-normal">
      <LineStyle>
        <color>ff1427a5</color>
        <width>5.65</width>
      </LineStyle>
      <BalloonStyle>
        <text><![CDATA[<h3>$[name]</h3>]]></text>
      </BalloonStyle>
    </Style>
    <Style id="line-A52714-5650-nodesc-highlight">
      <LineStyle>
        <color>ff1427a5</color>
        <width>8.475</width>
      </LineStyle>
      <BalloonStyle>
        <text><![CDATA[<h3>$[name]</h3>]]></text>
      </BalloonStyle>
    </Style>
    <StyleMap id="line-A52714-5650-nodesc">
      <Pair>
        <key>normal</key>
        <styleUrl>#line-A52714-5650-nodesc-normal</styleUrl>
      </Pair>
      <Pair>
        <key>highlight</key>
        <styleUrl>#line-A52714-5650-nodesc-highlight</styleUrl>
      </Pair>
    </StyleMap>
    <Folder>
      <name>Маршрут туда</name>
      <Placemark>
        <name>Линия маршрута</name>
        <styleUrl>#line-A52714-5650-nodesc</styleUrl>
        <LineString>
          <tessellate>1</tessellate>
          <coordinates>
            36.3661587,50.0166589,0
            36.3651931,50.0172036,0
            36.3632834,50.0181825,0
            36.3620281,50.0188443,0
            36.3606119,50.0194785,0
            36.3595283,50.0199128,0
            36.3585842,50.0201885,0
            36.3571894,50.0205263,0
            36.3557839,50.0207538,0
            36.3538849,50.0209537,0
            36.3517284,50.0210157,0
            36.3495934,50.0210847,0
            36.3479519,50.0211191,0
            36.3466966,50.0211674,0
            36.3456774,50.021257,0
            36.3448191,50.0213673,0
            36.3438106,50.0215672,0
            36.3427806,50.0218636,0
            36.3410533,50.0224771,0
            36.3377702,50.0235731,0
            36.3357854,50.0242141,0
            36.3374215,50.026251,0
            36.3363111,50.0266163,0
            36.3359034,50.0267403,0
            36.3357157,50.0267644,0
            36.3355816,50.0266921,0
            36.3357103,50.0265852,0
            36.3359249,50.0264922,0
            36.3357961,50.0265404,0
          </coordinates>
        </LineString>
      </Placemark>
      <Placemark>
        <name>Остановка ул. Светлая
</name>
        <description>Автобус- 47, 222, 272.</description>
        <styleUrl>#icon-1499-A52714</styleUrl>
        <Point>
          <coordinates>
            36.3666454,50.0164687,0
          </coordinates>
        </Point>
      </Placemark>
      <Placemark>
        <name>Остановка Владимирская церковь
</name>
        <description>Автобус- 47, 222.</description>
        <styleUrl>#icon-1670-A52714</styleUrl>
        <Point>
          <coordinates>
            36.3596409,50.019981,0
          </coordinates>
        </Point>
      </Placemark>
      <Placemark>
        <name>Остановка 531 микрорайон
</name>
        <description>Автобус- 47, 222.</description>
        <styleUrl>#icon-1546-A52714</styleUrl>
        <Point>
          <coordinates>
            36.3564606,50.0207806,0
          </coordinates>
        </Point>
      </Placemark>
      <Placemark>
        <name>Остановка ул. Гвардейцев Широнинцев
</name>
        <description>Автобус- 47, 222.</description>
        <styleUrl>#icon-1532-A52714</styleUrl>
        <Point>
          <coordinates>
            36.3472363,50.0211931,0
          </coordinates>
        </Point>
      </Placemark>
      <Placemark>
        <name>Остановка Салтовский Рынок
</name>
        <description>Автобус- 47, 63, 222.</description>
        <styleUrl>#icon-1578-A52714</styleUrl>
        <Point>
          <coordinates>
            36.3420435,50.0221444,0
          </coordinates>
        </Point>
      </Placemark>
      <Placemark>
        <name>Станция метро Салтовская
</name>
        <description>Автобус- 47, 63.</description>
        <styleUrl>#icon-1626-A52714</styleUrl>
        <Point>
          <coordinates>
            36.336929,50.0264687,0
          </coordinates>
        </Point>
      </Placemark>
    </Folder>
    <Folder>
      <name>Маршрут обратно</name>
      <Placemark>
        <name>Линия маршрута</name>
        <styleUrl>#line-000000-5456-nodesc</styleUrl>
        <LineString>
          <tessellate>1</tessellate>
          <coordinates>
            36.3359763,50.0264798,0
            36.3362821,50.0263833,0
            36.3364591,50.0264316,0
            36.336561,50.0264764,0
            36.3372477,50.0262593,0
            36.3355203,50.0241708,0
            36.335928,50.0240674,0
            36.3388302,50.0231058,0
            36.3417538,50.0221201,0
            36.3432236,50.0216617,0
            36.3436903,50.0215342,0
            36.3441785,50.0213997,0
            36.3452031,50.0212136,0
            36.3457503,50.0211585,0
            36.347424,50.021031,0
            36.3481213,50.0210068,0
            36.3501276,50.020962,0
            36.3510986,50.0209276,0
            36.3534053,50.0208965,0
            36.3541134,50.0208517,0
            36.354682,50.0207931,0
            36.3553311,50.0207276,0
            36.3565435,50.0205415,0
            36.3571014,50.0204209,0
            36.3581796,50.0201865,0
            36.3589253,50.0199763,0
            36.3595315,50.0197901,0
            36.3600196,50.0195971,0
            36.3611891,50.0191146,0
            36.3618918,50.0187733,0
            36.3635011,50.0179599,0
            36.3648959,50.0172601,0
            36.3666822,50.0162295,0
            36.3667144,50.0163088,0
            36.3661587,50.0166589,0
          </coordinates>
        </LineString>
      </Placemark>
      <Placemark>
        <name>Станция метро Салтовская
</name>
        <description>Автобус-222.</description>
        <styleUrl>#icon-1499-000000</styleUrl>
        <Point>
          <coordinates>
            36.3359249,50.0264922,0
          </coordinates>
        </Point>
      </Placemark>
      <Placemark>
        <name>Станция метро Салтовская
</name>
        <description>Автобус- 47, 63.</description>
        <styleUrl>#icon-1626-000000</styleUrl>
        <Point>
          <coordinates>
            36.3361058,50.0239205,0
          </coordinates>
        </Point>
      </Placemark>
      <Placemark>
        <name>Остановка Салтовский рынок
</name>
        <description>Автобус- 47, 63, 222.</description>
        <styleUrl>#icon-1578-000000</styleUrl>
        <Point>
          <coordinates>
            36.342672,50.0217837,0
          </coordinates>
        </Point>
      </Placemark>
      <Placemark>
        <name>Остановка ул. Гвардейцев Широнинцев
</name>
        <description>Автобус- 47, 222.</description>
        <styleUrl>#icon-1532-000000</styleUrl>
        <Point>
          <coordinates>
            36.3484707,50.0209358,0
          </coordinates>
        </Point>
      </Placemark>
      <Placemark>
        <name>Остановка 531 микрорайон
</name>
        <description>Автобус- 47, 222.</description>
        <styleUrl>#icon-1546-000000</styleUrl>
        <Point>
          <coordinates>
            36.356689,50.020412,0
          </coordinates>
        </Point>
      </Placemark>
      <Placemark>
        <name>Остановка Владимирская церковь 
</name>
        <description>Автобус- 47э, 212э, 266э.</description>
        <styleUrl>#icon-1670-000000</styleUrl>
        <Point>
          <coordinates>
            36.3611736,50.0189643,0
          </coordinates>
        </Point>
      </Placemark>
    </Folder>
  </Document>
</kml>
