<?xml version="1.0" encoding="UTF-8"?>
<kml xmlns="http://www.opengis.net/kml/2.2">
  <Document>
    <name>Автобусный маршрут №77 Харьков (Больница скорой помощи - Ж/д Вокзал) kharkiv.inform.city </name>
    <description>Подробно https://info.kharkov.com/-ru/-tr/tr_city/tr_city_a/</description>
    <Style id="icon-1499-000000-normal">
      <IconStyle>
        <color>ff000000</color>
        <scale>1</scale>
        <Icon>
          <href>https://www.gstatic.com/mapspro/images/stock/503-wht-blank_maps.png</href>
        </Icon>
      </IconStyle>
      <LabelStyle>
        <scale>0</scale>
      </LabelStyle>
    </Style>
    <Style id="icon-1499-000000-highlight">
      <IconStyle>
        <color>ff000000</color>
        <scale>1</scale>
        <Icon>
          <href>https://www.gstatic.com/mapspro/images/stock/503-wht-blank_maps.png</href>
        </Icon>
      </IconStyle>
      <LabelStyle>
        <scale>1</scale>
      </LabelStyle>
    </Style>
    <StyleMap id="icon-1499-000000">
      <Pair>
        <key>normal</key>
        <styleUrl>#icon-1499-000000-normal</styleUrl>
      </Pair>
      <Pair>
        <key>highlight</key>
        <styleUrl>#icon-1499-000000-highlight</styleUrl>
      </Pair>
    </StyleMap>
    <Style id="icon-1499-A52714-normal">
      <IconStyle>
        <color>ff1427a5</color>
        <scale>1</scale>
        <Icon>
          <href>https://www.gstatic.com/mapspro/images/stock/503-wht-blank_maps.png</href>
        </Icon>
      </IconStyle>
      <LabelStyle>
        <scale>0</scale>
      </LabelStyle>
    </Style>
    <Style id="icon-1499-A52714-highlight">
      <IconStyle>
        <color>ff1427a5</color>
        <scale>1</scale>
        <Icon>
          <href>https://www.gstatic.com/mapspro/images/stock/503-wht-blank_maps.png</href>
        </Icon>
      </IconStyle>
      <LabelStyle>
        <scale>1</scale>
      </LabelStyle>
    </Style>
    <StyleMap id="icon-1499-A52714">
      <Pair>
        <key>normal</key>
        <styleUrl>#icon-1499-A52714-normal</styleUrl>
      </Pair>
      <Pair>
        <key>highlight</key>
        <styleUrl>#icon-1499-A52714-highlight</styleUrl>
      </Pair>
    </StyleMap>
    <Style id="icon-1532-000000-normal">
      <IconStyle>
        <color>ff000000</color>
        <scale>1</scale>
        <Icon>
          <href>https://www.gstatic.com/mapspro/images/stock/503-wht-blank_maps.png</href>
        </Icon>
      </IconStyle>
      <LabelStyle>
        <scale>0</scale>
      </LabelStyle>
    </Style>
    <Style id="icon-1532-000000-highlight">
      <IconStyle>
        <color>ff000000</color>
        <scale>1</scale>
        <Icon>
          <href>https://www.gstatic.com/mapspro/images/stock/503-wht-blank_maps.png</href>
        </Icon>
      </IconStyle>
      <LabelStyle>
        <scale>1</scale>
      </LabelStyle>
    </Style>
    <StyleMap id="icon-1532-000000">
      <Pair>
        <key>normal</key>
        <styleUrl>#icon-1532-000000-normal</styleUrl>
      </Pair>
      <Pair>
        <key>highlight</key>
        <styleUrl>#icon-1532-000000-highlight</styleUrl>
      </Pair>
    </StyleMap>
    <Style id="icon-1532-A52714-normal">
      <IconStyle>
        <color>ff1427a5</color>
        <scale>1</scale>
        <Icon>
          <href>https://www.gstatic.com/mapspro/images/stock/503-wht-blank_maps.png</href>
        </Icon>
      </IconStyle>
      <LabelStyle>
        <scale>0</scale>
      </LabelStyle>
    </Style>
    <Style id="icon-1532-A52714-highlight">
      <IconStyle>
        <color>ff1427a5</color>
        <scale>1</scale>
        <Icon>
          <href>https://www.gstatic.com/mapspro/images/stock/503-wht-blank_maps.png</href>
        </Icon>
      </IconStyle>
      <LabelStyle>
        <scale>1</scale>
      </LabelStyle>
    </Style>
    <StyleMap id="icon-1532-A52714">
      <Pair>
        <key>normal</key>
        <styleUrl>#icon-1532-A52714-normal</styleUrl>
      </Pair>
      <Pair>
        <key>highlight</key>
        <styleUrl>#icon-1532-A52714-highlight</styleUrl>
      </Pair>
    </StyleMap>
    <Style id="icon-1586-000000-normal">
      <IconStyle>
        <color>ff000000</color>
        <scale>1</scale>
        <Icon>
          <href>https://www.gstatic.com/mapspro/images/stock/503-wht-blank_maps.png</href>
        </Icon>
      </IconStyle>
      <LabelStyle>
        <scale>0</scale>
      </LabelStyle>
    </Style>
    <Style id="icon-1586-000000-highlight">
      <IconStyle>
        <color>ff000000</color>
        <scale>1</scale>
        <Icon>
          <href>https://www.gstatic.com/mapspro/images/stock/503-wht-blank_maps.png</href>
        </Icon>
      </IconStyle>
      <LabelStyle>
        <scale>1</scale>
      </LabelStyle>
    </Style>
    <StyleMap id="icon-1586-000000">
      <Pair>
        <key>normal</key>
        <styleUrl>#icon-1586-000000-normal</styleUrl>
      </Pair>
      <Pair>
        <key>highlight</key>
        <styleUrl>#icon-1586-000000-highlight</styleUrl>
      </Pair>
    </StyleMap>
    <Style id="icon-1586-A52714-normal">
      <IconStyle>
        <color>ff1427a5</color>
        <scale>1</scale>
        <Icon>
          <href>https://www.gstatic.com/mapspro/images/stock/503-wht-blank_maps.png</href>
        </Icon>
      </IconStyle>
      <LabelStyle>
        <scale>0</scale>
      </LabelStyle>
    </Style>
    <Style id="icon-1586-A52714-highlight">
      <IconStyle>
        <color>ff1427a5</color>
        <scale>1</scale>
        <Icon>
          <href>https://www.gstatic.com/mapspro/images/stock/503-wht-blank_maps.png</href>
        </Icon>
      </IconStyle>
      <LabelStyle>
        <scale>1</scale>
      </LabelStyle>
    </Style>
    <StyleMap id="icon-1586-A52714">
      <Pair>
        <key>normal</key>
        <styleUrl>#icon-1586-A52714-normal</styleUrl>
      </Pair>
      <Pair>
        <key>highlight</key>
        <styleUrl>#icon-1586-A52714-highlight</styleUrl>
      </Pair>
    </StyleMap>
    <Style id="icon-1624-000000-normal">
      <IconStyle>
        <color>ff000000</color>
        <scale>1</scale>
        <Icon>
          <href>https://www.gstatic.com/mapspro/images/stock/503-wht-blank_maps.png</href>
        </Icon>
      </IconStyle>
      <LabelStyle>
        <scale>0</scale>
      </LabelStyle>
    </Style>
    <Style id="icon-1624-000000-highlight">
      <IconStyle>
        <color>ff000000</color>
        <scale>1</scale>
        <Icon>
          <href>https://www.gstatic.com/mapspro/images/stock/503-wht-blank_maps.png</href>
        </Icon>
      </IconStyle>
      <LabelStyle>
        <scale>1</scale>
      </LabelStyle>
    </Style>
    <StyleMap id="icon-1624-000000">
      <Pair>
        <key>normal</key>
        <styleUrl>#icon-1624-000000-normal</styleUrl>
      </Pair>
      <Pair>
        <key>highlight</key>
        <styleUrl>#icon-1624-000000-highlight</styleUrl>
      </Pair>
    </StyleMap>
    <Style id="icon-1626-000000-normal">
      <IconStyle>
        <color>ff000000</color>
        <scale>1</scale>
        <Icon>
          <href>https://www.gstatic.com/mapspro/images/stock/503-wht-blank_maps.png</href>
        </Icon>
      </IconStyle>
      <LabelStyle>
        <scale>0</scale>
      </LabelStyle>
    </Style>
    <Style id="icon-1626-000000-highlight">
      <IconStyle>
        <color>ff000000</color>
        <scale>1</scale>
        <Icon>
          <href>https://www.gstatic.com/mapspro/images/stock/503-wht-blank_maps.png</href>
        </Icon>
      </IconStyle>
      <LabelStyle>
        <scale>1</scale>
      </LabelStyle>
    </Style>
    <StyleMap id="icon-1626-000000">
      <Pair>
        <key>normal</key>
        <styleUrl>#icon-1626-000000-normal</styleUrl>
      </Pair>
      <Pair>
        <key>highlight</key>
        <styleUrl>#icon-1626-000000-highlight</styleUrl>
      </Pair>
    </StyleMap>
    <Style id="icon-1626-A52714-normal">
      <IconStyle>
        <color>ff1427a5</color>
        <scale>1</scale>
        <Icon>
          <href>https://www.gstatic.com/mapspro/images/stock/503-wht-blank_maps.png</href>
        </Icon>
      </IconStyle>
      <LabelStyle>
        <scale>0</scale>
      </LabelStyle>
    </Style>
    <Style id="icon-1626-A52714-highlight">
      <IconStyle>
        <color>ff1427a5</color>
        <scale>1</scale>
        <Icon>
          <href>https://www.gstatic.com/mapspro/images/stock/503-wht-blank_maps.png</href>
        </Icon>
      </IconStyle>
      <LabelStyle>
        <scale>1</scale>
      </LabelStyle>
    </Style>
    <StyleMap id="icon-1626-A52714">
      <Pair>
        <key>normal</key>
        <styleUrl>#icon-1626-A52714-normal</styleUrl>
      </Pair>
      <Pair>
        <key>highlight</key>
        <styleUrl>#icon-1626-A52714-highlight</styleUrl>
      </Pair>
    </StyleMap>
    <Style id="icon-1686-000000-normal">
      <IconStyle>
        <color>ff000000</color>
        <scale>1</scale>
        <Icon>
          <href>https://www.gstatic.com/mapspro/images/stock/503-wht-blank_maps.png</href>
        </Icon>
      </IconStyle>
      <LabelStyle>
        <scale>0</scale>
      </LabelStyle>
    </Style>
    <Style id="icon-1686-000000-highlight">
      <IconStyle>
        <color>ff000000</color>
        <scale>1</scale>
        <Icon>
          <href>https://www.gstatic.com/mapspro/images/stock/503-wht-blank_maps.png</href>
        </Icon>
      </IconStyle>
      <LabelStyle>
        <scale>1</scale>
      </LabelStyle>
    </Style>
    <StyleMap id="icon-1686-000000">
      <Pair>
        <key>normal</key>
        <styleUrl>#icon-1686-000000-normal</styleUrl>
      </Pair>
      <Pair>
        <key>highlight</key>
        <styleUrl>#icon-1686-000000-highlight</styleUrl>
      </Pair>
    </StyleMap>
    <Style id="icon-1686-A52714-normal">
      <IconStyle>
        <color>ff1427a5</color>
        <scale>1</scale>
        <Icon>
          <href>https://www.gstatic.com/mapspro/images/stock/503-wht-blank_maps.png</href>
        </Icon>
      </IconStyle>
      <LabelStyle>
        <scale>0</scale>
      </LabelStyle>
    </Style>
    <Style id="icon-1686-A52714-highlight">
      <IconStyle>
        <color>ff1427a5</color>
        <scale>1</scale>
        <Icon>
          <href>https://www.gstatic.com/mapspro/images/stock/503-wht-blank_maps.png</href>
        </Icon>
      </IconStyle>
      <LabelStyle>
        <scale>1</scale>
      </LabelStyle>
    </Style>
    <StyleMap id="icon-1686-A52714">
      <Pair>
        <key>normal</key>
        <styleUrl>#icon-1686-A52714-normal</styleUrl>
      </Pair>
      <Pair>
        <key>highlight</key>
        <styleUrl>#icon-1686-A52714-highlight</styleUrl>
      </Pair>
    </StyleMap>
    <Style id="icon-1720-000000-normal">
      <IconStyle>
        <color>ff000000</color>
        <scale>1</scale>
        <Icon>
          <href>https://www.gstatic.com/mapspro/images/stock/503-wht-blank_maps.png</href>
        </Icon>
      </IconStyle>
      <LabelStyle>
        <scale>0</scale>
      </LabelStyle>
    </Style>
    <Style id="icon-1720-000000-highlight">
      <IconStyle>
        <color>ff000000</color>
        <scale>1</scale>
        <Icon>
          <href>https://www.gstatic.com/mapspro/images/stock/503-wht-blank_maps.png</href>
        </Icon>
      </IconStyle>
      <LabelStyle>
        <scale>1</scale>
      </LabelStyle>
    </Style>
    <StyleMap id="icon-1720-000000">
      <Pair>
        <key>normal</key>
        <styleUrl>#icon-1720-000000-normal</styleUrl>
      </Pair>
      <Pair>
        <key>highlight</key>
        <styleUrl>#icon-1720-000000-highlight</styleUrl>
      </Pair>
    </StyleMap>
    <Style id="icon-1720-A52714-normal">
      <IconStyle>
        <color>ff1427a5</color>
        <scale>1</scale>
        <Icon>
          <href>https://www.gstatic.com/mapspro/images/stock/503-wht-blank_maps.png</href>
        </Icon>
      </IconStyle>
      <LabelStyle>
        <scale>0</scale>
      </LabelStyle>
    </Style>
    <Style id="icon-1720-A52714-highlight">
      <IconStyle>
        <color>ff1427a5</color>
        <scale>1</scale>
        <Icon>
          <href>https://www.gstatic.com/mapspro/images/stock/503-wht-blank_maps.png</href>
        </Icon>
      </IconStyle>
      <LabelStyle>
        <scale>1</scale>
      </LabelStyle>
    </Style>
    <StyleMap id="icon-1720-A52714">
      <Pair>
        <key>normal</key>
        <styleUrl>#icon-1720-A52714-normal</styleUrl>
      </Pair>
      <Pair>
        <key>highlight</key>
        <styleUrl>#icon-1720-A52714-highlight</styleUrl>
      </Pair>
    </StyleMap>
    <Style id="icon-1769-000000-normal">
      <IconStyle>
        <color>ff000000</color>
        <scale>1</scale>
        <Icon>
          <href>https://www.gstatic.com/mapspro/images/stock/503-wht-blank_maps.png</href>
        </Icon>
      </IconStyle>
      <LabelStyle>
        <scale>0</scale>
      </LabelStyle>
    </Style>
    <Style id="icon-1769-000000-highlight">
      <IconStyle>
        <color>ff000000</color>
        <scale>1</scale>
        <Icon>
          <href>https://www.gstatic.com/mapspro/images/stock/503-wht-blank_maps.png</href>
        </Icon>
      </IconStyle>
      <LabelStyle>
        <scale>1</scale>
      </LabelStyle>
    </Style>
    <StyleMap id="icon-1769-000000">
      <Pair>
        <key>normal</key>
        <styleUrl>#icon-1769-000000-normal</styleUrl>
      </Pair>
      <Pair>
        <key>highlight</key>
        <styleUrl>#icon-1769-000000-highlight</styleUrl>
      </Pair>
    </StyleMap>
    <Style id="icon-1769-A52714-normal">
      <IconStyle>
        <color>ff1427a5</color>
        <scale>1</scale>
        <Icon>
          <href>https://www.gstatic.com/mapspro/images/stock/503-wht-blank_maps.png</href>
        </Icon>
      </IconStyle>
      <LabelStyle>
        <scale>0</scale>
      </LabelStyle>
    </Style>
    <Style id="icon-1769-A52714-highlight">
      <IconStyle>
        <color>ff1427a5</color>
        <scale>1</scale>
        <Icon>
          <href>https://www.gstatic.com/mapspro/images/stock/503-wht-blank_maps.png</href>
        </Icon>
      </IconStyle>
      <LabelStyle>
        <scale>1</scale>
      </LabelStyle>
    </Style>
    <StyleMap id="icon-1769-A52714">
      <Pair>
        <key>normal</key>
        <styleUrl>#icon-1769-A52714-normal</styleUrl>
      </Pair>
      <Pair>
        <key>highlight</key>
        <styleUrl>#icon-1769-A52714-highlight</styleUrl>
      </Pair>
    </StyleMap>
    <Style id="line-000000-5263-nodesc-normal">
      <LineStyle>
        <color>ff000000</color>
        <width>5.263</width>
      </LineStyle>
      <BalloonStyle>
        <text><![CDATA[<h3>$[name]</h3>]]></text>
      </BalloonStyle>
    </Style>
    <Style id="line-000000-5263-nodesc-highlight">
      <LineStyle>
        <color>ff000000</color>
        <width>7.8945</width>
      </LineStyle>
      <BalloonStyle>
        <text><![CDATA[<h3>$[name]</h3>]]></text>
      </BalloonStyle>
    </Style>
    <StyleMap id="line-000000-5263-nodesc">
      <Pair>
        <key>normal</key>
        <styleUrl>#line-000000-5263-nodesc-normal</styleUrl>
      </Pair>
      <Pair>
        <key>highlight</key>
        <styleUrl>#line-000000-5263-nodesc-highlight</styleUrl>
      </Pair>
    </StyleMap>
    <Style id="line-A52714-5263-nodesc-normal">
      <LineStyle>
        <color>ff1427a5</color>
        <width>5.263</width>
      </LineStyle>
      <BalloonStyle>
        <text><![CDATA[<h3>$[name]</h3>]]></text>
      </BalloonStyle>
    </Style>
    <Style id="line-A52714-5263-nodesc-highlight">
      <LineStyle>
        <color>ff1427a5</color>
        <width>7.8945</width>
      </LineStyle>
      <BalloonStyle>
        <text><![CDATA[<h3>$[name]</h3>]]></text>
      </BalloonStyle>
    </Style>
    <StyleMap id="line-A52714-5263-nodesc">
      <Pair>
        <key>normal</key>
        <styleUrl>#line-A52714-5263-nodesc-normal</styleUrl>
      </Pair>
      <Pair>
        <key>highlight</key>
        <styleUrl>#line-A52714-5263-nodesc-highlight</styleUrl>
      </Pair>
    </StyleMap>
    <Folder>
      <name>Маршрут туда</name>
      <Placemark>
        <name>Линия маршрута</name>
        <styleUrl>#line-A52714-5263-nodesc</styleUrl>
        <LineString>
          <tessellate>1</tessellate>
          <coordinates>
            36.2461627,50.0386077,0
            36.245637,50.0386697,0
            36.24156,50.03479,0
            36.239264,50.0325709,0
            36.2387276,50.0320678,0
            36.2381804,50.0315441,0
            36.2378264,50.0312684,0
            36.2374616,50.0310961,0
            36.2369681,50.0309582,0
            36.2364745,50.0308962,0
            36.2354124,50.0307998,0
            36.2347794,50.0310478,0
            36.2343824,50.0312339,0
            36.2330842,50.03193,0
            36.2299299,50.033646,0
            36.2292969,50.0340595,0
            36.2292648,50.0342318,0
            36.2291897,50.0344523,0
            36.2290824,50.0345695,0
            36.2288678,50.0346108,0
            36.2286425,50.0346039,0
            36.228503,50.0345557,0
            36.227988,50.0345212,0
            36.2277842,50.0345281,0
            36.2275374,50.0345902,0
            36.2269366,50.0347693,0
            36.2262714,50.0348727,0
            36.2253809,50.0349485,0
            36.2246299,50.0349623,0
            36.2239862,50.0349416,0
            36.2226987,50.03479,0
            36.2197697,50.0344248,0
            36.2150598,50.0338321,0
            36.2133646,50.0336185,0
            36.2125492,50.0334531,0
            36.2118411,50.0331843,0
            36.2111652,50.0329569,0
            36.2107682,50.0327777,0
            36.2104678,50.0326261,0
            36.2098777,50.032185,0
            36.2088585,50.0312891,0
            36.2064338,50.0290836,0
            36.2060905,50.0287941,0
            36.20682,50.0277741,0
            36.2087405,50.0251204,0
            36.2094593,50.0242864,0
            36.2115407,50.0218532,0
            36.2141049,50.0183099,0
            36.2152744,50.0167312,0
            36.2161005,50.0155523,0
            36.2165511,50.0148284,0
            36.2170124,50.0139184,0
            36.2172592,50.0132083,0
            36.2175274,50.0124775,0
            36.2179995,50.0110158,0
            36.2183213,50.009692,0
            36.2185037,50.0089473,0
            36.2186432,50.0078096,0
            36.2185896,50.0065202,0
            36.2185252,50.0059065,0
            36.2184286,50.0053893,0
            36.2181711,50.0039412,0
            36.2181175,50.0034654,0
            36.2173987,50.0032723,0
            36.2158752,50.0027827,0
            36.2129355,50.0015414,0
            36.2105859,50.0005139,0
            36.2052322,49.9984174,0
            36.2049854,49.9983001,0
            36.205082,49.9981691,0
            36.2056077,49.9978105,0
            36.2062299,49.9975346,0
            36.2065196,49.9972587,0
            36.2066269,49.9968794,0
            36.2066162,49.9957828,0
            36.2066698,49.9949552,0
            36.2066055,49.9941275,0
            36.2066591,49.9936102,0
            36.20682,49.9928308,0
            36.2071097,49.9912651,0
            36.2076032,49.9883404,0
            36.2077642,49.9883404,0
            36.2075067,49.9899269,0
          </coordinates>
        </LineString>
      </Placemark>
      <Placemark>
        <name>Остановка Больница скорой помощи 
</name>
        <description>Автобус-20, 77. Маршрутка -277э. . Троллейбус- 18.</description>
        <styleUrl>#icon-1499-A52714</styleUrl>
        <Point>
          <coordinates>
            36.2458271,50.038587,0
          </coordinates>
        </Point>
      </Placemark>
      <Placemark>
        <name>Остановка ул. Парталы</name>
        <description>Автобус-20, 77. Маршрутка -277э.</description>
        <styleUrl>#icon-1532-A52714</styleUrl>
        <Point>
          <coordinates>
            36.2411065,50.0344385,0
          </coordinates>
        </Point>
      </Placemark>
      <Placemark>
        <name>Остановка По требованию
</name>
        <description>Автобус-20, 77. Маршрутка -277э.</description>
        <styleUrl>#icon-1769-A52714</styleUrl>
        <Point>
          <coordinates>
            36.2390512,50.0323846,0
          </coordinates>
        </Point>
      </Placemark>
      <Placemark>
        <name>Остановка Канатная дорога 
</name>
        <description>Автобус-20, 77. Маршрутка -277э.</description>
        <styleUrl>#icon-1586-A52714</styleUrl>
        <Point>
          <coordinates>
            36.2361276,50.0308507,0
          </coordinates>
        </Point>
      </Placemark>
      <Placemark>
        <name>Остановка магазин Каштан</name>
        <description>Автобус-77. Маршрутка -277э.</description>
        <styleUrl>#icon-1686-A52714</styleUrl>
        <Point>
          <coordinates>
            36.2315195,50.0329079,0
          </coordinates>
        </Point>
      </Placemark>
      <Placemark>
        <name>Остановка Павлово Поле</name>
        <description>Автобус-77. Маршрутка -277э. Троллейбус-12.</description>
        <styleUrl>#icon-1720-A52714</styleUrl>
        <Point>
          <coordinates>
            36.2265199,50.0349892,0
          </coordinates>
        </Point>
      </Placemark>
      <Placemark>
        <name>Станция метро 23 Августа 
</name>
        <description>Автобус-77. Маршрутка -277э. Троллейбус-12.</description>
        <styleUrl>#icon-1626-A52714</styleUrl>
        <Point>
          <coordinates>
            36.219911,50.0345619,0
          </coordinates>
        </Point>
      </Placemark>
      <Placemark>
        <name>Остановка ул. Шекспира</name>
        <description>Автобус-77. Маршрутка -277э. Троллейбус-12.</description>
        <styleUrl>#icon-1532-A52714</styleUrl>
        <Point>
          <coordinates>
            36.2127916,50.0335761,0
          </coordinates>
        </Point>
      </Placemark>
      <Placemark>
        <name>Остановка ул. 23 Августа
</name>
        <description>Автобус-77. Маршрутка -277э.</description>
        <styleUrl>#icon-1532-A52714</styleUrl>
        <Point>
          <coordinates>
            36.2064022,50.0282764,0
          </coordinates>
        </Point>
      </Placemark>
      <Placemark>
        <name>Остановка ул. Хранителей Неба
</name>
        <description>Автобус-77. Маршрутка -277э.</description>
        <styleUrl>#icon-1532-A52714</styleUrl>
        <Point>
          <coordinates>
            36.2082845,50.0253953,0
          </coordinates>
        </Point>
      </Placemark>
      <Placemark>
        <name>Остановка ул. Отакара Яроша
</name>
        <description>Автобус-77. Маршрутка -277э.</description>
        <styleUrl>#icon-1532-A52714</styleUrl>
        <Point>
          <coordinates>
            36.209787,50.0238506,0
          </coordinates>
        </Point>
      </Placemark>
      <Placemark>
        <name>Остановка ул. Европейская
</name>
        <description>Автобус-77. Маршрутка -277э.</description>
        <styleUrl>#icon-1532-A52714</styleUrl>
        <Point>
          <coordinates>
            36.2133857,50.0190493,0
          </coordinates>
        </Point>
      </Placemark>
      <Placemark>
        <name>Остановка Сосновая Горка
</name>
        <description>Автобус-77. Маршрутка -277э.</description>
        <styleUrl>#icon-1720-A52714</styleUrl>
        <Point>
          <coordinates>
            36.2154457,50.0163608,0
          </coordinates>
        </Point>
      </Placemark>
      <Placemark>
        <name>Остановка ул. Павловская
</name>
        <description>Автобус-77. Маршрутка -277э.</description>
        <styleUrl>#icon-1532-A52714</styleUrl>
        <Point>
          <coordinates>
            36.2179154,50.0114257,0
          </coordinates>
        </Point>
      </Placemark>
      <Placemark>
        <name>Остановка ул. Херсонская
</name>
        <description>Автобус-77. Маршрутка - 277э.</description>
        <styleUrl>#icon-1532-A52714</styleUrl>
        <Point>
          <coordinates>
            36.2184318,50.0075538,0
          </coordinates>
        </Point>
      </Placemark>
      <Placemark>
        <name>Остановка спуск Клочковський
</name>
        <description>Автобус-77. Маршрутка -270э, 277э.</description>
        <styleUrl>#icon-1532-A52714</styleUrl>
        <Point>
          <coordinates>
            36.2171873,50.0033199,0
          </coordinates>
        </Point>
      </Placemark>
      <Placemark>
        <name>Остановка ул. Большая Панасовская
</name>
        <description>Автобус-77. Маршрутка -250э, 277э.</description>
        <styleUrl>#icon-1532-A52714</styleUrl>
        <Point>
          <coordinates>
            36.2055744,49.9976626,0
          </coordinates>
        </Point>
      </Placemark>
      <Placemark>
        <name>Остановка ул. Чеботарская 
</name>
        <description>Автобус-77э,, 250э.</description>
        <styleUrl>#icon-1532-A52714</styleUrl>
        <Point>
          <coordinates>
            36.206568,49.9943368,0
          </coordinates>
        </Point>
      </Placemark>
    </Folder>
    <Folder>
      <name>Маршрут обратно</name>
      <Placemark>
        <name>Линия маршрута</name>
        <styleUrl>#line-000000-5263-nodesc</styleUrl>
        <LineString>
          <tessellate>1</tessellate>
          <coordinates>
            36.2075067,49.9899269,0
            36.2074186,49.9902922,0
            36.2072523,49.9914889,0
            36.2068554,49.9933719,0
            36.2067374,49.9941582,0
            36.2068339,49.9947859,0
            36.2068447,49.9954204,0
            36.2068125,49.9965377,0
            36.2068447,49.997055,0
            36.2066408,49.9973584,0
            36.206394,49.9976136,0
            36.2059327,49.9978964,0
            36.2055679,49.9980895,0
            36.2054821,49.9982619,0
            36.2074133,49.9990205,0
            36.2107607,50.0003722,0
            36.2159642,50.0025721,0
            36.2167903,50.0028272,0
            36.2183782,50.0032755,0
            36.2183674,50.0037306,0
            36.2183996,50.0040961,0
            36.2187858,50.0062544,0
            36.218818,50.0068957,0
            36.2187644,50.0083299,0
            36.2186786,50.0088884,0
            36.2181958,50.0108604,0
            36.2176808,50.0125771,0
            36.2168868,50.0145834,0
            36.2162646,50.0155831,0
            36.2153419,50.0169205,0
            36.2129923,50.0201536,0
            36.2114581,50.0221941,0
            36.2107499,50.0230075,0
            36.2081643,50.0262402,0
            36.2063404,50.0288386,0
            36.2071558,50.0295279,0
            36.2098916,50.0320365,0
            36.2105676,50.0325258,0
            36.2112757,50.0328704,0
            36.2125953,50.0333459,0
            36.2139042,50.0335458,0
            36.2173804,50.0339869,0
            36.2207707,50.0344141,0
            36.2226268,50.034676,0
            36.2238606,50.0348,0
            36.2248155,50.0348345,0
            36.2255557,50.0348,0
            36.2265535,50.0346622,0
            36.2277766,50.0344417,0
            36.2289568,50.0340213,0
            36.2296112,50.0336767,0
            36.2332483,50.0316713,0
            36.235201,50.0307064,0
            36.2355979,50.0306788,0
            36.2366064,50.0307684,0
            36.2373575,50.0309063,0
            36.2379261,50.0312164,0
            36.2389882,50.0321123,0
            36.2399002,50.0330289,0
            36.2423142,50.0353376,0
            36.2448998,50.0378321,0
            36.2456401,50.0385488,0
            36.2460371,50.0384937,0
            36.2464416,50.0383596,0
            36.2466379,50.0382456,0
            36.2467559,50.0383972,0
            36.2467988,50.0385006,0
            36.2465413,50.0385695,0
            36.2461627,50.0386077,0
          </coordinates>
        </LineString>
      </Placemark>
      <Placemark>
        <name>Станция Ж/д вокзал
</name>
        <description>Автобус-77.Маршрутка 277э.</description>
        <styleUrl>#icon-1499-000000</styleUrl>
        <Point>
          <coordinates>
            36.2073892,49.9891197,0
          </coordinates>
        </Point>
      </Placemark>
      <Placemark>
        <name>Остановка пл. Привокзальная
</name>
        <description>Автобус-77. Маршрутка -250э, 277э. Трамвай-1, 12, 20.</description>
        <styleUrl>#icon-1626-000000</styleUrl>
        <Point>
          <coordinates>
            36.2076889,49.9898483,0
          </coordinates>
        </Point>
      </Placemark>
      <Placemark>
        <name>Остановка ул. Чеботарская
</name>
        <description>Автобус-77. Маршрутка -250э, 277э.</description>
        <styleUrl>#icon-1532-000000</styleUrl>
        <Point>
          <coordinates>
            36.206826,49.993848,0
          </coordinates>
        </Point>
      </Placemark>
      <Placemark>
        <name>Остановка Панасовка
</name>
        <description>Автобус-77. Маршрутка -270э, 277э.</description>
        <styleUrl>#icon-1532-000000</styleUrl>
        <Point>
          <coordinates>
            36.2060251,49.9983519,0
          </coordinates>
        </Point>
      </Placemark>
      <Placemark>
        <name>Остановка спуск Клочковский
</name>
        <description>Автобус-77. Маршрутка -270э, 277э.</description>
        <styleUrl>#icon-1532-000000</styleUrl>
        <Point>
          <coordinates>
            36.2185302,50.0037353,0
          </coordinates>
        </Point>
      </Placemark>
      <Placemark>
        <name>Остановка ул. Херсонская
</name>
        <description>Автобус-77. Маршрутка -270э, 277э.</description>
        <styleUrl>#icon-1532-000000</styleUrl>
        <Point>
          <coordinates>
            36.2189013,50.008073,0
          </coordinates>
        </Point>
      </Placemark>
      <Placemark>
        <name>Остановка ул. Херсонская 
</name>
        <description>Автобус-77. Маршрутка -277э.</description>
        <styleUrl>#icon-1532-000000</styleUrl>
        <Point>
          <coordinates>
            36.2178499,50.0121441,0
          </coordinates>
        </Point>
      </Placemark>
      <Placemark>
        <name>Остановка Сосновая Горка
</name>
        <description>Автобус-77. Маршрутка -277э.</description>
        <styleUrl>#icon-1720-000000</styleUrl>
        <Point>
          <coordinates>
            36.2155324,50.0167296,0
          </coordinates>
        </Point>
      </Placemark>
      <Placemark>
        <name>Остановка ул. Европейская
</name>
        <description>Автобус-77. Маршрутка -277э.</description>
        <styleUrl>#icon-1532-000000</styleUrl>
        <Point>
          <coordinates>
            36.2133008,50.019792,0
          </coordinates>
        </Point>
      </Placemark>
      <Placemark>
        <name>Остановка ул. Отакара Яроша 
</name>
        <description>Автобус-77. Маршрутка -277э.</description>
        <styleUrl>#icon-1532-000000</styleUrl>
        <Point>
          <coordinates>
            36.2099524,50.0239925,0
          </coordinates>
        </Point>
      </Placemark>
      <Placemark>
        <name>Остановка ул. Хранителей Неба
</name>
        <description>Автобус-77. Маршрутка -277э.</description>
        <styleUrl>#icon-1532-000000</styleUrl>
        <Point>
          <coordinates>
            36.2084296,50.0258346,0
          </coordinates>
        </Point>
      </Placemark>
      <Placemark>
        <name>Остановка ул. Клочковская</name>
        <description>Автобус-77. Маршрутка -277э.  Троллейбус-12.</description>
        <styleUrl>#icon-1532-000000</styleUrl>
        <Point>
          <coordinates>
            36.2068907,50.0293376,0
          </coordinates>
        </Point>
      </Placemark>
      <Placemark>
        <name>Остановка ул. Шекспира
</name>
        <description>Автобус-77. Маршрутка -277э. Троллейбус-12.</description>
        <styleUrl>#icon-1532-000000</styleUrl>
        <Point>
          <coordinates>
            36.2121755,50.0331501,0
          </coordinates>
        </Point>
      </Placemark>
      <Placemark>
        <name>Станция метро 23 Августа
</name>
        <description>Автобус-77. Маршрутка -277э. Троллейбус-12.</description>
        <styleUrl>#icon-1626-000000</styleUrl>
        <Point>
          <coordinates>
            36.2216169,50.034432,0
          </coordinates>
        </Point>
      </Placemark>
      <Placemark>
        <name>Остановка Павлово Поле
</name>
        <description>Автобус-77. Маршрутка -277э. Троллейбус-12.</description>
        <styleUrl>#icon-1720-000000</styleUrl>
        <Point>
          <coordinates>
            36.2251114,50.0347291,0
          </coordinates>
        </Point>
      </Placemark>
      <Placemark>
        <name>Остановка Магазин Каштан
</name>
        <description>Автобус-77. Маршрутка -277э.</description>
        <styleUrl>#icon-1686-000000</styleUrl>
        <Point>
          <coordinates>
            36.2316989,50.0325209,0
          </coordinates>
        </Point>
      </Placemark>
      <Placemark>
        <name>Остановка Канатная дорога
</name>
        <description>Автобус-20, 77. Маршрутка -277э.</description>
        <styleUrl>#icon-1586-000000</styleUrl>
        <Point>
          <coordinates>
            36.2360674,50.0307101,0
          </coordinates>
        </Point>
      </Placemark>
      <Placemark>
        <name>Остановка По требованию
</name>
        <description>Автобус-20, 77. Маршрутка -277э.</description>
        <styleUrl>#icon-1769-000000</styleUrl>
        <Point>
          <coordinates>
            36.2393623,50.032419,0
          </coordinates>
        </Point>
      </Placemark>
      <Placemark>
        <name>Остановка ул. Парталы
</name>
        <description>Автобус-20, 77. Маршрутка -277э.</description>
        <styleUrl>#icon-1532-000000</styleUrl>
        <Point>
          <coordinates>
            36.2419999,50.0350443,0
          </coordinates>
        </Point>
      </Placemark>
      <Placemark>
        <name>Остановка Больница Скорой помощи
</name>
        <description>Автобус-20, 77. Маршрутка -277э. . Троллейбус- 18.</description>
        <styleUrl>#icon-1624-000000</styleUrl>
        <Point>
          <coordinates>
            36.2464416,50.0383596,0
          </coordinates>
        </Point>
      </Placemark>
    </Folder>
  </Document>
</kml>
