<?xml version="1.0" encoding="UTF-8"?>
<kml xmlns="http://www.opengis.net/kml/2.2">
  <Document>
    <name>Автобусный маршрут №128 Харьков (м. Левада - Диканевка) kharkiv.inform.city  </name>
    <description>Подробно https://kharkiv.inform.city/-ru/-tr/tr_city/tr_city_a/</description>
    <Style id="icon-1499-000000-normal">
      <IconStyle>
        <color>ff000000</color>
        <scale>1</scale>
        <Icon>
          <href>https://www.gstatic.com/mapspro/images/stock/503-wht-blank_maps.png</href>
        </Icon>
      </IconStyle>
      <LabelStyle>
        <scale>0</scale>
      </LabelStyle>
    </Style>
    <Style id="icon-1499-000000-highlight">
      <IconStyle>
        <color>ff000000</color>
        <scale>1</scale>
        <Icon>
          <href>https://www.gstatic.com/mapspro/images/stock/503-wht-blank_maps.png</href>
        </Icon>
      </IconStyle>
      <LabelStyle>
        <scale>1</scale>
      </LabelStyle>
    </Style>
    <StyleMap id="icon-1499-000000">
      <Pair>
        <key>normal</key>
        <styleUrl>#icon-1499-000000-normal</styleUrl>
      </Pair>
      <Pair>
        <key>highlight</key>
        <styleUrl>#icon-1499-000000-highlight</styleUrl>
      </Pair>
    </StyleMap>
    <Style id="icon-1499-A52714-normal">
      <IconStyle>
        <color>ff1427a5</color>
        <scale>1</scale>
        <Icon>
          <href>https://www.gstatic.com/mapspro/images/stock/503-wht-blank_maps.png</href>
        </Icon>
      </IconStyle>
      <LabelStyle>
        <scale>0</scale>
      </LabelStyle>
    </Style>
    <Style id="icon-1499-A52714-highlight">
      <IconStyle>
        <color>ff1427a5</color>
        <scale>1</scale>
        <Icon>
          <href>https://www.gstatic.com/mapspro/images/stock/503-wht-blank_maps.png</href>
        </Icon>
      </IconStyle>
      <LabelStyle>
        <scale>1</scale>
      </LabelStyle>
    </Style>
    <StyleMap id="icon-1499-A52714">
      <Pair>
        <key>normal</key>
        <styleUrl>#icon-1499-A52714-normal</styleUrl>
      </Pair>
      <Pair>
        <key>highlight</key>
        <styleUrl>#icon-1499-A52714-highlight</styleUrl>
      </Pair>
    </StyleMap>
    <Style id="icon-1532-000000-normal">
      <IconStyle>
        <color>ff000000</color>
        <scale>1</scale>
        <Icon>
          <href>https://www.gstatic.com/mapspro/images/stock/503-wht-blank_maps.png</href>
        </Icon>
      </IconStyle>
      <LabelStyle>
        <scale>0</scale>
      </LabelStyle>
    </Style>
    <Style id="icon-1532-000000-highlight">
      <IconStyle>
        <color>ff000000</color>
        <scale>1</scale>
        <Icon>
          <href>https://www.gstatic.com/mapspro/images/stock/503-wht-blank_maps.png</href>
        </Icon>
      </IconStyle>
      <LabelStyle>
        <scale>1</scale>
      </LabelStyle>
    </Style>
    <StyleMap id="icon-1532-000000">
      <Pair>
        <key>normal</key>
        <styleUrl>#icon-1532-000000-normal</styleUrl>
      </Pair>
      <Pair>
        <key>highlight</key>
        <styleUrl>#icon-1532-000000-highlight</styleUrl>
      </Pair>
    </StyleMap>
    <Style id="icon-1532-A52714-normal">
      <IconStyle>
        <color>ff1427a5</color>
        <scale>1</scale>
        <Icon>
          <href>https://www.gstatic.com/mapspro/images/stock/503-wht-blank_maps.png</href>
        </Icon>
      </IconStyle>
      <LabelStyle>
        <scale>0</scale>
      </LabelStyle>
    </Style>
    <Style id="icon-1532-A52714-highlight">
      <IconStyle>
        <color>ff1427a5</color>
        <scale>1</scale>
        <Icon>
          <href>https://www.gstatic.com/mapspro/images/stock/503-wht-blank_maps.png</href>
        </Icon>
      </IconStyle>
      <LabelStyle>
        <scale>1</scale>
      </LabelStyle>
    </Style>
    <StyleMap id="icon-1532-A52714">
      <Pair>
        <key>normal</key>
        <styleUrl>#icon-1532-A52714-normal</styleUrl>
      </Pair>
      <Pair>
        <key>highlight</key>
        <styleUrl>#icon-1532-A52714-highlight</styleUrl>
      </Pair>
    </StyleMap>
    <Style id="icon-1565-000000-normal">
      <IconStyle>
        <color>ff000000</color>
        <scale>1</scale>
        <Icon>
          <href>https://www.gstatic.com/mapspro/images/stock/503-wht-blank_maps.png</href>
        </Icon>
      </IconStyle>
      <LabelStyle>
        <scale>0</scale>
      </LabelStyle>
    </Style>
    <Style id="icon-1565-000000-highlight">
      <IconStyle>
        <color>ff000000</color>
        <scale>1</scale>
        <Icon>
          <href>https://www.gstatic.com/mapspro/images/stock/503-wht-blank_maps.png</href>
        </Icon>
      </IconStyle>
      <LabelStyle>
        <scale>1</scale>
      </LabelStyle>
    </Style>
    <StyleMap id="icon-1565-000000">
      <Pair>
        <key>normal</key>
        <styleUrl>#icon-1565-000000-normal</styleUrl>
      </Pair>
      <Pair>
        <key>highlight</key>
        <styleUrl>#icon-1565-000000-highlight</styleUrl>
      </Pair>
    </StyleMap>
    <Style id="icon-1565-A52714-normal">
      <IconStyle>
        <color>ff1427a5</color>
        <scale>1</scale>
        <Icon>
          <href>https://www.gstatic.com/mapspro/images/stock/503-wht-blank_maps.png</href>
        </Icon>
      </IconStyle>
      <LabelStyle>
        <scale>0</scale>
      </LabelStyle>
    </Style>
    <Style id="icon-1565-A52714-highlight">
      <IconStyle>
        <color>ff1427a5</color>
        <scale>1</scale>
        <Icon>
          <href>https://www.gstatic.com/mapspro/images/stock/503-wht-blank_maps.png</href>
        </Icon>
      </IconStyle>
      <LabelStyle>
        <scale>1</scale>
      </LabelStyle>
    </Style>
    <StyleMap id="icon-1565-A52714">
      <Pair>
        <key>normal</key>
        <styleUrl>#icon-1565-A52714-normal</styleUrl>
      </Pair>
      <Pair>
        <key>highlight</key>
        <styleUrl>#icon-1565-A52714-highlight</styleUrl>
      </Pair>
    </StyleMap>
    <Style id="line-000000-5650-nodesc-normal">
      <LineStyle>
        <color>ff000000</color>
        <width>5.65</width>
      </LineStyle>
      <BalloonStyle>
        <text><![CDATA[<h3>$[name]</h3>]]></text>
      </BalloonStyle>
    </Style>
    <Style id="line-000000-5650-nodesc-highlight">
      <LineStyle>
        <color>ff000000</color>
        <width>8.475</width>
      </LineStyle>
      <BalloonStyle>
        <text><![CDATA[<h3>$[name]</h3>]]></text>
      </BalloonStyle>
    </Style>
    <StyleMap id="line-000000-5650-nodesc">
      <Pair>
        <key>normal</key>
        <styleUrl>#line-000000-5650-nodesc-normal</styleUrl>
      </Pair>
      <Pair>
        <key>highlight</key>
        <styleUrl>#line-000000-5650-nodesc-highlight</styleUrl>
      </Pair>
    </StyleMap>
    <Style id="line-A52714-5069-nodesc-normal">
      <LineStyle>
        <color>ff1427a5</color>
        <width>5.069</width>
      </LineStyle>
      <BalloonStyle>
        <text><![CDATA[<h3>$[name]</h3>]]></text>
      </BalloonStyle>
    </Style>
    <Style id="line-A52714-5069-nodesc-highlight">
      <LineStyle>
        <color>ff1427a5</color>
        <width>7.6035</width>
      </LineStyle>
      <BalloonStyle>
        <text><![CDATA[<h3>$[name]</h3>]]></text>
      </BalloonStyle>
    </Style>
    <StyleMap id="line-A52714-5069-nodesc">
      <Pair>
        <key>normal</key>
        <styleUrl>#line-A52714-5069-nodesc-normal</styleUrl>
      </Pair>
      <Pair>
        <key>highlight</key>
        <styleUrl>#line-A52714-5069-nodesc-highlight</styleUrl>
      </Pair>
    </StyleMap>
    <Folder>
      <name>Маршрут туда</name>
      <Placemark>
        <name>Линия маршрута</name>
        <styleUrl>#line-A52714-5069-nodesc</styleUrl>
        <LineString>
          <tessellate>1</tessellate>
          <coordinates>
            36.2428973,49.980957,0
            36.2452147,49.9800325,0
            36.2500213,49.9778799,0
            36.2492488,49.9771348,0
            36.2486909,49.976707,0
            36.2471245,49.9763482,0
            36.2432621,49.9756858,0
            36.2408374,49.9753684,0
            36.2368892,49.9750924,0
            36.2343464,49.9749061,0
            36.23646,49.973257,0
            36.2378655,49.9722289,0
            36.2394641,49.9710972,0
            36.2412451,49.9696481,0
            36.2420068,49.9690201,0
            36.2426613,49.9684404,0
            36.2429188,49.968123,0
            36.2430797,49.967847,0
            36.2430153,49.9675847,0
            36.2429509,49.9674398,0
            36.2425969,49.9668463,0
            36.2420712,49.9661493,0
            36.2418673,49.9658525,0
            36.241642,49.9653694,0
            36.2412129,49.9643756,0
            36.240494,49.9627745,0
            36.2393675,49.9601172,0
            36.2389813,49.9592683,0
            36.238756,49.9588334,0
            36.2385843,49.95844,0
            36.2381766,49.9574668,0
            36.2375436,49.955893,0
            36.2368677,49.9544227,0
            36.2365244,49.9536081,0
            36.2365136,49.9533596,0
            36.2366209,49.9533734,0
            36.2366639,49.9534977,0
            36.2366746,49.95376,0
          </coordinates>
        </LineString>
      </Placemark>
      <Placemark>
        <name>Станция метро Левада
</name>
        <description>Автобус-32, 68, 123. Троллейбус-3, 6, 49, 58, 59.</description>
        <styleUrl>#icon-1499-A52714</styleUrl>
        <Point>
          <coordinates>
            36.2425855,49.9811092,0
          </coordinates>
        </Point>
      </Placemark>
      <Placemark>
        <name>Станция Автовокзал
</name>
        <description>Автобус-32, 68, 123. Троллейбус-3, 6, 49, 58, 59.</description>
        <styleUrl>#icon-1532-A52714</styleUrl>
        <Point>
          <coordinates>
            36.2476924,49.9789291,0
          </coordinates>
        </Point>
      </Placemark>
      <Placemark>
        <name>Остановка ул. Александра Невского 
</name>
        <description>Автобус-128.</description>
        <styleUrl>#icon-1532-A52714</styleUrl>
        <Point>
          <coordinates>
            36.2463788,49.9762014,0
          </coordinates>
        </Point>
      </Placemark>
      <Placemark>
        <name>Остановка ул. Елизаветинская
</name>
        <description>Автобус-128.</description>
        <styleUrl>#icon-1532-A52714</styleUrl>
        <Point>
          <coordinates>
            36.241567,49.9754494,0
          </coordinates>
        </Point>
      </Placemark>
      <Placemark>
        <name>Остановка ул. Гольдберговская</name>
        <description>Автобус-128.</description>
        <styleUrl>#icon-1532-A52714</styleUrl>
        <Point>
          <coordinates>
            36.234561,49.9747042,0
          </coordinates>
        </Point>
      </Placemark>
      <Placemark>
        <name>Остановка ул. Основянская</name>
        <description>Автобус-128.</description>
        <styleUrl>#icon-1532-A52714</styleUrl>
        <Point>
          <coordinates>
            36.238874,49.9715439,0
          </coordinates>
        </Point>
      </Placemark>
      <Placemark>
        <name>Остановка ул. Грековская
</name>
        <description>Автобус-128.</description>
        <styleUrl>#icon-1532-A52714</styleUrl>
        <Point>
          <coordinates>
            36.2428223,49.9672447,0
          </coordinates>
        </Point>
      </Placemark>
      <Placemark>
        <name>Остановка ул. Текстильная
</name>
        <description>Автобус-128.</description>
        <styleUrl>#icon-1532-A52714</styleUrl>
        <Point>
          <coordinates>
            36.2417065,49.9656367,0
          </coordinates>
        </Point>
      </Placemark>
      <Placemark>
        <name>Остановка Шиферный завод
</name>
        <description>Автобус-128.</description>
        <styleUrl>#icon-1565-A52714</styleUrl>
        <Point>
          <coordinates>
            36.2409018,49.9637802,0
          </coordinates>
        </Point>
      </Placemark>
      <Placemark>
        <name>Остановка пер. Биологический
</name>
        <description>Автобус-128.</description>
        <styleUrl>#icon-1532-A52714</styleUrl>
        <Point>
          <coordinates>
            36.2391039,49.9596325,0
          </coordinates>
        </Point>
      </Placemark>
      <Placemark>
        <name>Остановка ул. Саратовская
</name>
        <description>Автобус-128.</description>
        <styleUrl>#icon-1532-A52714</styleUrl>
        <Point>
          <coordinates>
            36.237681,49.9564168,0
          </coordinates>
        </Point>
      </Placemark>
    </Folder>
    <Folder>
      <name>Маршрут обратно</name>
      <Placemark>
        <name>Линия маршрута</name>
        <styleUrl>#line-000000-5650-nodesc</styleUrl>
        <LineString>
          <tessellate>1</tessellate>
          <coordinates>
            36.2366746,49.95376,0
            36.236912,49.9541714,0
            36.2376523,49.9558418,0
            36.2379205,49.9565114,0
            36.2381029,49.9569601,0
            36.2388753,49.9588513,0
            36.2393045,49.9596106,0
            36.2402272,49.9617778,0
            36.2410211,49.9636482,0
            36.2419867,49.9658359,0
            36.2422335,49.9662017,0
            36.2426948,49.9667952,0
            36.2431347,49.9675267,0
            36.2432098,49.9678027,0
            36.243124,49.9679684,0
            36.2429845,49.9682375,0
            36.24071,49.9702111,0
            36.2363541,49.9734543,0
            36.2341117,49.9751517,0
            36.2326848,49.9763178,0
            36.2319982,49.9770009,0
            36.231687,49.9772699,0
            36.2307643,49.9774562,0
            36.2303137,49.977539,0
            36.2308394,49.9792501,0
            36.231054,49.9798227,0
            36.231054,49.9801953,0
            36.230818,49.9810715,0
            36.2307858,49.9814095,0
            36.2309682,49.9816372,0
            36.2311077,49.9819201,0
            36.2311291,49.9822995,0
            36.2310647,49.9826996,0
            36.2311506,49.9828307,0
            36.2316012,49.9827272,0
            36.2328028,49.9825203,0
            36.2336504,49.9824996,0
            36.2343263,49.9825617,0
            36.2354207,49.9827548,0
            36.2362575,49.9829756,0
            36.2371265,49.9832309,0
            36.2377059,49.9833205,0
            36.2380278,49.9832722,0
            36.2395513,49.9825824,0
            36.2428973,49.980957,0
          </coordinates>
        </LineString>
      </Placemark>
      <Placemark>
        <name>Остановка Диканевка 
</name>
        <description>Автобус-128.</description>
        <styleUrl>#icon-1499-000000</styleUrl>
        <Point>
          <coordinates>
            36.2367798,49.9536293,0
          </coordinates>
        </Point>
      </Placemark>
      <Placemark>
        <name>Остановка ул. Саратовская
</name>
        <description>Автобус-128.</description>
        <styleUrl>#icon-1532-000000</styleUrl>
        <Point>
          <coordinates>
            36.2378909,49.9561027,0
          </coordinates>
        </Point>
      </Placemark>
      <Placemark>
        <name>Остановка пер. Биологический
</name>
        <description>Автобус-128.</description>
        <styleUrl>#icon-1532-000000</styleUrl>
        <Point>
          <coordinates>
            36.2397324,49.9604019,0
          </coordinates>
        </Point>
      </Placemark>
      <Placemark>
        <name>Остановка Шиферный завод
</name>
        <description>Автобус-128.</description>
        <styleUrl>#icon-1565-000000</styleUrl>
        <Point>
          <coordinates>
            36.2413093,49.9639839,0
          </coordinates>
        </Point>
      </Placemark>
      <Placemark>
        <name>Остановка ул. Текстильная
</name>
        <description>Автобус-128.</description>
        <styleUrl>#icon-1532-000000</styleUrl>
        <Point>
          <coordinates>
            36.2417042,49.9650824,0
          </coordinates>
        </Point>
      </Placemark>
      <Placemark>
        <name>Остановка ул. Грековская
</name>
        <description>Автобус-128.</description>
        <styleUrl>#icon-1532-000000</styleUrl>
        <Point>
          <coordinates>
            36.2428338,49.9668632,0
          </coordinates>
        </Point>
      </Placemark>
      <Placemark>
        <name>Остановка ул. Основянская
</name>
        <description>Автобус-128.</description>
        <styleUrl>#icon-1532-000000</styleUrl>
        <Point>
          <coordinates>
            36.2392345,49.9714331,0
          </coordinates>
        </Point>
      </Placemark>
      <Placemark>
        <name>Остановка пер. Рыбасовский
</name>
        <description>Автобус-128.</description>
        <styleUrl>#icon-1532-000000</styleUrl>
        <Point>
          <coordinates>
            36.2305822,49.9775801,0
          </coordinates>
        </Point>
      </Placemark>
      <Placemark>
        <name>Остановка пер. Ващенковский
</name>
        <description>Автобус-128.</description>
        <styleUrl>#icon-1532-000000</styleUrl>
        <Point>
          <coordinates>
            36.2309991,49.9803258,0
          </coordinates>
        </Point>
      </Placemark>
      <Placemark>
        <name>Остановка  наб. Гимназическая 
</name>
        <description>Автобус-128.</description>
        <styleUrl>#icon-1532-000000</styleUrl>
        <Point>
          <coordinates>
            36.2316589,49.9824817,0
          </coordinates>
        </Point>
      </Placemark>
    </Folder>
  </Document>
</kml>
