<?xml version="1.0" encoding="UTF-8"?>
<kml xmlns="http://www.opengis.net/kml/2.2">
  <Document>
    <name>Автобусный маршрут №67 Харьков (м. Центральный рынок - м. Холодная гора) kharkiv.inform.city</name>
    <description>Подробно https://kharkiv.inform.city/-ru/-tr/tr_city/tr_city_a/</description>
    <Style id="icon-1499-000000-normal">
      <IconStyle>
        <color>ff000000</color>
        <scale>1</scale>
        <Icon>
          <href>https://www.gstatic.com/mapspro/images/stock/503-wht-blank_maps.png</href>
        </Icon>
      </IconStyle>
      <LabelStyle>
        <scale>0</scale>
      </LabelStyle>
    </Style>
    <Style id="icon-1499-000000-highlight">
      <IconStyle>
        <color>ff000000</color>
        <scale>1</scale>
        <Icon>
          <href>https://www.gstatic.com/mapspro/images/stock/503-wht-blank_maps.png</href>
        </Icon>
      </IconStyle>
      <LabelStyle>
        <scale>1</scale>
      </LabelStyle>
    </Style>
    <StyleMap id="icon-1499-000000">
      <Pair>
        <key>normal</key>
        <styleUrl>#icon-1499-000000-normal</styleUrl>
      </Pair>
      <Pair>
        <key>highlight</key>
        <styleUrl>#icon-1499-000000-highlight</styleUrl>
      </Pair>
    </StyleMap>
    <Style id="icon-1499-A52714-normal">
      <IconStyle>
        <color>ff1427a5</color>
        <scale>1</scale>
        <Icon>
          <href>https://www.gstatic.com/mapspro/images/stock/503-wht-blank_maps.png</href>
        </Icon>
      </IconStyle>
      <LabelStyle>
        <scale>0</scale>
      </LabelStyle>
    </Style>
    <Style id="icon-1499-A52714-highlight">
      <IconStyle>
        <color>ff1427a5</color>
        <scale>1</scale>
        <Icon>
          <href>https://www.gstatic.com/mapspro/images/stock/503-wht-blank_maps.png</href>
        </Icon>
      </IconStyle>
      <LabelStyle>
        <scale>1</scale>
      </LabelStyle>
    </Style>
    <StyleMap id="icon-1499-A52714">
      <Pair>
        <key>normal</key>
        <styleUrl>#icon-1499-A52714-normal</styleUrl>
      </Pair>
      <Pair>
        <key>highlight</key>
        <styleUrl>#icon-1499-A52714-highlight</styleUrl>
      </Pair>
    </StyleMap>
    <Style id="icon-1532-000000-normal">
      <IconStyle>
        <color>ff000000</color>
        <scale>1</scale>
        <Icon>
          <href>https://www.gstatic.com/mapspro/images/stock/503-wht-blank_maps.png</href>
        </Icon>
      </IconStyle>
      <LabelStyle>
        <scale>0</scale>
      </LabelStyle>
    </Style>
    <Style id="icon-1532-000000-highlight">
      <IconStyle>
        <color>ff000000</color>
        <scale>1</scale>
        <Icon>
          <href>https://www.gstatic.com/mapspro/images/stock/503-wht-blank_maps.png</href>
        </Icon>
      </IconStyle>
      <LabelStyle>
        <scale>1</scale>
      </LabelStyle>
    </Style>
    <StyleMap id="icon-1532-000000">
      <Pair>
        <key>normal</key>
        <styleUrl>#icon-1532-000000-normal</styleUrl>
      </Pair>
      <Pair>
        <key>highlight</key>
        <styleUrl>#icon-1532-000000-highlight</styleUrl>
      </Pair>
    </StyleMap>
    <Style id="icon-1532-A52714-normal">
      <IconStyle>
        <color>ff1427a5</color>
        <scale>1</scale>
        <Icon>
          <href>https://www.gstatic.com/mapspro/images/stock/503-wht-blank_maps.png</href>
        </Icon>
      </IconStyle>
      <LabelStyle>
        <scale>0</scale>
      </LabelStyle>
    </Style>
    <Style id="icon-1532-A52714-highlight">
      <IconStyle>
        <color>ff1427a5</color>
        <scale>1</scale>
        <Icon>
          <href>https://www.gstatic.com/mapspro/images/stock/503-wht-blank_maps.png</href>
        </Icon>
      </IconStyle>
      <LabelStyle>
        <scale>1</scale>
      </LabelStyle>
    </Style>
    <StyleMap id="icon-1532-A52714">
      <Pair>
        <key>normal</key>
        <styleUrl>#icon-1532-A52714-normal</styleUrl>
      </Pair>
      <Pair>
        <key>highlight</key>
        <styleUrl>#icon-1532-A52714-highlight</styleUrl>
      </Pair>
    </StyleMap>
    <Style id="icon-1626-A52714-nodesc-normal">
      <IconStyle>
        <color>ff1427a5</color>
        <scale>1</scale>
        <Icon>
          <href>https://www.gstatic.com/mapspro/images/stock/503-wht-blank_maps.png</href>
        </Icon>
      </IconStyle>
      <LabelStyle>
        <scale>0</scale>
      </LabelStyle>
      <BalloonStyle>
        <text><![CDATA[<h3>$[name]</h3>]]></text>
      </BalloonStyle>
    </Style>
    <Style id="icon-1626-A52714-nodesc-highlight">
      <IconStyle>
        <color>ff1427a5</color>
        <scale>1</scale>
        <Icon>
          <href>https://www.gstatic.com/mapspro/images/stock/503-wht-blank_maps.png</href>
        </Icon>
      </IconStyle>
      <LabelStyle>
        <scale>1</scale>
      </LabelStyle>
      <BalloonStyle>
        <text><![CDATA[<h3>$[name]</h3>]]></text>
      </BalloonStyle>
    </Style>
    <StyleMap id="icon-1626-A52714-nodesc">
      <Pair>
        <key>normal</key>
        <styleUrl>#icon-1626-A52714-nodesc-normal</styleUrl>
      </Pair>
      <Pair>
        <key>highlight</key>
        <styleUrl>#icon-1626-A52714-nodesc-highlight</styleUrl>
      </Pair>
    </StyleMap>
    <Style id="icon-1769-000000-normal">
      <IconStyle>
        <color>ff000000</color>
        <scale>1</scale>
        <Icon>
          <href>https://www.gstatic.com/mapspro/images/stock/503-wht-blank_maps.png</href>
        </Icon>
      </IconStyle>
      <LabelStyle>
        <scale>0</scale>
      </LabelStyle>
    </Style>
    <Style id="icon-1769-000000-highlight">
      <IconStyle>
        <color>ff000000</color>
        <scale>1</scale>
        <Icon>
          <href>https://www.gstatic.com/mapspro/images/stock/503-wht-blank_maps.png</href>
        </Icon>
      </IconStyle>
      <LabelStyle>
        <scale>1</scale>
      </LabelStyle>
    </Style>
    <StyleMap id="icon-1769-000000">
      <Pair>
        <key>normal</key>
        <styleUrl>#icon-1769-000000-normal</styleUrl>
      </Pair>
      <Pair>
        <key>highlight</key>
        <styleUrl>#icon-1769-000000-highlight</styleUrl>
      </Pair>
    </StyleMap>
    <Style id="icon-1769-A52714-normal">
      <IconStyle>
        <color>ff1427a5</color>
        <scale>1</scale>
        <Icon>
          <href>https://www.gstatic.com/mapspro/images/stock/503-wht-blank_maps.png</href>
        </Icon>
      </IconStyle>
      <LabelStyle>
        <scale>0</scale>
      </LabelStyle>
    </Style>
    <Style id="icon-1769-A52714-highlight">
      <IconStyle>
        <color>ff1427a5</color>
        <scale>1</scale>
        <Icon>
          <href>https://www.gstatic.com/mapspro/images/stock/503-wht-blank_maps.png</href>
        </Icon>
      </IconStyle>
      <LabelStyle>
        <scale>1</scale>
      </LabelStyle>
    </Style>
    <StyleMap id="icon-1769-A52714">
      <Pair>
        <key>normal</key>
        <styleUrl>#icon-1769-A52714-normal</styleUrl>
      </Pair>
      <Pair>
        <key>highlight</key>
        <styleUrl>#icon-1769-A52714-highlight</styleUrl>
      </Pair>
    </StyleMap>
    <Style id="line-000000-5263-nodesc-normal">
      <LineStyle>
        <color>ff000000</color>
        <width>5.263</width>
      </LineStyle>
      <BalloonStyle>
        <text><![CDATA[<h3>$[name]</h3>]]></text>
      </BalloonStyle>
    </Style>
    <Style id="line-000000-5263-nodesc-highlight">
      <LineStyle>
        <color>ff000000</color>
        <width>7.8945</width>
      </LineStyle>
      <BalloonStyle>
        <text><![CDATA[<h3>$[name]</h3>]]></text>
      </BalloonStyle>
    </Style>
    <StyleMap id="line-000000-5263-nodesc">
      <Pair>
        <key>normal</key>
        <styleUrl>#line-000000-5263-nodesc-normal</styleUrl>
      </Pair>
      <Pair>
        <key>highlight</key>
        <styleUrl>#line-000000-5263-nodesc-highlight</styleUrl>
      </Pair>
    </StyleMap>
    <Style id="line-A52714-5263-nodesc-normal">
      <LineStyle>
        <color>ff1427a5</color>
        <width>5.263</width>
      </LineStyle>
      <BalloonStyle>
        <text><![CDATA[<h3>$[name]</h3>]]></text>
      </BalloonStyle>
    </Style>
    <Style id="line-A52714-5263-nodesc-highlight">
      <LineStyle>
        <color>ff1427a5</color>
        <width>7.8945</width>
      </LineStyle>
      <BalloonStyle>
        <text><![CDATA[<h3>$[name]</h3>]]></text>
      </BalloonStyle>
    </Style>
    <StyleMap id="line-A52714-5263-nodesc">
      <Pair>
        <key>normal</key>
        <styleUrl>#line-A52714-5263-nodesc-normal</styleUrl>
      </Pair>
      <Pair>
        <key>highlight</key>
        <styleUrl>#line-A52714-5263-nodesc-highlight</styleUrl>
      </Pair>
    </StyleMap>
    <Folder>
      <name>Маршрут туда</name>
      <Placemark>
        <name>Линия маршрута</name>
        <styleUrl>#line-A52714-5263-nodesc</styleUrl>
        <LineString>
          <tessellate>1</tessellate>
          <coordinates>
            36.2183681,49.9925317,0
            36.2164691,49.992242,0
            36.2154177,49.9923248,0
            36.214892,49.9924006,0
            36.2111476,49.9935042,0
            36.2111154,49.9933456,0
            36.2116518,49.9908556,0
            36.2123814,49.987448,0
            36.2122849,49.9872204,0
            36.2124136,49.9862822,0
            36.2126282,49.9853302,0
            36.2140658,49.9841506,0
            36.2145594,49.9837229,0
            36.2133577,49.9831917,0
            36.2126818,49.9828467,0
            36.2122312,49.982626,0
            36.2121239,49.9824604,0
            36.2121132,49.9822258,0
            36.2121454,49.9820602,0
            36.2120381,49.9818947,0
            36.2106755,49.9811082,0
            36.2100962,49.9807908,0
            36.2095383,49.9805218,0
            36.2091091,49.9803355,0
            36.2072638,49.9798318,0
            36.2053433,49.9793972,0
            36.2043777,49.9791902,0
            36.2033799,49.978928,0
            36.2027147,49.9785969,0
            36.2008372,49.9774101,0
            36.2005046,49.9772445,0
            36.2001505,49.97721,0
            36.2000647,49.9763131,0
            36.1999789,49.9747882,0
            36.199893,49.9732219,0
            36.1996463,49.9706688,0
            36.1992922,49.9703996,0
            36.1991206,49.9701305,0
            36.1979833,49.9667974,0
            36.1971679,49.9642439,0
            36.1954513,49.964444,0
            36.1953977,49.9637263,0
            36.1911705,49.9640092,0
            36.1875763,49.9642853,0
            36.1858597,49.9644233,0
            36.1851945,49.9644716,0
            36.1847654,49.9646442,0
            36.179283,49.9681293,0
            36.1745515,49.9711035,0
            36.1725452,49.9724077,0
            36.174927,49.9739809,0
            36.1780599,49.9760371,0
            36.1806348,49.9777482,0
            36.1780277,49.9794248,0
            36.1778775,49.9796249,0
            36.1776093,49.9808529,0
            36.1774698,49.9810461,0
            36.1813,49.9823155,0
            36.1814716,49.9823086,0
            36.1828664,49.982688,0
            36.1836925,49.9829502,0
            36.1837354,49.9830951,0
            36.1838856,49.9831434,0
          </coordinates>
        </LineString>
      </Placemark>
      <Placemark>
        <name>Станция метро Центральный рынок</name>
        <description>Автобус-67.</description>
        <styleUrl>#icon-1499-A52714</styleUrl>
        <Point>
          <coordinates>
            36.2182603,49.9923903,0
          </coordinates>
        </Point>
      </Placemark>
      <Placemark>
        <name>Остановка ул. Славянская</name>
        <description>Автобус-67э, 238э. Троллейбус-11. </description>
        <styleUrl>#icon-1532-A52714</styleUrl>
        <Point>
          <coordinates>
            36.2115655,49.9905845,0
          </coordinates>
        </Point>
      </Placemark>
      <Placemark>
        <name>Остановка ул. Конева</name>
        <description>Автобус- 58, 67. Маршрутка -258э. Троллейбус-11. </description>
        <styleUrl>#icon-1532-A52714</styleUrl>
        <Point>
          <coordinates>
            36.2123165,49.9855006,0
          </coordinates>
        </Point>
      </Placemark>
      <Placemark>
        <name>Остановка ул. Полтавский шлях
</name>
        <description>Автобус-67.</description>
        <styleUrl>#icon-1532-A52714</styleUrl>
        <Point>
          <coordinates>
            36.2123491,49.9865276,0
          </coordinates>
        </Point>
      </Placemark>
      <Placemark>
        <name>Остановка ул. Большая Гончаровская</name>
        <description>Автобус-67. Троллейбус- 11.</description>
        <styleUrl>#icon-1532-A52714</styleUrl>
        <Point>
          <coordinates>
            36.2111924,49.9815909,0
          </coordinates>
        </Point>
      </Placemark>
      <Placemark>
        <name>Остановка ул. Семинарская
</name>
        <description>Автобус-67. Троллейбус- 11.</description>
        <styleUrl>#icon-1532-A52714</styleUrl>
        <Point>
          <coordinates>
            36.2000086,49.9766018,0
          </coordinates>
        </Point>
      </Placemark>
      <Placemark>
        <name>Остановка по требованию
</name>
        <description>Автобус- 67.</description>
        <styleUrl>#icon-1769-A52714</styleUrl>
        <Point>
          <coordinates>
            36.1989465,49.9699064,0
          </coordinates>
        </Point>
      </Placemark>
      <Placemark>
        <name>Остановка ул. Валерия Романовского
</name>
        <description>Автобус-67.</description>
        <styleUrl>#icon-1532-A52714</styleUrl>
        <Point>
          <coordinates>
            36.1980493,49.9670365,0
          </coordinates>
        </Point>
      </Placemark>
      <Placemark>
        <name>Остановка ул. Григорьевская</name>
        <description>Автобус-67.</description>
        <styleUrl>#icon-1532-A52714</styleUrl>
        <Point>
          <coordinates>
            36.1948627,49.9638068,0
          </coordinates>
        </Point>
      </Placemark>
      <Placemark>
        <name>Остановка ул. Исполкомовская</name>
        <description>Автобус-67.</description>
        <styleUrl>#icon-1532-A52714</styleUrl>
        <Point>
          <coordinates>
            36.1888331,49.9642243,0
          </coordinates>
        </Point>
      </Placemark>
      <Placemark>
        <name>Остановка ул. Добролюбова</name>
        <description>Автобус-67э.</description>
        <styleUrl>#icon-1532-A52714</styleUrl>
        <Point>
          <coordinates>
            36.1756689,49.9705795,0
          </coordinates>
        </Point>
      </Placemark>
      <Placemark>
        <name>Остановка бул. Профсоюзный
</name>
        <description>Автобус- 67.</description>
        <styleUrl>#icon-1532-A52714</styleUrl>
        <Point>
          <coordinates>
            36.181423,49.9668271,0
          </coordinates>
        </Point>
      </Placemark>
      <Placemark>
        <name>Остановка ул. Менделеева
</name>
        <description>Автобус- 67.</description>
        <styleUrl>#icon-1532-A52714</styleUrl>
        <Point>
          <coordinates>
            36.1782215,49.9688647,0
          </coordinates>
        </Point>
      </Placemark>
      <Placemark>
        <name>Остановка ш. Григоровское</name>
        <description>Автобус-67.</description>
        <styleUrl>#icon-1532-A52714</styleUrl>
        <Point>
          <coordinates>
            36.1731018,49.9721478,0
          </coordinates>
        </Point>
      </Placemark>
      <Placemark>
        <name>Остановка по требованию</name>
        <description>Автобус-67.</description>
        <styleUrl>#icon-1769-A52714</styleUrl>
        <Point>
          <coordinates>
            36.1745547,49.9736999,0
          </coordinates>
        </Point>
      </Placemark>
      <Placemark>
        <name>Остановка ул. Комбайновская</name>
        <description>Автобус-67.</description>
        <styleUrl>#icon-1532-A52714</styleUrl>
        <Point>
          <coordinates>
            36.1777342,49.9757839,0
          </coordinates>
        </Point>
      </Placemark>
      <Placemark>
        <name>Остановка ш. Григоровское</name>
        <description>Автобус-22, 57, 67, 273.  Маршрутка -75э, 209э, 220э, 237э. Троллейбус-27. </description>
        <styleUrl>#icon-1532-A52714</styleUrl>
        <Point>
          <coordinates>
            36.180018,49.9782919,0
          </coordinates>
        </Point>
      </Placemark>
      <Placemark>
        <name>Станция метро Холодная гора
</name>
        <styleUrl>#icon-1626-A52714-nodesc</styleUrl>
        <Point>
          <coordinates>
            36.1824688,49.9823864,0
          </coordinates>
        </Point>
      </Placemark>
    </Folder>
    <Folder>
      <name>Маршрут обратно</name>
      <Placemark>
        <name>Линия маршрута</name>
        <styleUrl>#line-000000-5263-nodesc</styleUrl>
        <LineString>
          <tessellate>1</tessellate>
          <coordinates>
            36.1838856,49.9831434,0
            36.1884492,49.984619,0
            36.189286,49.9835911,0
            36.1877411,49.9825287,0
            36.1807459,49.9779407,0
            36.1779993,49.9761192,0
            36.1723452,49.9723794,0
            36.1732786,49.9718342,0
            36.1775272,49.9691292,0
            36.1795335,49.9678594,0
            36.1837392,49.9651956,0
            36.1841576,49.9649402,0
            36.1847692,49.9645468,0
            36.1850481,49.9644157,0
            36.1854666,49.9643674,0
            36.1890822,49.9640844,0
            36.1947577,49.9637049,0
            36.1955302,49.9636427,0
            36.1955731,49.9643743,0
            36.1972897,49.9641673,0
            36.1976974,49.9654647,0
            36.1989527,49.9691499,0
            36.1992531,49.9701919,0
            36.1997359,49.9705852,0
            36.1999398,49.9722137,0
            36.2001329,49.9748427,0
            36.2003153,49.9770851,0
            36.2007015,49.9771748,0
            36.2017744,49.9778372,0
            36.2028258,49.978534,0
            36.2034374,49.9788307,0
            36.2042528,49.9790584,0
            36.2055724,49.9793137,0
            36.2071495,49.9796793,0
            36.2086301,49.9800726,0
            36.2097137,49.980459,0
            36.2109368,49.9811144,0
            36.2118917,49.9816801,0
            36.2122672,49.9819698,0
            36.2122565,49.9822044,0
            36.2122672,49.9823769,0
            36.2122994,49.9825563,0
            36.2138014,49.9832737,0
            36.2148421,49.9838118,0
            36.213383,49.9848811,0
            36.2129109,49.985295,0
            36.2127929,49.9858193,0
            36.2125032,49.987261,0
            36.2141555,49.987399,0
            36.2161725,49.9875784,0
            36.2156468,49.9903858,0
            36.2154,49.992262,0
            36.2165158,49.9921654,0
            36.2188654,49.992062,0
            36.2187689,49.9926069,0
            36.2183681,49.9925317,0
          </coordinates>
        </LineString>
      </Placemark>
      <Placemark>
        <name>Станция метро Холодная гора 
</name>
        <description>Автобус -57, 58, 67, 109. Маршрутка - 258э.</description>
        <styleUrl>#icon-1499-000000</styleUrl>
        <Point>
          <coordinates>
            36.1831626,49.9827424,0
          </coordinates>
        </Point>
      </Placemark>
      <Placemark>
        <name>Остановка ш. Григоровское
</name>
        <description>Автобус- 67. </description>
        <styleUrl>#icon-1532-000000</styleUrl>
        <Point>
          <coordinates>
            36.1800682,49.9775453,0
          </coordinates>
        </Point>
      </Placemark>
      <Placemark>
        <name>Остановка ул. Комбайновая
</name>
        <description>Автобус- 67.</description>
        <styleUrl>#icon-1532-000000</styleUrl>
        <Point>
          <coordinates>
            36.1771948,49.9755652,0
          </coordinates>
        </Point>
      </Placemark>
      <Placemark>
        <name>Остановка По требованию
</name>
        <description>Автобус- 67.</description>
        <styleUrl>#icon-1769-000000</styleUrl>
        <Point>
          <coordinates>
            36.1745817,49.973866,0
          </coordinates>
        </Point>
      </Placemark>
      <Placemark>
        <name>Остановка ш. Григоровское 
</name>
        <description>Автобус- 67.</description>
        <styleUrl>#icon-1532-000000</styleUrl>
        <Point>
          <coordinates>
            36.172825,49.9720063,0
          </coordinates>
        </Point>
      </Placemark>
      <Placemark>
        <name>Остановка ул. Добролюбова
</name>
        <description>Автобус- 67.</description>
        <styleUrl>#icon-1532-000000</styleUrl>
        <Point>
          <coordinates>
            36.1757293,49.9702486,0
          </coordinates>
        </Point>
      </Placemark>
      <Placemark>
        <name>Остановка ул. Менделеева 
</name>
        <description>Автобус- 67.</description>
        <styleUrl>#icon-1532-000000</styleUrl>
        <Point>
          <coordinates>
            36.1782783,49.9685273,0
          </coordinates>
        </Point>
      </Placemark>
      <Placemark>
        <name>Остановка Новоселовка</name>
        <description>Автобус-67.</description>
        <styleUrl>#icon-1532-000000</styleUrl>
        <Point>
          <coordinates>
            36.1826587,49.9657654,0
          </coordinates>
        </Point>
      </Placemark>
      <Placemark>
        <name>Остановка ул. Исполкомовская
</name>
        <description>Автобус- 67.</description>
        <styleUrl>#icon-1532-000000</styleUrl>
        <Point>
          <coordinates>
            36.189601,49.9640593,0
          </coordinates>
        </Point>
      </Placemark>
      <Placemark>
        <name>Остановка ул. Григорьевская
</name>
        <description>Автобус- 67.</description>
        <styleUrl>#icon-1532-000000</styleUrl>
        <Point>
          <coordinates>
            36.1955597,49.964107,0
          </coordinates>
        </Point>
      </Placemark>
      <Placemark>
        <name>Остановка ул. Валерия Романовского 
</name>
        <description>Автобус- 67.</description>
        <styleUrl>#icon-1532-000000</styleUrl>
        <Point>
          <coordinates>
            36.1980397,49.9664676,0
          </coordinates>
        </Point>
      </Placemark>
      <Placemark>
        <name>Остановка По требованию
</name>
        <description>Автобус- 67.</description>
        <styleUrl>#icon-1769-000000</styleUrl>
        <Point>
          <coordinates>
            36.1998017,49.9708118,0
          </coordinates>
        </Point>
      </Placemark>
      <Placemark>
        <name>Остановка ул. Семинарская
</name>
        <description>Автобус- 67. Троллейбус- 11.</description>
        <styleUrl>#icon-1532-000000</styleUrl>
        <Point>
          <coordinates>
            36.2002734,49.9756446,0
          </coordinates>
        </Point>
      </Placemark>
      <Placemark>
        <name>Остановка ул. Большая Гончаровская
</name>
        <description>Автобус-67. Троллейбус- 11.</description>
        <styleUrl>#icon-1532-000000</styleUrl>
        <Point>
          <coordinates>
            36.2107044,49.9808722,0
          </coordinates>
        </Point>
      </Placemark>
      <Placemark>
        <name>Остановка ул. Полтавский шлях
</name>
        <description>Автобус-67.</description>
        <styleUrl>#icon-1532-000000</styleUrl>
        <Point>
          <coordinates>
            36.2127139,49.9867759,0
          </coordinates>
        </Point>
      </Placemark>
      <Placemark>
        <name>Остановка ул. Дмитриевская
</name>
        <description>Автобус-67.</description>
        <styleUrl>#icon-1532-000000</styleUrl>
        <Point>
          <coordinates>
            36.2158254,49.9875004,0
          </coordinates>
        </Point>
      </Placemark>
    </Folder>
  </Document>
</kml>
