<?xml version="1.0" encoding="UTF-8"?>
<kml xmlns="http://www.opengis.net/kml/2.2">
  <Document>
    <name>Автобусный маршрут №206 Харьков  (м. Салтовская - Северная Салтовка ) kharkiv.inform.city</name>
    <description>Подробно https://kharkiv.inform.city/-ru/-tr/tr_city/tr_city_a/</description>
    <Style id="icon-1499-000000-normal">
      <IconStyle>
        <color>ff000000</color>
        <scale>1</scale>
        <Icon>
          <href>https://www.gstatic.com/mapspro/images/stock/503-wht-blank_maps.png</href>
        </Icon>
      </IconStyle>
      <LabelStyle>
        <scale>0</scale>
      </LabelStyle>
    </Style>
    <Style id="icon-1499-000000-highlight">
      <IconStyle>
        <color>ff000000</color>
        <scale>1</scale>
        <Icon>
          <href>https://www.gstatic.com/mapspro/images/stock/503-wht-blank_maps.png</href>
        </Icon>
      </IconStyle>
      <LabelStyle>
        <scale>1</scale>
      </LabelStyle>
    </Style>
    <StyleMap id="icon-1499-000000">
      <Pair>
        <key>normal</key>
        <styleUrl>#icon-1499-000000-normal</styleUrl>
      </Pair>
      <Pair>
        <key>highlight</key>
        <styleUrl>#icon-1499-000000-highlight</styleUrl>
      </Pair>
    </StyleMap>
    <Style id="icon-1499-A52714-normal">
      <IconStyle>
        <color>ff1427a5</color>
        <scale>1</scale>
        <Icon>
          <href>https://www.gstatic.com/mapspro/images/stock/503-wht-blank_maps.png</href>
        </Icon>
      </IconStyle>
      <LabelStyle>
        <scale>0</scale>
      </LabelStyle>
    </Style>
    <Style id="icon-1499-A52714-highlight">
      <IconStyle>
        <color>ff1427a5</color>
        <scale>1</scale>
        <Icon>
          <href>https://www.gstatic.com/mapspro/images/stock/503-wht-blank_maps.png</href>
        </Icon>
      </IconStyle>
      <LabelStyle>
        <scale>1</scale>
      </LabelStyle>
    </Style>
    <StyleMap id="icon-1499-A52714">
      <Pair>
        <key>normal</key>
        <styleUrl>#icon-1499-A52714-normal</styleUrl>
      </Pair>
      <Pair>
        <key>highlight</key>
        <styleUrl>#icon-1499-A52714-highlight</styleUrl>
      </Pair>
    </StyleMap>
    <Style id="icon-1532-000000-normal">
      <IconStyle>
        <color>ff000000</color>
        <scale>1</scale>
        <Icon>
          <href>https://www.gstatic.com/mapspro/images/stock/503-wht-blank_maps.png</href>
        </Icon>
      </IconStyle>
      <LabelStyle>
        <scale>0</scale>
      </LabelStyle>
    </Style>
    <Style id="icon-1532-000000-highlight">
      <IconStyle>
        <color>ff000000</color>
        <scale>1</scale>
        <Icon>
          <href>https://www.gstatic.com/mapspro/images/stock/503-wht-blank_maps.png</href>
        </Icon>
      </IconStyle>
      <LabelStyle>
        <scale>1</scale>
      </LabelStyle>
    </Style>
    <StyleMap id="icon-1532-000000">
      <Pair>
        <key>normal</key>
        <styleUrl>#icon-1532-000000-normal</styleUrl>
      </Pair>
      <Pair>
        <key>highlight</key>
        <styleUrl>#icon-1532-000000-highlight</styleUrl>
      </Pair>
    </StyleMap>
    <Style id="icon-1532-A52714-normal">
      <IconStyle>
        <color>ff1427a5</color>
        <scale>1</scale>
        <Icon>
          <href>https://www.gstatic.com/mapspro/images/stock/503-wht-blank_maps.png</href>
        </Icon>
      </IconStyle>
      <LabelStyle>
        <scale>0</scale>
      </LabelStyle>
    </Style>
    <Style id="icon-1532-A52714-highlight">
      <IconStyle>
        <color>ff1427a5</color>
        <scale>1</scale>
        <Icon>
          <href>https://www.gstatic.com/mapspro/images/stock/503-wht-blank_maps.png</href>
        </Icon>
      </IconStyle>
      <LabelStyle>
        <scale>1</scale>
      </LabelStyle>
    </Style>
    <StyleMap id="icon-1532-A52714">
      <Pair>
        <key>normal</key>
        <styleUrl>#icon-1532-A52714-normal</styleUrl>
      </Pair>
      <Pair>
        <key>highlight</key>
        <styleUrl>#icon-1532-A52714-highlight</styleUrl>
      </Pair>
    </StyleMap>
    <Style id="icon-1546-000000-normal">
      <IconStyle>
        <color>ff000000</color>
        <scale>1</scale>
        <Icon>
          <href>https://www.gstatic.com/mapspro/images/stock/503-wht-blank_maps.png</href>
        </Icon>
      </IconStyle>
      <LabelStyle>
        <scale>0</scale>
      </LabelStyle>
    </Style>
    <Style id="icon-1546-000000-highlight">
      <IconStyle>
        <color>ff000000</color>
        <scale>1</scale>
        <Icon>
          <href>https://www.gstatic.com/mapspro/images/stock/503-wht-blank_maps.png</href>
        </Icon>
      </IconStyle>
      <LabelStyle>
        <scale>1</scale>
      </LabelStyle>
    </Style>
    <StyleMap id="icon-1546-000000">
      <Pair>
        <key>normal</key>
        <styleUrl>#icon-1546-000000-normal</styleUrl>
      </Pair>
      <Pair>
        <key>highlight</key>
        <styleUrl>#icon-1546-000000-highlight</styleUrl>
      </Pair>
    </StyleMap>
    <Style id="icon-1546-A52714-normal">
      <IconStyle>
        <color>ff1427a5</color>
        <scale>1</scale>
        <Icon>
          <href>https://www.gstatic.com/mapspro/images/stock/503-wht-blank_maps.png</href>
        </Icon>
      </IconStyle>
      <LabelStyle>
        <scale>0</scale>
      </LabelStyle>
    </Style>
    <Style id="icon-1546-A52714-highlight">
      <IconStyle>
        <color>ff1427a5</color>
        <scale>1</scale>
        <Icon>
          <href>https://www.gstatic.com/mapspro/images/stock/503-wht-blank_maps.png</href>
        </Icon>
      </IconStyle>
      <LabelStyle>
        <scale>1</scale>
      </LabelStyle>
    </Style>
    <StyleMap id="icon-1546-A52714">
      <Pair>
        <key>normal</key>
        <styleUrl>#icon-1546-A52714-normal</styleUrl>
      </Pair>
      <Pair>
        <key>highlight</key>
        <styleUrl>#icon-1546-A52714-highlight</styleUrl>
      </Pair>
    </StyleMap>
    <Style id="icon-1626-000000-normal">
      <IconStyle>
        <color>ff000000</color>
        <scale>1</scale>
        <Icon>
          <href>https://www.gstatic.com/mapspro/images/stock/503-wht-blank_maps.png</href>
        </Icon>
      </IconStyle>
      <LabelStyle>
        <scale>0</scale>
      </LabelStyle>
    </Style>
    <Style id="icon-1626-000000-highlight">
      <IconStyle>
        <color>ff000000</color>
        <scale>1</scale>
        <Icon>
          <href>https://www.gstatic.com/mapspro/images/stock/503-wht-blank_maps.png</href>
        </Icon>
      </IconStyle>
      <LabelStyle>
        <scale>1</scale>
      </LabelStyle>
    </Style>
    <StyleMap id="icon-1626-000000">
      <Pair>
        <key>normal</key>
        <styleUrl>#icon-1626-000000-normal</styleUrl>
      </Pair>
      <Pair>
        <key>highlight</key>
        <styleUrl>#icon-1626-000000-highlight</styleUrl>
      </Pair>
    </StyleMap>
    <Style id="line-000000-4875-nodesc-normal">
      <LineStyle>
        <color>ff000000</color>
        <width>4.875</width>
      </LineStyle>
      <BalloonStyle>
        <text><![CDATA[<h3>$[name]</h3>]]></text>
      </BalloonStyle>
    </Style>
    <Style id="line-000000-4875-nodesc-highlight">
      <LineStyle>
        <color>ff000000</color>
        <width>7.3125</width>
      </LineStyle>
      <BalloonStyle>
        <text><![CDATA[<h3>$[name]</h3>]]></text>
      </BalloonStyle>
    </Style>
    <StyleMap id="line-000000-4875-nodesc">
      <Pair>
        <key>normal</key>
        <styleUrl>#line-000000-4875-nodesc-normal</styleUrl>
      </Pair>
      <Pair>
        <key>highlight</key>
        <styleUrl>#line-000000-4875-nodesc-highlight</styleUrl>
      </Pair>
    </StyleMap>
    <Style id="line-A52714-5069-nodesc-normal">
      <LineStyle>
        <color>ff1427a5</color>
        <width>5.069</width>
      </LineStyle>
      <BalloonStyle>
        <text><![CDATA[<h3>$[name]</h3>]]></text>
      </BalloonStyle>
    </Style>
    <Style id="line-A52714-5069-nodesc-highlight">
      <LineStyle>
        <color>ff1427a5</color>
        <width>7.6035</width>
      </LineStyle>
      <BalloonStyle>
        <text><![CDATA[<h3>$[name]</h3>]]></text>
      </BalloonStyle>
    </Style>
    <StyleMap id="line-A52714-5069-nodesc">
      <Pair>
        <key>normal</key>
        <styleUrl>#line-A52714-5069-nodesc-normal</styleUrl>
      </Pair>
      <Pair>
        <key>highlight</key>
        <styleUrl>#line-A52714-5069-nodesc-highlight</styleUrl>
      </Pair>
    </StyleMap>
    <Folder>
      <name>Маршрут туда</name>
      <Placemark>
        <name>Линия маршрута</name>
        <styleUrl>#line-A52714-5069-nodesc</styleUrl>
        <LineString>
          <tessellate>1</tessellate>
          <coordinates>
            36.3369028,50.0263709,0
            36.3373641,50.0262158,0
            36.3384853,50.027615,0
            36.3403253,50.0298412,0
            36.3417415,50.0315711,0
            36.3429216,50.0330252,0
            36.3440589,50.0343691,0
            36.3459686,50.0366363,0
            36.3462476,50.0365639,0
            36.3488386,50.0359472,0
            36.349772,50.0357404,0
            36.3533071,50.0349617,0
            36.3547287,50.0346275,0
            36.3585482,50.033766,0
            36.358913,50.0337281,0
            36.3605384,50.0354441,0
            36.3624213,50.0375701,0
            36.3639609,50.0393065,0
            36.3652431,50.0407758,0
            36.364995,50.040895,0
            36.3647576,50.0408971,0
            36.3644565,50.0407707,0
            36.3643379,50.0406787,0
          </coordinates>
        </LineString>
      </Placemark>
      <Placemark>
        <name>Станция метро Салтовская
</name>
        <description>Автобус -41э.</description>
        <styleUrl>#icon-1499-A52714</styleUrl>
        <Point>
          <coordinates>
            36.3363087,50.0262558,0
          </coordinates>
        </Point>
      </Placemark>
      <Placemark>
        <name>Остановка ул. Бучмы
</name>
        <description>Автобус -41.</description>
        <styleUrl>#icon-1532-A52714</styleUrl>
        <Point>
          <coordinates>
            36.341657,50.031434,0
          </coordinates>
        </Point>
      </Placemark>
      <Placemark>
        <name>Остановка ул. Леся Сердюка
</name>
        <description>Автобус- 48, 206.</description>
        <styleUrl>#icon-1532-A52714</styleUrl>
        <Point>
          <coordinates>
            36.3468564,50.0363361,0
          </coordinates>
        </Point>
      </Placemark>
      <Placemark>
        <name>Остановка ул. Сатиричная
</name>
        <description>Автобус -41.</description>
        <styleUrl>#icon-1532-A52714</styleUrl>
        <Point>
          <coordinates>
            36.3435632,50.0337322,0
          </coordinates>
        </Point>
      </Placemark>
      <Placemark>
        <name>Остановка м/н Северная-2
</name>
        <description>Автобус- 48, 206.</description>
        <styleUrl>#icon-1546-A52714</styleUrl>
        <Point>
          <coordinates>
            36.3508149,50.0354497,0
          </coordinates>
        </Point>
      </Placemark>
      <Placemark>
        <name>Остановка ул. Соборности Украины
</name>
        <description>Автобус- 48, 206.</description>
        <styleUrl>#icon-1532-A52714</styleUrl>
        <Point>
          <coordinates>
            36.3537117,50.0347881,0
          </coordinates>
        </Point>
      </Placemark>
      <Placemark>
        <name>Остановка ул. Соборности Украины
</name>
        <description>Автобус- 107, 204, 206. Троллейбус - 31, 35.</description>
        <styleUrl>#icon-1532-A52714</styleUrl>
        <Point>
          <coordinates>
            36.3603805,50.0350626,0
          </coordinates>
        </Point>
      </Placemark>
      <Placemark>
        <name>Остановка ул. Метростроителей
</name>
        <description>Автобус- 107, 204, 206. Троллейбус - 31, 35.</description>
        <styleUrl>#icon-1532-A52714</styleUrl>
        <Point>
          <coordinates>
            36.3633417,50.0385494,0
          </coordinates>
        </Point>
      </Placemark>
      <Placemark>
        <name>Остановка Северная Салтовка
</name>
        <description>Автобус- 206.</description>
        <styleUrl>#icon-1546-A52714</styleUrl>
        <Point>
          <coordinates>
            36.3647914,50.0402384,0
          </coordinates>
        </Point>
      </Placemark>
    </Folder>
    <Folder>
      <name>Маршрут обратно</name>
      <Placemark>
        <name>Линия маршрута</name>
        <styleUrl>#line-000000-4875-nodesc</styleUrl>
        <LineString>
          <tessellate>1</tessellate>
          <coordinates>
            36.3643578,50.0405951,0
            36.3644249,50.0403642,0
            36.3645456,50.0401954,0
            36.3642988,50.0398785,0
            36.3608012,50.035961,0
            36.3588164,50.0337936,0
            36.3536183,50.0349652,0
            36.3486884,50.0360505,0
            36.3458721,50.0367396,0
            36.3447241,50.0353511,0
            36.3431791,50.0335283,0
            36.3419292,50.0319777,0
            36.3406686,50.0304546,0
            36.3394294,50.0289659,0
            36.3372729,50.0262916,0
            36.3356904,50.0267913,0
            36.3355134,50.0267569,0
            36.335449,50.0266707,0
            36.3355134,50.0266052,0
            36.3357977,50.0265087,0
            36.3359801,50.0264467,0
            36.3360766,50.0264088,0
            36.3363127,50.0263261,0
            36.33642,50.0263192,0
            36.3365541,50.0263571,0
            36.3366345,50.0264329,0
            36.3367204,50.0264295,0
            36.3369028,50.0263709,0
          </coordinates>
        </LineString>
      </Placemark>
      <Placemark>
        <name>Остановка Северная Салтовка
</name>
        <description>Автобус- 206.</description>
        <styleUrl>#icon-1499-000000</styleUrl>
        <Point>
          <coordinates>
            36.3643408,50.040638,0
          </coordinates>
        </Point>
      </Placemark>
      <Placemark>
        <name>Остановка ул. Метростроителей
</name>
        <description>Автобус- 107, 204, 206. Троллейбус - 31, 35.</description>
        <styleUrl>#icon-1532-000000</styleUrl>
        <Point>
          <coordinates>
            36.3627731,50.0383151,0
          </coordinates>
        </Point>
      </Placemark>
      <Placemark>
        <name>Остановка ул. Соборности Украины
</name>
        <description>Автобус- 107, 204, 206. Троллейбус - 31, 35.</description>
        <styleUrl>#icon-1532-000000</styleUrl>
        <Point>
          <coordinates>
            36.3600587,50.0353519,0
          </coordinates>
        </Point>
      </Placemark>
      <Placemark>
        <name>Остановка ул. Гвардейцев Широнинцев
</name>
        <description>Автобус- 48, 206.</description>
        <styleUrl>#icon-1532-000000</styleUrl>
        <Point>
          <coordinates>
            36.3581597,50.0341047,0
          </coordinates>
        </Point>
      </Placemark>
      <Placemark>
        <name>Остановка ул. Соборности Украины
</name>
        <description>Автобус- 48, 206.</description>
        <styleUrl>#icon-1532-000000</styleUrl>
        <Point>
          <coordinates>
            36.3536259,50.0350431,0
          </coordinates>
        </Point>
      </Placemark>
      <Placemark>
        <name>Остановка м/н Северная-2 
</name>
        <description>Автобус- 48, 206.</description>
        <styleUrl>#icon-1546-000000</styleUrl>
        <Point>
          <coordinates>
            36.3501176,50.0358011,0
          </coordinates>
        </Point>
      </Placemark>
      <Placemark>
        <name>Остановка ул. Сердюка
</name>
        <description>Автобус- 48, 206.</description>
        <styleUrl>#icon-1532-000000</styleUrl>
        <Point>
          <coordinates>
            36.3469027,50.0365961,0
          </coordinates>
        </Point>
      </Placemark>
      <Placemark>
        <name>Остановка ул. Сатиричная
</name>
        <description>Автобус -41.</description>
        <styleUrl>#icon-1532-000000</styleUrl>
        <Point>
          <coordinates>
            36.3430687,50.0334127,0
          </coordinates>
        </Point>
      </Placemark>
      <Placemark>
        <name>Остановка ул. Бучмы
</name>
        <description>Автобус -41.</description>
        <styleUrl>#icon-1532-000000</styleUrl>
        <Point>
          <coordinates>
            36.3405986,50.0305329,0
          </coordinates>
        </Point>
      </Placemark>
      <Placemark>
        <name>Станция метро Салтовская
</name>
        <description>Автобус -41.</description>
        <styleUrl>#icon-1626-000000</styleUrl>
        <Point>
          <coordinates>
            36.3369278,50.026452,0
          </coordinates>
        </Point>
      </Placemark>
    </Folder>
  </Document>
</kml>
