<?xml version="1.0" encoding="UTF-8"?>
<kml xmlns="http://www.opengis.net/kml/2.2">
  <Document>
    <name>Автобусный маршрут №20 Харьков (м. Научная - Больница Скорой помощи) kharkiv.inform.city</name>
    <description>Подробно https://kharkiv.inform.city/-ru/-tr/tr_city/tr_city_a/</description>
    <Style id="icon-1499-000000-normal">
      <IconStyle>
        <color>ff000000</color>
        <scale>1</scale>
        <Icon>
          <href>https://www.gstatic.com/mapspro/images/stock/503-wht-blank_maps.png</href>
        </Icon>
      </IconStyle>
      <LabelStyle>
        <scale>0</scale>
      </LabelStyle>
    </Style>
    <Style id="icon-1499-000000-highlight">
      <IconStyle>
        <color>ff000000</color>
        <scale>1</scale>
        <Icon>
          <href>https://www.gstatic.com/mapspro/images/stock/503-wht-blank_maps.png</href>
        </Icon>
      </IconStyle>
      <LabelStyle>
        <scale>1</scale>
      </LabelStyle>
    </Style>
    <StyleMap id="icon-1499-000000">
      <Pair>
        <key>normal</key>
        <styleUrl>#icon-1499-000000-normal</styleUrl>
      </Pair>
      <Pair>
        <key>highlight</key>
        <styleUrl>#icon-1499-000000-highlight</styleUrl>
      </Pair>
    </StyleMap>
    <Style id="icon-1499-A52714-normal">
      <IconStyle>
        <color>ff1427a5</color>
        <scale>1</scale>
        <Icon>
          <href>https://www.gstatic.com/mapspro/images/stock/503-wht-blank_maps.png</href>
        </Icon>
      </IconStyle>
      <LabelStyle>
        <scale>0</scale>
      </LabelStyle>
    </Style>
    <Style id="icon-1499-A52714-highlight">
      <IconStyle>
        <color>ff1427a5</color>
        <scale>1</scale>
        <Icon>
          <href>https://www.gstatic.com/mapspro/images/stock/503-wht-blank_maps.png</href>
        </Icon>
      </IconStyle>
      <LabelStyle>
        <scale>1</scale>
      </LabelStyle>
    </Style>
    <StyleMap id="icon-1499-A52714">
      <Pair>
        <key>normal</key>
        <styleUrl>#icon-1499-A52714-normal</styleUrl>
      </Pair>
      <Pair>
        <key>highlight</key>
        <styleUrl>#icon-1499-A52714-highlight</styleUrl>
      </Pair>
    </StyleMap>
    <Style id="icon-1532-000000-normal">
      <IconStyle>
        <color>ff000000</color>
        <scale>1</scale>
        <Icon>
          <href>https://www.gstatic.com/mapspro/images/stock/503-wht-blank_maps.png</href>
        </Icon>
      </IconStyle>
      <LabelStyle>
        <scale>0</scale>
      </LabelStyle>
    </Style>
    <Style id="icon-1532-000000-highlight">
      <IconStyle>
        <color>ff000000</color>
        <scale>1</scale>
        <Icon>
          <href>https://www.gstatic.com/mapspro/images/stock/503-wht-blank_maps.png</href>
        </Icon>
      </IconStyle>
      <LabelStyle>
        <scale>1</scale>
      </LabelStyle>
    </Style>
    <StyleMap id="icon-1532-000000">
      <Pair>
        <key>normal</key>
        <styleUrl>#icon-1532-000000-normal</styleUrl>
      </Pair>
      <Pair>
        <key>highlight</key>
        <styleUrl>#icon-1532-000000-highlight</styleUrl>
      </Pair>
    </StyleMap>
    <Style id="icon-1532-A52714-normal">
      <IconStyle>
        <color>ff1427a5</color>
        <scale>1</scale>
        <Icon>
          <href>https://www.gstatic.com/mapspro/images/stock/503-wht-blank_maps.png</href>
        </Icon>
      </IconStyle>
      <LabelStyle>
        <scale>0</scale>
      </LabelStyle>
    </Style>
    <Style id="icon-1532-A52714-highlight">
      <IconStyle>
        <color>ff1427a5</color>
        <scale>1</scale>
        <Icon>
          <href>https://www.gstatic.com/mapspro/images/stock/503-wht-blank_maps.png</href>
        </Icon>
      </IconStyle>
      <LabelStyle>
        <scale>1</scale>
      </LabelStyle>
    </Style>
    <StyleMap id="icon-1532-A52714">
      <Pair>
        <key>normal</key>
        <styleUrl>#icon-1532-A52714-normal</styleUrl>
      </Pair>
      <Pair>
        <key>highlight</key>
        <styleUrl>#icon-1532-A52714-highlight</styleUrl>
      </Pair>
    </StyleMap>
    <Style id="icon-1586-000000-normal">
      <IconStyle>
        <color>ff000000</color>
        <scale>1</scale>
        <Icon>
          <href>https://www.gstatic.com/mapspro/images/stock/503-wht-blank_maps.png</href>
        </Icon>
      </IconStyle>
      <LabelStyle>
        <scale>0</scale>
      </LabelStyle>
    </Style>
    <Style id="icon-1586-000000-highlight">
      <IconStyle>
        <color>ff000000</color>
        <scale>1</scale>
        <Icon>
          <href>https://www.gstatic.com/mapspro/images/stock/503-wht-blank_maps.png</href>
        </Icon>
      </IconStyle>
      <LabelStyle>
        <scale>1</scale>
      </LabelStyle>
    </Style>
    <StyleMap id="icon-1586-000000">
      <Pair>
        <key>normal</key>
        <styleUrl>#icon-1586-000000-normal</styleUrl>
      </Pair>
      <Pair>
        <key>highlight</key>
        <styleUrl>#icon-1586-000000-highlight</styleUrl>
      </Pair>
    </StyleMap>
    <Style id="icon-1586-A52714-normal">
      <IconStyle>
        <color>ff1427a5</color>
        <scale>1</scale>
        <Icon>
          <href>https://www.gstatic.com/mapspro/images/stock/503-wht-blank_maps.png</href>
        </Icon>
      </IconStyle>
      <LabelStyle>
        <scale>0</scale>
      </LabelStyle>
    </Style>
    <Style id="icon-1586-A52714-highlight">
      <IconStyle>
        <color>ff1427a5</color>
        <scale>1</scale>
        <Icon>
          <href>https://www.gstatic.com/mapspro/images/stock/503-wht-blank_maps.png</href>
        </Icon>
      </IconStyle>
      <LabelStyle>
        <scale>1</scale>
      </LabelStyle>
    </Style>
    <StyleMap id="icon-1586-A52714">
      <Pair>
        <key>normal</key>
        <styleUrl>#icon-1586-A52714-normal</styleUrl>
      </Pair>
      <Pair>
        <key>highlight</key>
        <styleUrl>#icon-1586-A52714-highlight</styleUrl>
      </Pair>
    </StyleMap>
    <Style id="icon-1624-A52714-normal">
      <IconStyle>
        <color>ff1427a5</color>
        <scale>1</scale>
        <Icon>
          <href>https://www.gstatic.com/mapspro/images/stock/503-wht-blank_maps.png</href>
        </Icon>
      </IconStyle>
      <LabelStyle>
        <scale>0</scale>
      </LabelStyle>
    </Style>
    <Style id="icon-1624-A52714-highlight">
      <IconStyle>
        <color>ff1427a5</color>
        <scale>1</scale>
        <Icon>
          <href>https://www.gstatic.com/mapspro/images/stock/503-wht-blank_maps.png</href>
        </Icon>
      </IconStyle>
      <LabelStyle>
        <scale>1</scale>
      </LabelStyle>
    </Style>
    <StyleMap id="icon-1624-A52714">
      <Pair>
        <key>normal</key>
        <styleUrl>#icon-1624-A52714-normal</styleUrl>
      </Pair>
      <Pair>
        <key>highlight</key>
        <styleUrl>#icon-1624-A52714-highlight</styleUrl>
      </Pair>
    </StyleMap>
    <Style id="icon-1626-000000-normal">
      <IconStyle>
        <color>ff000000</color>
        <scale>1</scale>
        <Icon>
          <href>https://www.gstatic.com/mapspro/images/stock/503-wht-blank_maps.png</href>
        </Icon>
      </IconStyle>
      <LabelStyle>
        <scale>0</scale>
      </LabelStyle>
    </Style>
    <Style id="icon-1626-000000-highlight">
      <IconStyle>
        <color>ff000000</color>
        <scale>1</scale>
        <Icon>
          <href>https://www.gstatic.com/mapspro/images/stock/503-wht-blank_maps.png</href>
        </Icon>
      </IconStyle>
      <LabelStyle>
        <scale>1</scale>
      </LabelStyle>
    </Style>
    <StyleMap id="icon-1626-000000">
      <Pair>
        <key>normal</key>
        <styleUrl>#icon-1626-000000-normal</styleUrl>
      </Pair>
      <Pair>
        <key>highlight</key>
        <styleUrl>#icon-1626-000000-highlight</styleUrl>
      </Pair>
    </StyleMap>
    <Style id="icon-1626-A52714-normal">
      <IconStyle>
        <color>ff1427a5</color>
        <scale>1</scale>
        <Icon>
          <href>https://www.gstatic.com/mapspro/images/stock/503-wht-blank_maps.png</href>
        </Icon>
      </IconStyle>
      <LabelStyle>
        <scale>0</scale>
      </LabelStyle>
    </Style>
    <Style id="icon-1626-A52714-highlight">
      <IconStyle>
        <color>ff1427a5</color>
        <scale>1</scale>
        <Icon>
          <href>https://www.gstatic.com/mapspro/images/stock/503-wht-blank_maps.png</href>
        </Icon>
      </IconStyle>
      <LabelStyle>
        <scale>1</scale>
      </LabelStyle>
    </Style>
    <StyleMap id="icon-1626-A52714">
      <Pair>
        <key>normal</key>
        <styleUrl>#icon-1626-A52714-normal</styleUrl>
      </Pair>
      <Pair>
        <key>highlight</key>
        <styleUrl>#icon-1626-A52714-highlight</styleUrl>
      </Pair>
    </StyleMap>
    <Style id="icon-1720-000000-normal">
      <IconStyle>
        <color>ff000000</color>
        <scale>1</scale>
        <Icon>
          <href>https://www.gstatic.com/mapspro/images/stock/503-wht-blank_maps.png</href>
        </Icon>
      </IconStyle>
      <LabelStyle>
        <scale>0</scale>
      </LabelStyle>
    </Style>
    <Style id="icon-1720-000000-highlight">
      <IconStyle>
        <color>ff000000</color>
        <scale>1</scale>
        <Icon>
          <href>https://www.gstatic.com/mapspro/images/stock/503-wht-blank_maps.png</href>
        </Icon>
      </IconStyle>
      <LabelStyle>
        <scale>1</scale>
      </LabelStyle>
    </Style>
    <StyleMap id="icon-1720-000000">
      <Pair>
        <key>normal</key>
        <styleUrl>#icon-1720-000000-normal</styleUrl>
      </Pair>
      <Pair>
        <key>highlight</key>
        <styleUrl>#icon-1720-000000-highlight</styleUrl>
      </Pair>
    </StyleMap>
    <Style id="icon-1720-A52714-normal">
      <IconStyle>
        <color>ff1427a5</color>
        <scale>1</scale>
        <Icon>
          <href>https://www.gstatic.com/mapspro/images/stock/503-wht-blank_maps.png</href>
        </Icon>
      </IconStyle>
      <LabelStyle>
        <scale>0</scale>
      </LabelStyle>
    </Style>
    <Style id="icon-1720-A52714-highlight">
      <IconStyle>
        <color>ff1427a5</color>
        <scale>1</scale>
        <Icon>
          <href>https://www.gstatic.com/mapspro/images/stock/503-wht-blank_maps.png</href>
        </Icon>
      </IconStyle>
      <LabelStyle>
        <scale>1</scale>
      </LabelStyle>
    </Style>
    <StyleMap id="icon-1720-A52714">
      <Pair>
        <key>normal</key>
        <styleUrl>#icon-1720-A52714-normal</styleUrl>
      </Pair>
      <Pair>
        <key>highlight</key>
        <styleUrl>#icon-1720-A52714-highlight</styleUrl>
      </Pair>
    </StyleMap>
    <Style id="icon-1769-000000-normal">
      <IconStyle>
        <color>ff000000</color>
        <scale>1</scale>
        <Icon>
          <href>https://www.gstatic.com/mapspro/images/stock/503-wht-blank_maps.png</href>
        </Icon>
      </IconStyle>
      <LabelStyle>
        <scale>0</scale>
      </LabelStyle>
    </Style>
    <Style id="icon-1769-000000-highlight">
      <IconStyle>
        <color>ff000000</color>
        <scale>1</scale>
        <Icon>
          <href>https://www.gstatic.com/mapspro/images/stock/503-wht-blank_maps.png</href>
        </Icon>
      </IconStyle>
      <LabelStyle>
        <scale>1</scale>
      </LabelStyle>
    </Style>
    <StyleMap id="icon-1769-000000">
      <Pair>
        <key>normal</key>
        <styleUrl>#icon-1769-000000-normal</styleUrl>
      </Pair>
      <Pair>
        <key>highlight</key>
        <styleUrl>#icon-1769-000000-highlight</styleUrl>
      </Pair>
    </StyleMap>
    <Style id="icon-1769-A52714-normal">
      <IconStyle>
        <color>ff1427a5</color>
        <scale>1</scale>
        <Icon>
          <href>https://www.gstatic.com/mapspro/images/stock/503-wht-blank_maps.png</href>
        </Icon>
      </IconStyle>
      <LabelStyle>
        <scale>0</scale>
      </LabelStyle>
    </Style>
    <Style id="icon-1769-A52714-highlight">
      <IconStyle>
        <color>ff1427a5</color>
        <scale>1</scale>
        <Icon>
          <href>https://www.gstatic.com/mapspro/images/stock/503-wht-blank_maps.png</href>
        </Icon>
      </IconStyle>
      <LabelStyle>
        <scale>1</scale>
      </LabelStyle>
    </Style>
    <StyleMap id="icon-1769-A52714">
      <Pair>
        <key>normal</key>
        <styleUrl>#icon-1769-A52714-normal</styleUrl>
      </Pair>
      <Pair>
        <key>highlight</key>
        <styleUrl>#icon-1769-A52714-highlight</styleUrl>
      </Pair>
    </StyleMap>
    <Style id="line-000000-5650-nodesc-normal">
      <LineStyle>
        <color>ff000000</color>
        <width>5.65</width>
      </LineStyle>
      <BalloonStyle>
        <text><![CDATA[<h3>$[name]</h3>]]></text>
      </BalloonStyle>
    </Style>
    <Style id="line-000000-5650-nodesc-highlight">
      <LineStyle>
        <color>ff000000</color>
        <width>8.475</width>
      </LineStyle>
      <BalloonStyle>
        <text><![CDATA[<h3>$[name]</h3>]]></text>
      </BalloonStyle>
    </Style>
    <StyleMap id="line-000000-5650-nodesc">
      <Pair>
        <key>normal</key>
        <styleUrl>#line-000000-5650-nodesc-normal</styleUrl>
      </Pair>
      <Pair>
        <key>highlight</key>
        <styleUrl>#line-000000-5650-nodesc-highlight</styleUrl>
      </Pair>
    </StyleMap>
    <Style id="line-A52714-5263-nodesc-normal">
      <LineStyle>
        <color>ff1427a5</color>
        <width>5.263</width>
      </LineStyle>
      <BalloonStyle>
        <text><![CDATA[<h3>$[name]</h3>]]></text>
      </BalloonStyle>
    </Style>
    <Style id="line-A52714-5263-nodesc-highlight">
      <LineStyle>
        <color>ff1427a5</color>
        <width>7.8945</width>
      </LineStyle>
      <BalloonStyle>
        <text><![CDATA[<h3>$[name]</h3>]]></text>
      </BalloonStyle>
    </Style>
    <StyleMap id="line-A52714-5263-nodesc">
      <Pair>
        <key>normal</key>
        <styleUrl>#line-A52714-5263-nodesc-normal</styleUrl>
      </Pair>
      <Pair>
        <key>highlight</key>
        <styleUrl>#line-A52714-5263-nodesc-highlight</styleUrl>
      </Pair>
    </StyleMap>
    <Folder>
      <name>Маршрут туда</name>
      <Placemark>
        <name>Линия маршрута</name>
        <styleUrl>#line-A52714-5263-nodesc</styleUrl>
        <LineString>
          <tessellate>1</tessellate>
          <coordinates>
            36.2269625,50.0135413,0
            36.2267235,50.0142955,0
            36.2251571,50.019466,0
            36.224567,50.0215271,0
            36.2238911,50.0238018,0
            36.2229898,50.027069,0
            36.2233332,50.0271241,0
            36.2241378,50.0272344,0
            36.2255004,50.0276479,0
            36.225833,50.0278271,0
            36.2261441,50.0279719,0
            36.2264767,50.0280408,0
            36.2270453,50.0281304,0
            36.2276998,50.0283096,0
            36.2290516,50.0289437,0
            36.2303069,50.0296053,0
            36.2309077,50.029943,0
            36.2314012,50.0301636,0
            36.2316587,50.0302532,0
            36.2323454,50.0303979,0
            36.2330428,50.030522,0
            36.2339118,50.0305771,0
            36.2350598,50.0306805,0
            36.2365511,50.0307701,0
            36.2371948,50.0308735,0
            36.2377205,50.031032,0
            36.238096,50.031287,0
            36.2384715,50.0316316,0
            36.2399092,50.0330099,0
            36.2416902,50.0346983,0
            36.2419799,50.0350291,0
            36.2441042,50.0371103,0
            36.2456706,50.0385987,0
            36.2460998,50.0386056,0
            36.2465504,50.0385711,0
            36.2466791,50.0386469,0
            36.2466147,50.0387779,0
            36.2462178,50.0388812,0
            36.2459281,50.0388537,0
            36.2456384,50.0386745,0
          </coordinates>
        </LineString>
      </Placemark>
      <Placemark>
        <name>Станция метро Научная
</name>
        <description>Автобус-20, 33. Троллейбус-2, 18, 58.</description>
        <styleUrl>#icon-1499-A52714</styleUrl>
        <Point>
          <coordinates>
            36.2272435,50.0135505,0
          </coordinates>
        </Point>
      </Placemark>
      <Placemark>
        <name>Остановка ул. Космическая
</name>
        <description>Автобус-20, 33. Троллейбус-2, 18, 58.</description>
        <styleUrl>#icon-1532-A52714</styleUrl>
        <Point>
          <coordinates>
            36.2255635,50.018839,0
          </coordinates>
        </Point>
      </Placemark>
      <Placemark>
        <name>Остановка ул. Европейская
</name>
        <description>Автобус-20, 33. Троллейбус-2, 18, 58.</description>
        <styleUrl>#icon-1532-A52714</styleUrl>
        <Point>
          <coordinates>
            36.2247053,50.0216929,0
          </coordinates>
        </Point>
      </Placemark>
      <Placemark>
        <name>Станция  метро Ботанический сад
</name>
        <description>Автобус-20, 33. Троллейбус-2, 18, 58.</description>
        <styleUrl>#icon-1626-A52714</styleUrl>
        <Point>
          <coordinates>
            36.2230423,50.0277172,0
          </coordinates>
        </Point>
      </Placemark>
      <Placemark>
        <name>Остановка Ботанический сад</name>
        <description>Автобус 20э.</description>
        <styleUrl>#icon-1720-A52714</styleUrl>
        <Point>
          <coordinates>
            36.2319794,50.0303244,0
          </coordinates>
        </Point>
      </Placemark>
      <Placemark>
        <name>Остановка Канатная дорога</name>
        <description>Автобус 20э.</description>
        <styleUrl>#icon-1586-A52714</styleUrl>
        <Point>
          <coordinates>
            36.2359905,50.030734,0
          </coordinates>
        </Point>
      </Placemark>
      <Placemark>
        <name>Остановка По требованию
</name>
        <description>Автобус-20.</description>
        <styleUrl>#icon-1769-A52714</styleUrl>
        <Point>
          <coordinates>
            36.2393278,50.0324217,0
          </coordinates>
        </Point>
      </Placemark>
      <Placemark>
        <name>Остановка ул. Балакирева
</name>
        <description>Автобус-20.</description>
        <styleUrl>#icon-1532-A52714</styleUrl>
        <Point>
          <coordinates>
            36.2421599,50.0351623,0
          </coordinates>
        </Point>
      </Placemark>
      <Placemark>
        <name>Остановка Больница Скорой помощи
</name>
        <description>Автобус-20.</description>
        <styleUrl>#icon-1624-A52714</styleUrl>
        <Point>
          <coordinates>
            36.2458629,50.0385078,0
          </coordinates>
        </Point>
      </Placemark>
    </Folder>
    <Folder>
      <name>Маршрут обратно</name>
      <Placemark>
        <name>Линия маршрута</name>
        <styleUrl>#line-000000-5650-nodesc</styleUrl>
        <LineString>
          <tessellate>1</tessellate>
          <coordinates>
            36.2456683,50.0387234,0
            36.2453518,50.0384237,0
            36.2429002,50.0361186,0
            36.2415323,50.0347679,0
            36.2401644,50.0334517,0
            36.2392578,50.0325592,0
            36.2389359,50.032256,0
            36.2386784,50.032001,0
            36.2383726,50.0317046,0
            36.2381044,50.0314634,0
            36.2379328,50.0313325,0
            36.2375143,50.0311223,0
            36.2372944,50.0310327,0
            36.237053,50.0309465,0
            36.2368277,50.0309052,0
            36.23642,50.0308569,0
            36.2359479,50.0308259,0
            36.2352935,50.0307846,0
            36.234462,50.0307156,0
            36.2333194,50.0306433,0
            36.2328258,50.0305847,0
            36.2323538,50.0305054,0
            36.231651,50.0303538,0
            36.2312809,50.0302298,0
            36.2308356,50.0300678,0
            36.2301329,50.0296784,0
            36.2292907,50.0292097,0
            36.2286148,50.0288444,0
            36.2282178,50.0286446,0
            36.2276063,50.0283999,0
            36.2269786,50.0282207,0
            36.2262491,50.0281173,0
            36.2259433,50.0280312,0
            36.2253586,50.0277107,0
            36.225026,50.02759,0
            36.2239585,50.0273143,0
            36.2226764,50.0271386,0
            36.2228534,50.0265596,0
            36.2231162,50.0257015,0
            36.2234971,50.0244229,0
            36.2238565,50.0231373,0
            36.2243232,50.0214933,0
            36.2243393,50.0213382,0
            36.224908,50.019446,0
            36.225541,50.0173779,0
            36.2262437,50.0150304,0
            36.226866,50.012907,0
            36.2271235,50.0120452,0
            36.2274346,50.0120831,0
            36.2269625,50.0135413,0
          </coordinates>
        </LineString>
      </Placemark>
      <Placemark>
        <name>Остановка Больница скорой помощи</name>
        <description>Автобус 20, 77. Маршрутка - 277э. Троллейбус -18.</description>
        <styleUrl>#icon-1499-000000</styleUrl>
        <Point>
          <coordinates>
            36.2457218,50.0387318,0
          </coordinates>
        </Point>
      </Placemark>
      <Placemark>
        <name>Остановка ул. Балакирева
</name>
        <description>Автобус-20.</description>
        <styleUrl>#icon-1532-000000</styleUrl>
        <Point>
          <coordinates>
            36.2413528,50.0346028,0
          </coordinates>
        </Point>
      </Placemark>
      <Placemark>
        <name>Остановка По требованию
</name>
        <description>Автобус-20.</description>
        <styleUrl>#icon-1769-000000</styleUrl>
        <Point>
          <coordinates>
            36.2390167,50.0323872,0
          </coordinates>
        </Point>
      </Placemark>
      <Placemark>
        <name>Остановка Канатная дорога
</name>
        <description>Автобус-20.</description>
        <styleUrl>#icon-1586-000000</styleUrl>
        <Point>
          <coordinates>
            36.2357577,50.0308681,0
          </coordinates>
        </Point>
      </Placemark>
      <Placemark>
        <name>Остановка Ботанический сад
</name>
        <description>Автобус-20.</description>
        <styleUrl>#icon-1720-000000</styleUrl>
        <Point>
          <coordinates>
            36.2310372,50.0301192,0
          </coordinates>
        </Point>
      </Placemark>
      <Placemark>
        <name>Станция метро Ботанический сад
</name>
        <description>Автобус-20, 33. Троллейбус-2, 18, 58.</description>
        <styleUrl>#icon-1626-000000</styleUrl>
        <Point>
          <coordinates>
            36.2226283,50.0265376,0
          </coordinates>
        </Point>
      </Placemark>
      <Placemark>
        <name>Остановка ул. Европейская
</name>
        <description>Автобус-20, 33. Троллейбус-2, 18, 58.</description>
        <styleUrl>#icon-1532-000000</styleUrl>
        <Point>
          <coordinates>
            36.2241733,50.0210687,0
          </coordinates>
        </Point>
      </Placemark>
      <Placemark>
        <name>Остановка ул. Космическая
</name>
        <description>Автобус-20, 33. Троллейбус-2, 18, 58.</description>
        <styleUrl>#icon-1532-000000</styleUrl>
        <Point>
          <coordinates>
            36.2251491,50.0182001,0
          </coordinates>
        </Point>
      </Placemark>
      <Placemark>
        <name>Станция метро Научная
</name>
        <description>Автобус-20, 33. Троллейбус-2, 18, 58.</description>
        <styleUrl>#icon-1626-000000</styleUrl>
        <Point>
          <coordinates>
            36.2264655,50.0132756,0
          </coordinates>
        </Point>
      </Placemark>
    </Folder>
  </Document>
</kml>
