<?xml version="1.0" encoding="UTF-8"?>
<kml xmlns="http://www.opengis.net/kml/2.2">
  <Document>
    <name>Автобусный маршрут №204 Харьков (м. Индустриальная - ул. Натальи Ужвий) kharkiv.inform.city</name>
    <description>Подробно https://kharkiv.inform.city/-ru/-tr/tr_city/tr_city_a/</description>
    <Style id="icon-1499-000000-normal">
      <IconStyle>
        <color>ff000000</color>
        <scale>1</scale>
        <Icon>
          <href>https://www.gstatic.com/mapspro/images/stock/503-wht-blank_maps.png</href>
        </Icon>
      </IconStyle>
      <LabelStyle>
        <scale>0</scale>
      </LabelStyle>
    </Style>
    <Style id="icon-1499-000000-highlight">
      <IconStyle>
        <color>ff000000</color>
        <scale>1</scale>
        <Icon>
          <href>https://www.gstatic.com/mapspro/images/stock/503-wht-blank_maps.png</href>
        </Icon>
      </IconStyle>
      <LabelStyle>
        <scale>1</scale>
      </LabelStyle>
    </Style>
    <StyleMap id="icon-1499-000000">
      <Pair>
        <key>normal</key>
        <styleUrl>#icon-1499-000000-normal</styleUrl>
      </Pair>
      <Pair>
        <key>highlight</key>
        <styleUrl>#icon-1499-000000-highlight</styleUrl>
      </Pair>
    </StyleMap>
    <Style id="icon-1499-A52714-normal">
      <IconStyle>
        <color>ff1427a5</color>
        <scale>1</scale>
        <Icon>
          <href>https://www.gstatic.com/mapspro/images/stock/503-wht-blank_maps.png</href>
        </Icon>
      </IconStyle>
      <LabelStyle>
        <scale>0</scale>
      </LabelStyle>
    </Style>
    <Style id="icon-1499-A52714-highlight">
      <IconStyle>
        <color>ff1427a5</color>
        <scale>1</scale>
        <Icon>
          <href>https://www.gstatic.com/mapspro/images/stock/503-wht-blank_maps.png</href>
        </Icon>
      </IconStyle>
      <LabelStyle>
        <scale>1</scale>
      </LabelStyle>
    </Style>
    <StyleMap id="icon-1499-A52714">
      <Pair>
        <key>normal</key>
        <styleUrl>#icon-1499-A52714-normal</styleUrl>
      </Pair>
      <Pair>
        <key>highlight</key>
        <styleUrl>#icon-1499-A52714-highlight</styleUrl>
      </Pair>
    </StyleMap>
    <Style id="icon-1532-000000-normal">
      <IconStyle>
        <color>ff000000</color>
        <scale>1</scale>
        <Icon>
          <href>https://www.gstatic.com/mapspro/images/stock/503-wht-blank_maps.png</href>
        </Icon>
      </IconStyle>
      <LabelStyle>
        <scale>0</scale>
      </LabelStyle>
    </Style>
    <Style id="icon-1532-000000-highlight">
      <IconStyle>
        <color>ff000000</color>
        <scale>1</scale>
        <Icon>
          <href>https://www.gstatic.com/mapspro/images/stock/503-wht-blank_maps.png</href>
        </Icon>
      </IconStyle>
      <LabelStyle>
        <scale>1</scale>
      </LabelStyle>
    </Style>
    <StyleMap id="icon-1532-000000">
      <Pair>
        <key>normal</key>
        <styleUrl>#icon-1532-000000-normal</styleUrl>
      </Pair>
      <Pair>
        <key>highlight</key>
        <styleUrl>#icon-1532-000000-highlight</styleUrl>
      </Pair>
    </StyleMap>
    <Style id="icon-1532-A52714-normal">
      <IconStyle>
        <color>ff1427a5</color>
        <scale>1</scale>
        <Icon>
          <href>https://www.gstatic.com/mapspro/images/stock/503-wht-blank_maps.png</href>
        </Icon>
      </IconStyle>
      <LabelStyle>
        <scale>0</scale>
      </LabelStyle>
    </Style>
    <Style id="icon-1532-A52714-highlight">
      <IconStyle>
        <color>ff1427a5</color>
        <scale>1</scale>
        <Icon>
          <href>https://www.gstatic.com/mapspro/images/stock/503-wht-blank_maps.png</href>
        </Icon>
      </IconStyle>
      <LabelStyle>
        <scale>1</scale>
      </LabelStyle>
    </Style>
    <StyleMap id="icon-1532-A52714">
      <Pair>
        <key>normal</key>
        <styleUrl>#icon-1532-A52714-normal</styleUrl>
      </Pair>
      <Pair>
        <key>highlight</key>
        <styleUrl>#icon-1532-A52714-highlight</styleUrl>
      </Pair>
    </StyleMap>
    <Style id="icon-1546-000000-normal">
      <IconStyle>
        <color>ff000000</color>
        <scale>1</scale>
        <Icon>
          <href>https://www.gstatic.com/mapspro/images/stock/503-wht-blank_maps.png</href>
        </Icon>
      </IconStyle>
      <LabelStyle>
        <scale>0</scale>
      </LabelStyle>
    </Style>
    <Style id="icon-1546-000000-highlight">
      <IconStyle>
        <color>ff000000</color>
        <scale>1</scale>
        <Icon>
          <href>https://www.gstatic.com/mapspro/images/stock/503-wht-blank_maps.png</href>
        </Icon>
      </IconStyle>
      <LabelStyle>
        <scale>1</scale>
      </LabelStyle>
    </Style>
    <StyleMap id="icon-1546-000000">
      <Pair>
        <key>normal</key>
        <styleUrl>#icon-1546-000000-normal</styleUrl>
      </Pair>
      <Pair>
        <key>highlight</key>
        <styleUrl>#icon-1546-000000-highlight</styleUrl>
      </Pair>
    </StyleMap>
    <Style id="icon-1546-A52714-normal">
      <IconStyle>
        <color>ff1427a5</color>
        <scale>1</scale>
        <Icon>
          <href>https://www.gstatic.com/mapspro/images/stock/503-wht-blank_maps.png</href>
        </Icon>
      </IconStyle>
      <LabelStyle>
        <scale>0</scale>
      </LabelStyle>
    </Style>
    <Style id="icon-1546-A52714-highlight">
      <IconStyle>
        <color>ff1427a5</color>
        <scale>1</scale>
        <Icon>
          <href>https://www.gstatic.com/mapspro/images/stock/503-wht-blank_maps.png</href>
        </Icon>
      </IconStyle>
      <LabelStyle>
        <scale>1</scale>
      </LabelStyle>
    </Style>
    <StyleMap id="icon-1546-A52714">
      <Pair>
        <key>normal</key>
        <styleUrl>#icon-1546-A52714-normal</styleUrl>
      </Pair>
      <Pair>
        <key>highlight</key>
        <styleUrl>#icon-1546-A52714-highlight</styleUrl>
      </Pair>
    </StyleMap>
    <Style id="icon-1548-000000-normal">
      <IconStyle>
        <color>ff000000</color>
        <scale>1</scale>
        <Icon>
          <href>https://www.gstatic.com/mapspro/images/stock/503-wht-blank_maps.png</href>
        </Icon>
      </IconStyle>
      <LabelStyle>
        <scale>0</scale>
      </LabelStyle>
    </Style>
    <Style id="icon-1548-000000-highlight">
      <IconStyle>
        <color>ff000000</color>
        <scale>1</scale>
        <Icon>
          <href>https://www.gstatic.com/mapspro/images/stock/503-wht-blank_maps.png</href>
        </Icon>
      </IconStyle>
      <LabelStyle>
        <scale>1</scale>
      </LabelStyle>
    </Style>
    <StyleMap id="icon-1548-000000">
      <Pair>
        <key>normal</key>
        <styleUrl>#icon-1548-000000-normal</styleUrl>
      </Pair>
      <Pair>
        <key>highlight</key>
        <styleUrl>#icon-1548-000000-highlight</styleUrl>
      </Pair>
    </StyleMap>
    <Style id="icon-1548-A52714-normal">
      <IconStyle>
        <color>ff1427a5</color>
        <scale>1</scale>
        <Icon>
          <href>https://www.gstatic.com/mapspro/images/stock/503-wht-blank_maps.png</href>
        </Icon>
      </IconStyle>
      <LabelStyle>
        <scale>0</scale>
      </LabelStyle>
    </Style>
    <Style id="icon-1548-A52714-highlight">
      <IconStyle>
        <color>ff1427a5</color>
        <scale>1</scale>
        <Icon>
          <href>https://www.gstatic.com/mapspro/images/stock/503-wht-blank_maps.png</href>
        </Icon>
      </IconStyle>
      <LabelStyle>
        <scale>1</scale>
      </LabelStyle>
    </Style>
    <StyleMap id="icon-1548-A52714">
      <Pair>
        <key>normal</key>
        <styleUrl>#icon-1548-A52714-normal</styleUrl>
      </Pair>
      <Pair>
        <key>highlight</key>
        <styleUrl>#icon-1548-A52714-highlight</styleUrl>
      </Pair>
    </StyleMap>
    <Style id="icon-1582-000000-normal">
      <IconStyle>
        <color>ff000000</color>
        <scale>1</scale>
        <Icon>
          <href>https://www.gstatic.com/mapspro/images/stock/503-wht-blank_maps.png</href>
        </Icon>
      </IconStyle>
      <LabelStyle>
        <scale>0</scale>
      </LabelStyle>
    </Style>
    <Style id="icon-1582-000000-highlight">
      <IconStyle>
        <color>ff000000</color>
        <scale>1</scale>
        <Icon>
          <href>https://www.gstatic.com/mapspro/images/stock/503-wht-blank_maps.png</href>
        </Icon>
      </IconStyle>
      <LabelStyle>
        <scale>1</scale>
      </LabelStyle>
    </Style>
    <StyleMap id="icon-1582-000000">
      <Pair>
        <key>normal</key>
        <styleUrl>#icon-1582-000000-normal</styleUrl>
      </Pair>
      <Pair>
        <key>highlight</key>
        <styleUrl>#icon-1582-000000-highlight</styleUrl>
      </Pair>
    </StyleMap>
    <Style id="icon-1582-A52714-normal">
      <IconStyle>
        <color>ff1427a5</color>
        <scale>1</scale>
        <Icon>
          <href>https://www.gstatic.com/mapspro/images/stock/503-wht-blank_maps.png</href>
        </Icon>
      </IconStyle>
      <LabelStyle>
        <scale>0</scale>
      </LabelStyle>
    </Style>
    <Style id="icon-1582-A52714-highlight">
      <IconStyle>
        <color>ff1427a5</color>
        <scale>1</scale>
        <Icon>
          <href>https://www.gstatic.com/mapspro/images/stock/503-wht-blank_maps.png</href>
        </Icon>
      </IconStyle>
      <LabelStyle>
        <scale>1</scale>
      </LabelStyle>
    </Style>
    <StyleMap id="icon-1582-A52714">
      <Pair>
        <key>normal</key>
        <styleUrl>#icon-1582-A52714-normal</styleUrl>
      </Pair>
      <Pair>
        <key>highlight</key>
        <styleUrl>#icon-1582-A52714-highlight</styleUrl>
      </Pair>
    </StyleMap>
    <Style id="icon-1624-000000-normal">
      <IconStyle>
        <color>ff000000</color>
        <scale>1</scale>
        <Icon>
          <href>https://www.gstatic.com/mapspro/images/stock/503-wht-blank_maps.png</href>
        </Icon>
      </IconStyle>
      <LabelStyle>
        <scale>0</scale>
      </LabelStyle>
    </Style>
    <Style id="icon-1624-000000-highlight">
      <IconStyle>
        <color>ff000000</color>
        <scale>1</scale>
        <Icon>
          <href>https://www.gstatic.com/mapspro/images/stock/503-wht-blank_maps.png</href>
        </Icon>
      </IconStyle>
      <LabelStyle>
        <scale>1</scale>
      </LabelStyle>
    </Style>
    <StyleMap id="icon-1624-000000">
      <Pair>
        <key>normal</key>
        <styleUrl>#icon-1624-000000-normal</styleUrl>
      </Pair>
      <Pair>
        <key>highlight</key>
        <styleUrl>#icon-1624-000000-highlight</styleUrl>
      </Pair>
    </StyleMap>
    <Style id="icon-1624-A52714-normal">
      <IconStyle>
        <color>ff1427a5</color>
        <scale>1</scale>
        <Icon>
          <href>https://www.gstatic.com/mapspro/images/stock/503-wht-blank_maps.png</href>
        </Icon>
      </IconStyle>
      <LabelStyle>
        <scale>0</scale>
      </LabelStyle>
    </Style>
    <Style id="icon-1624-A52714-highlight">
      <IconStyle>
        <color>ff1427a5</color>
        <scale>1</scale>
        <Icon>
          <href>https://www.gstatic.com/mapspro/images/stock/503-wht-blank_maps.png</href>
        </Icon>
      </IconStyle>
      <LabelStyle>
        <scale>1</scale>
      </LabelStyle>
    </Style>
    <StyleMap id="icon-1624-A52714">
      <Pair>
        <key>normal</key>
        <styleUrl>#icon-1624-A52714-normal</styleUrl>
      </Pair>
      <Pair>
        <key>highlight</key>
        <styleUrl>#icon-1624-A52714-highlight</styleUrl>
      </Pair>
    </StyleMap>
    <Style id="icon-1626-000000-normal">
      <IconStyle>
        <color>ff000000</color>
        <scale>1</scale>
        <Icon>
          <href>https://www.gstatic.com/mapspro/images/stock/503-wht-blank_maps.png</href>
        </Icon>
      </IconStyle>
      <LabelStyle>
        <scale>0</scale>
      </LabelStyle>
    </Style>
    <Style id="icon-1626-000000-highlight">
      <IconStyle>
        <color>ff000000</color>
        <scale>1</scale>
        <Icon>
          <href>https://www.gstatic.com/mapspro/images/stock/503-wht-blank_maps.png</href>
        </Icon>
      </IconStyle>
      <LabelStyle>
        <scale>1</scale>
      </LabelStyle>
    </Style>
    <StyleMap id="icon-1626-000000">
      <Pair>
        <key>normal</key>
        <styleUrl>#icon-1626-000000-normal</styleUrl>
      </Pair>
      <Pair>
        <key>highlight</key>
        <styleUrl>#icon-1626-000000-highlight</styleUrl>
      </Pair>
    </StyleMap>
    <Style id="icon-1626-A52714-normal">
      <IconStyle>
        <color>ff1427a5</color>
        <scale>1</scale>
        <Icon>
          <href>https://www.gstatic.com/mapspro/images/stock/503-wht-blank_maps.png</href>
        </Icon>
      </IconStyle>
      <LabelStyle>
        <scale>0</scale>
      </LabelStyle>
    </Style>
    <Style id="icon-1626-A52714-highlight">
      <IconStyle>
        <color>ff1427a5</color>
        <scale>1</scale>
        <Icon>
          <href>https://www.gstatic.com/mapspro/images/stock/503-wht-blank_maps.png</href>
        </Icon>
      </IconStyle>
      <LabelStyle>
        <scale>1</scale>
      </LabelStyle>
    </Style>
    <StyleMap id="icon-1626-A52714">
      <Pair>
        <key>normal</key>
        <styleUrl>#icon-1626-A52714-normal</styleUrl>
      </Pair>
      <Pair>
        <key>highlight</key>
        <styleUrl>#icon-1626-A52714-highlight</styleUrl>
      </Pair>
    </StyleMap>
    <Style id="icon-1720-000000-normal">
      <IconStyle>
        <color>ff000000</color>
        <scale>1</scale>
        <Icon>
          <href>https://www.gstatic.com/mapspro/images/stock/503-wht-blank_maps.png</href>
        </Icon>
      </IconStyle>
      <LabelStyle>
        <scale>0</scale>
      </LabelStyle>
    </Style>
    <Style id="icon-1720-000000-highlight">
      <IconStyle>
        <color>ff000000</color>
        <scale>1</scale>
        <Icon>
          <href>https://www.gstatic.com/mapspro/images/stock/503-wht-blank_maps.png</href>
        </Icon>
      </IconStyle>
      <LabelStyle>
        <scale>1</scale>
      </LabelStyle>
    </Style>
    <StyleMap id="icon-1720-000000">
      <Pair>
        <key>normal</key>
        <styleUrl>#icon-1720-000000-normal</styleUrl>
      </Pair>
      <Pair>
        <key>highlight</key>
        <styleUrl>#icon-1720-000000-highlight</styleUrl>
      </Pair>
    </StyleMap>
    <Style id="icon-1720-A52714-normal">
      <IconStyle>
        <color>ff1427a5</color>
        <scale>1</scale>
        <Icon>
          <href>https://www.gstatic.com/mapspro/images/stock/503-wht-blank_maps.png</href>
        </Icon>
      </IconStyle>
      <LabelStyle>
        <scale>0</scale>
      </LabelStyle>
    </Style>
    <Style id="icon-1720-A52714-highlight">
      <IconStyle>
        <color>ff1427a5</color>
        <scale>1</scale>
        <Icon>
          <href>https://www.gstatic.com/mapspro/images/stock/503-wht-blank_maps.png</href>
        </Icon>
      </IconStyle>
      <LabelStyle>
        <scale>1</scale>
      </LabelStyle>
    </Style>
    <StyleMap id="icon-1720-A52714">
      <Pair>
        <key>normal</key>
        <styleUrl>#icon-1720-A52714-normal</styleUrl>
      </Pair>
      <Pair>
        <key>highlight</key>
        <styleUrl>#icon-1720-A52714-highlight</styleUrl>
      </Pair>
    </StyleMap>
    <Style id="icon-1769-000000-normal">
      <IconStyle>
        <color>ff000000</color>
        <scale>1</scale>
        <Icon>
          <href>https://www.gstatic.com/mapspro/images/stock/503-wht-blank_maps.png</href>
        </Icon>
      </IconStyle>
      <LabelStyle>
        <scale>0</scale>
      </LabelStyle>
    </Style>
    <Style id="icon-1769-000000-highlight">
      <IconStyle>
        <color>ff000000</color>
        <scale>1</scale>
        <Icon>
          <href>https://www.gstatic.com/mapspro/images/stock/503-wht-blank_maps.png</href>
        </Icon>
      </IconStyle>
      <LabelStyle>
        <scale>1</scale>
      </LabelStyle>
    </Style>
    <StyleMap id="icon-1769-000000">
      <Pair>
        <key>normal</key>
        <styleUrl>#icon-1769-000000-normal</styleUrl>
      </Pair>
      <Pair>
        <key>highlight</key>
        <styleUrl>#icon-1769-000000-highlight</styleUrl>
      </Pair>
    </StyleMap>
    <Style id="icon-1769-A52714-normal">
      <IconStyle>
        <color>ff1427a5</color>
        <scale>1</scale>
        <Icon>
          <href>https://www.gstatic.com/mapspro/images/stock/503-wht-blank_maps.png</href>
        </Icon>
      </IconStyle>
      <LabelStyle>
        <scale>0</scale>
      </LabelStyle>
    </Style>
    <Style id="icon-1769-A52714-highlight">
      <IconStyle>
        <color>ff1427a5</color>
        <scale>1</scale>
        <Icon>
          <href>https://www.gstatic.com/mapspro/images/stock/503-wht-blank_maps.png</href>
        </Icon>
      </IconStyle>
      <LabelStyle>
        <scale>1</scale>
      </LabelStyle>
    </Style>
    <StyleMap id="icon-1769-A52714">
      <Pair>
        <key>normal</key>
        <styleUrl>#icon-1769-A52714-normal</styleUrl>
      </Pair>
      <Pair>
        <key>highlight</key>
        <styleUrl>#icon-1769-A52714-highlight</styleUrl>
      </Pair>
    </StyleMap>
    <Style id="icon-1892-000000-normal">
      <IconStyle>
        <color>ff000000</color>
        <scale>1</scale>
        <Icon>
          <href>https://www.gstatic.com/mapspro/images/stock/503-wht-blank_maps.png</href>
        </Icon>
      </IconStyle>
      <LabelStyle>
        <scale>0</scale>
      </LabelStyle>
    </Style>
    <Style id="icon-1892-000000-highlight">
      <IconStyle>
        <color>ff000000</color>
        <scale>1</scale>
        <Icon>
          <href>https://www.gstatic.com/mapspro/images/stock/503-wht-blank_maps.png</href>
        </Icon>
      </IconStyle>
      <LabelStyle>
        <scale>1</scale>
      </LabelStyle>
    </Style>
    <StyleMap id="icon-1892-000000">
      <Pair>
        <key>normal</key>
        <styleUrl>#icon-1892-000000-normal</styleUrl>
      </Pair>
      <Pair>
        <key>highlight</key>
        <styleUrl>#icon-1892-000000-highlight</styleUrl>
      </Pair>
    </StyleMap>
    <Style id="icon-1892-A52714-normal">
      <IconStyle>
        <color>ff1427a5</color>
        <scale>1</scale>
        <Icon>
          <href>https://www.gstatic.com/mapspro/images/stock/503-wht-blank_maps.png</href>
        </Icon>
      </IconStyle>
      <LabelStyle>
        <scale>0</scale>
      </LabelStyle>
    </Style>
    <Style id="icon-1892-A52714-highlight">
      <IconStyle>
        <color>ff1427a5</color>
        <scale>1</scale>
        <Icon>
          <href>https://www.gstatic.com/mapspro/images/stock/503-wht-blank_maps.png</href>
        </Icon>
      </IconStyle>
      <LabelStyle>
        <scale>1</scale>
      </LabelStyle>
    </Style>
    <StyleMap id="icon-1892-A52714">
      <Pair>
        <key>normal</key>
        <styleUrl>#icon-1892-A52714-normal</styleUrl>
      </Pair>
      <Pair>
        <key>highlight</key>
        <styleUrl>#icon-1892-A52714-highlight</styleUrl>
      </Pair>
    </StyleMap>
    <Style id="line-000000-5263-nodesc-normal">
      <LineStyle>
        <color>ff000000</color>
        <width>5.263</width>
      </LineStyle>
      <BalloonStyle>
        <text><![CDATA[<h3>$[name]</h3>]]></text>
      </BalloonStyle>
    </Style>
    <Style id="line-000000-5263-nodesc-highlight">
      <LineStyle>
        <color>ff000000</color>
        <width>7.8945</width>
      </LineStyle>
      <BalloonStyle>
        <text><![CDATA[<h3>$[name]</h3>]]></text>
      </BalloonStyle>
    </Style>
    <StyleMap id="line-000000-5263-nodesc">
      <Pair>
        <key>normal</key>
        <styleUrl>#line-000000-5263-nodesc-normal</styleUrl>
      </Pair>
      <Pair>
        <key>highlight</key>
        <styleUrl>#line-000000-5263-nodesc-highlight</styleUrl>
      </Pair>
    </StyleMap>
    <Style id="line-A52714-5263-nodesc-normal">
      <LineStyle>
        <color>ff1427a5</color>
        <width>5.263</width>
      </LineStyle>
      <BalloonStyle>
        <text><![CDATA[<h3>$[name]</h3>]]></text>
      </BalloonStyle>
    </Style>
    <Style id="line-A52714-5263-nodesc-highlight">
      <LineStyle>
        <color>ff1427a5</color>
        <width>7.8945</width>
      </LineStyle>
      <BalloonStyle>
        <text><![CDATA[<h3>$[name]</h3>]]></text>
      </BalloonStyle>
    </Style>
    <StyleMap id="line-A52714-5263-nodesc">
      <Pair>
        <key>normal</key>
        <styleUrl>#line-A52714-5263-nodesc-normal</styleUrl>
      </Pair>
      <Pair>
        <key>highlight</key>
        <styleUrl>#line-A52714-5263-nodesc-highlight</styleUrl>
      </Pair>
    </StyleMap>
    <Folder>
      <name>Маршрут туда</name>
      <Placemark>
        <name>Линия маршрута</name>
        <styleUrl>#line-A52714-5263-nodesc</styleUrl>
        <LineString>
          <tessellate>1</tessellate>
          <coordinates>
            36.398805,49.9450361,0
            36.4003178,49.9445735,0
            36.3987943,49.942661,0
            36.3955971,49.9437243,0
            36.3875934,49.9426472,0
            36.3822075,49.9444562,0
            36.3764891,49.9463479,0
            36.3733992,49.9473421,0
            36.3744935,49.9487229,0
            36.3769504,49.9518156,0
            36.3780984,49.9532653,0
            36.3767144,49.9537623,0
            36.3720151,49.9553845,0
            36.3685068,49.956551,0
            36.3655564,49.957545,0
            36.3616404,49.9586977,0
            36.3621553,49.9593051,0
            36.3618549,49.9594569,0
            36.3597521,49.9601817,0
            36.356115,49.9613826,0
            36.3549241,49.9617691,0
            36.3542482,49.9619762,0
            36.3537654,49.9621487,0
            36.3529178,49.962549,0
            36.3524136,49.9628665,0
            36.3520488,49.9632254,0
            36.3517484,49.9636188,0
            36.3513407,49.9642606,0
            36.3498172,49.9669245,0
            36.3486155,49.9690569,0
            36.3469097,49.9721553,0
            36.3453218,49.9751982,0
            36.3437125,49.9783376,0
            36.3428971,49.9799175,0
            36.3422748,49.9813112,0
            36.3420173,49.9819597,0
            36.3410732,49.9847606,0
            36.3404616,49.9866162,0
            36.3403329,49.9870439,0
            36.3403007,49.9875337,0
            36.3403758,49.9884512,0
            36.3403758,49.9891961,0
            36.3403651,49.9907412,0
            36.3404294,49.9942727,0
            36.3404724,49.9967212,0
            36.3404938,49.9994109,0
            36.3405904,50.0002039,0
            36.340805,50.0008039,0
            36.3414916,50.0022521,0
            36.341792,50.0030107,0
            36.3420173,50.0036796,0
            36.3422212,50.004314,0
            36.3424357,50.0047001,0
            36.3429829,50.0051897,0
            36.3434228,50.0055069,0
            36.343927,50.0057069,0
            36.3446995,50.0059827,0
            36.345075,50.0062723,0
            36.3468024,50.0076652,0
            36.3484224,50.0090166,0
            36.3499996,50.0102991,0
            36.3500639,50.0105542,0
            36.3506755,50.0110713,0
            36.3530144,50.0130639,0
            36.355879,50.0154493,0
            36.3583251,50.0174417,0
            36.3606318,50.0192547,0
            36.3608679,50.0193306,0
            36.3610288,50.0194822,0
            36.3637969,50.0217984,0
            36.3666293,50.0241489,0
            36.3683137,50.0256309,0
            36.3682922,50.0257894,0
            36.3681742,50.0259135,0
            36.3679811,50.026072,0
            36.3674554,50.0262581,0
            36.3669726,50.02652,0
            36.3664898,50.0265407,0
            36.3654491,50.0267061,0
            36.3639256,50.0269749,0
            36.3612434,50.0274092,0
            36.3596984,50.0276642,0
            36.3585397,50.0278641,0
            36.3576707,50.027995,0
            36.3564583,50.0281122,0
            36.3550421,50.0281467,0
            36.354216,50.0282087,0
            36.354495,50.0284775,0
            36.3563296,50.030614,0
            36.3581535,50.0327574,0
            36.3590762,50.0337636,0
            36.3598272,50.0345492,0
            36.3615009,50.0365408,0
            36.3630887,50.038298,0
            36.3646766,50.0400965,0
            36.3652667,50.0407442,0
            36.3646552,50.0408613,0
            36.3643548,50.0407166,0
            36.3643579,50.0405638,0
          </coordinates>
        </LineString>
      </Placemark>
      <Placemark>
        <name>Станция метро Индустриальная
</name>
        <description>Автобус- 7, 45, 70. Маршрутка-121э. Троллейбус -45, 46, 51, 52, 53.</description>
        <styleUrl>#icon-1499-A52714</styleUrl>
        <Point>
          <coordinates>
            36.3981809,49.945437,0
          </coordinates>
        </Point>
      </Placemark>
      <Placemark>
        <name>Остановка Поликлиника №11 
</name>
        <description>Автобус- 45, 70, 204, 252. Маршрутка -121э, 252э. Троллейбус-45, 51, 52.</description>
        <styleUrl>#icon-1624-A52714</styleUrl>
        <Point>
          <coordinates>
            36.3994472,49.9435317,0
          </coordinates>
        </Point>
      </Placemark>
      <Placemark>
        <name>Остановка ул. Мира
</name>
        <description>Автобус- 204.</description>
        <styleUrl>#icon-1532-A52714</styleUrl>
        <Point>
          <coordinates>
            36.3951311,49.943603,0
          </coordinates>
        </Point>
      </Placemark>
      <Placemark>
        <name>Остановка ул. 12 Апреля
</name>
        <description>Автобус- 204.</description>
        <styleUrl>#icon-1532-A52714</styleUrl>
        <Point>
          <coordinates>
            36.3873938,49.9426553,0
          </coordinates>
        </Point>
      </Placemark>
      <Placemark>
        <name>Остановка пр. Индустриальнный
</name>
        <description>Автобус- 204.</description>
        <styleUrl>#icon-1532-A52714</styleUrl>
        <Point>
          <coordinates>
            36.3797152,49.9453461,0
          </coordinates>
        </Point>
      </Placemark>
      <Placemark>
        <name>Остановка ул. Бекетова
</name>
        <description>Автобус- 204.</description>
        <styleUrl>#icon-1532-A52714</styleUrl>
        <Point>
          <coordinates>
            36.3762176,49.9464646,0
          </coordinates>
        </Point>
      </Placemark>
      <Placemark>
        <name>Остановка ул. Библика
</name>
        <description>Автобус- 64, 204, 224, 280.</description>
        <styleUrl>#icon-1532-A52714</styleUrl>
        <Point>
          <coordinates>
            36.3747155,49.949019,0
          </coordinates>
        </Point>
      </Placemark>
      <Placemark>
        <name>Станция метро Тракторный завод
</name>
        <description>Автобус-204. Маршрутка-121э.</description>
        <styleUrl>#icon-1626-A52714</styleUrl>
        <Point>
          <coordinates>
            36.3777153,49.953468,0
          </coordinates>
        </Point>
      </Placemark>
      <Placemark>
        <name>Остановка ул. Северина Потоцкого
</name>
        <description>Автобус-204. Маршрутка-121э.</description>
        <styleUrl>#icon-1532-A52714</styleUrl>
        <Point>
          <coordinates>
            36.37278,49.9551937,0
          </coordinates>
        </Point>
      </Placemark>
      <Placemark>
        <name>Остановка ул. Свистуна
</name>
        <description>Автобус-204. Маршрутка-121э.</description>
        <styleUrl>#icon-1532-A52714</styleUrl>
        <Point>
          <coordinates>
            36.3666278,49.9572645,0
          </coordinates>
        </Point>
      </Placemark>
      <Placemark>
        <name>Станция метро Масельского
</name>
        <description>Автобус-204. Маршрутка-121э.</description>
        <styleUrl>#icon-1626-A52714</styleUrl>
        <Point>
          <coordinates>
            36.3622076,49.958565,0
          </coordinates>
        </Point>
      </Placemark>
      <Placemark>
        <name>Остановка ул. Автогенная
</name>
        <description>Автобус-204, 228. Маршрутка-121э.</description>
        <styleUrl>#icon-1532-A52714</styleUrl>
        <Point>
          <coordinates>
            36.3568859,49.9611898,0
          </coordinates>
        </Point>
      </Placemark>
      <Placemark>
        <name>Остановка По требованию
</name>
        <description>Автобус-204, 228. Маршрутка-121э.</description>
        <styleUrl>#icon-1769-A52714</styleUrl>
        <Point>
          <coordinates>
            36.3511664,49.964661,0
          </coordinates>
        </Point>
      </Placemark>
      <Placemark>
        <name>Остановка ул. Немышлянская
</name>
        <description>Автобус-204, 228. Маршрутка-121э.</description>
        <styleUrl>#icon-1532-A52714</styleUrl>
        <Point>
          <coordinates>
            36.346018,49.9738576,0
          </coordinates>
        </Point>
      </Placemark>
      <Placemark>
        <name>Остановка ул. Краснодарская
</name>
        <description>Автобус-204, 228. Маршрутка-121э.</description>
        <styleUrl>#icon-1532-A52714</styleUrl>
        <Point>
          <coordinates>
            36.3428589,49.9801184,0
          </coordinates>
        </Point>
      </Placemark>
      <Placemark>
        <name>Остановка ул. Амосова
</name>
        <description>Автобус-204. Маршрутка-121э.</description>
        <styleUrl>#icon-1532-A52714</styleUrl>
        <Point>
          <coordinates>
            36.3414165,49.9843557,0
          </coordinates>
        </Point>
      </Placemark>
      <Placemark>
        <name>Остановка Салтовское шоссе
</name>
        <description>Автобус-204. Маршрутка-121э.</description>
        <styleUrl>#icon-1532-A52714</styleUrl>
        <Point>
          <coordinates>
            36.340482,49.9888352,0
          </coordinates>
        </Point>
      </Placemark>
      <Placemark>
        <name>Остановка Парк Победы
</name>
        <description>Автобус-83, 204. Маршрутка-121э.</description>
        <styleUrl>#icon-1720-A52714</styleUrl>
        <Point>
          <coordinates>
            36.3404532,49.9932199,0
          </coordinates>
        </Point>
      </Placemark>
      <Placemark>
        <name>Остановка пр. Юбилейный
</name>
        <description>Автобус- 204.</description>
        <styleUrl>#icon-1532-A52714</styleUrl>
        <Point>
          <coordinates>
            36.340598,49.9972052,0
          </coordinates>
        </Point>
      </Placemark>
      <Placemark>
        <name>Остановка ул. Василя Стуса
</name>
        <description>Автобус- 204.</description>
        <styleUrl>#icon-1532-A52714</styleUrl>
        <Point>
          <coordinates>
            36.340781,50.0006336,0
          </coordinates>
        </Point>
      </Placemark>
      <Placemark>
        <name>Остановка ул. Владислава Зубенко
</name>
        <description>Автобус- 204.</description>
        <styleUrl>#icon-1532-A52714</styleUrl>
        <Point>
          <coordinates>
            36.3418763,50.0028944,0
          </coordinates>
        </Point>
      </Placemark>
      <Placemark>
        <name>Остановка Сады
</name>
        <description>Автобус- 204.</description>
        <styleUrl>#icon-1582-A52714</styleUrl>
        <Point>
          <coordinates>
            36.3461084,50.0069254,0
          </coordinates>
        </Point>
      </Placemark>
      <Placemark>
        <name>Остановка ул. Валентиновская
</name>
        <description>Автобус- 204, 272.</description>
        <styleUrl>#icon-1532-A52714</styleUrl>
        <Point>
          <coordinates>
            36.3507771,50.0107191,0
          </coordinates>
        </Point>
      </Placemark>
      <Placemark>
        <name>Остановка 606 м/р
</name>
        <description>Автобус- 204, 272.</description>
        <styleUrl>#icon-1546-A52714</styleUrl>
        <Point>
          <coordinates>
            36.3565371,50.0158175,0
          </coordinates>
        </Point>
      </Placemark>
      <Placemark>
        <name>Остановка Региональный центр услуг
</name>
        <description>Автобус- 204, 272.</description>
        <styleUrl>#icon-1548-A52714</styleUrl>
        <Point>
          <coordinates>
            36.359433,50.0182333,0
          </coordinates>
        </Point>
      </Placemark>
      <Placemark>
        <name>Остановка Поликлиника №11 
</name>
        <description>Автобус- 204.</description>
        <styleUrl>#icon-1624-A52714</styleUrl>
        <Point>
          <coordinates>
            36.3647788,50.0225486,0
          </coordinates>
        </Point>
      </Placemark>
      <Placemark>
        <name>Остановка ул. Бучмы
</name>
        <description>Автобус- 204.</description>
        <styleUrl>#icon-1532-A52714</styleUrl>
        <Point>
          <coordinates>
            36.3681282,50.0254036,0
          </coordinates>
        </Point>
      </Placemark>
      <Placemark>
        <name>Остановка 531 м/р
</name>
        <description>Автобус- 204.</description>
        <styleUrl>#icon-1546-A52714</styleUrl>
        <Point>
          <coordinates>
            36.3600387,50.0275954,0
          </coordinates>
        </Point>
      </Placemark>
      <Placemark>
        <name>Остановка ул. Родниковая
</name>
        <description>Автобус- 107, 204. Маршрутка - 259э. Троллейбус-31, 35.</description>
        <styleUrl>#icon-1892-A52714</styleUrl>
        <Point>
          <coordinates>
            36.3573539,50.0316755,0
          </coordinates>
        </Point>
      </Placemark>
      <Placemark>
        <name>Остановка ул. Соборности Украины
</name>
        <description>Автобус- 107, 204. Маршрутка - 259э. Троллейбус-31, 35.</description>
        <styleUrl>#icon-1532-A52714</styleUrl>
        <Point>
          <coordinates>
            36.3603919,50.035011,0
          </coordinates>
        </Point>
      </Placemark>
      <Placemark>
        <name>Остановка ул. Метростроителей
</name>
        <description>Автобус- 107, 204. Маршрутка - 259э. Троллейбус-31, 35.</description>
        <styleUrl>#icon-1532-A52714</styleUrl>
        <Point>
          <coordinates>
            36.3632982,50.0385309,0
          </coordinates>
        </Point>
      </Placemark>
    </Folder>
    <Folder>
      <name>Маршрут обратно</name>
      <Placemark>
        <name>Линия маршрута</name>
        <styleUrl>#line-000000-5263-nodesc</styleUrl>
        <LineString>
          <tessellate>1</tessellate>
          <coordinates>
            36.3643579,50.0405638,0
            36.364374,50.0405328,0
            36.3644276,50.0403399,0
            36.3645081,50.0401504,0
            36.3640736,50.0396577,0
            36.3626091,50.0379901,0
            36.3613162,50.0365189,0
            36.3604472,50.0355404,0
            36.3597123,50.0346548,0
            36.3588969,50.0338003,0
            36.3584034,50.0332076,0
            36.3561074,50.0305956,0
            36.3546268,50.0288864,0
            36.3539831,50.028142,0
            36.354423,50.0280524,0
            36.3549594,50.0280317,0
            36.3564185,50.0279904,0
            36.357191,50.0279352,0
            36.3587789,50.0277078,0
            36.3607744,50.0273425,0
            36.3622872,50.0270875,0
            36.3637034,50.0268876,0
            36.3649801,50.0266464,0
            36.3662247,50.0264672,0
            36.3667719,50.0263569,0
            36.3672439,50.0262259,0
            36.3680164,50.0258882,0
            36.3681022,50.0256814,0
            36.3680379,50.0255091,0
            36.3671688,50.024806,0
            36.3651733,50.0231724,0
            36.3635103,50.02178,0
            36.3611607,50.019774,0
            36.360753,50.0194018,0
            36.3605384,50.0193604,0
            36.3603775,50.0192363,0
            36.3551311,50.0150034,0
            36.3498739,50.0105634,0
            36.3497881,50.0103289,0
            36.3463978,50.0075295,0
            36.3450889,50.006509,0
            36.3447456,50.0061918,0
            36.3444022,50.0060263,0
            36.3438658,50.0058333,0
            36.3432006,50.0055988,0
            36.3427071,50.0051437,0
            36.3421706,50.0047024,0
            36.3419346,50.0040266,0
            36.3417629,50.0035577,0
            36.3415484,50.0028543,0
            36.3413123,50.0024406,0
            36.3410977,50.0019992,0
            36.3407115,50.0011165,0
            36.3404111,50.0003993,0
            36.3403038,49.9993924,0
            36.3403038,49.9969786,0
            36.3403038,49.9945233,0
            36.3402394,49.9902469,0
            36.3400678,49.987736,0
            36.3402609,49.9867151,0
            36.3406686,49.9854872,0
            36.3410119,49.9842868,0
            36.3415698,49.9827691,0
            36.3420419,49.9814307,0
            36.3424925,49.9803544,0
            36.3431791,49.978947,0
            36.3438443,49.9776775,0
            36.3448099,49.975787,0
            36.3454107,49.9746002,0
            36.346269,49.9731098,0
            36.3467411,49.9721161,0
            36.3474492,49.9709016,0
            36.3478355,49.9701288,0
            36.3486723,49.968652,0
            36.3497452,49.9667887,0
            36.3506464,49.9650634,0
            36.3515476,49.9634761,0
            36.3519768,49.9629654,0
            36.3523416,49.9627031,0
            36.352878,49.9623994,0
            36.3534788,49.9620819,0
            36.3557104,49.9613504,0
            36.3586072,49.9603841,0
            36.3613323,49.9595006,0
            36.3619117,49.9592383,0
            36.3614182,49.9586309,0
            36.3649587,49.9575956,0
            36.3743142,49.9544341,0
            36.37749,49.9533435,0
            36.3778333,49.9532192,0
            36.3769428,49.9520664,0
            36.3731984,49.9473029,0
            36.3804404,49.9449348,0
            36.3874892,49.9425252,0
            36.3956217,49.9435609,0
            36.3988618,49.9424976,0
            36.4005784,49.9445965,0
            36.3974671,49.9455907,0
            36.397349,49.9454526,0
            36.3975851,49.9453007,0
            36.3981322,49.945135,0
            36.398497,49.9451005,0
            36.3987438,49.9450867,0
            36.3989262,49.9450108,0
          </coordinates>
        </LineString>
      </Placemark>
      <Placemark>
        <name>Остановка ул. Натальи Ужвий
</name>
        <description>Автобус- 107, 204. Маршрутка - 259э. Троллейбус-31, 35.</description>
        <styleUrl>#icon-1499-000000</styleUrl>
        <Point>
          <coordinates>
            36.3643594,50.0406493,0
          </coordinates>
        </Point>
      </Placemark>
      <Placemark>
        <name>Остановка ул. Метростроителей
</name>
        <description>Автобус- 107, 204. Маршрутка - 259э. Троллейбус-31, 35.</description>
        <styleUrl>#icon-1532-000000</styleUrl>
        <Point>
          <coordinates>
            36.3627489,50.0382794,0
          </coordinates>
        </Point>
      </Placemark>
      <Placemark>
        <name>Остановка ул. Соборности Украины
</name>
        <description>Автобус- 107, 204. Маршрутка - 259э. Троллейбус-31, 35.</description>
        <styleUrl>#icon-1532-000000</styleUrl>
        <Point>
          <coordinates>
            36.3600272,50.0353005,0
          </coordinates>
        </Point>
      </Placemark>
      <Placemark>
        <name>Остановка ул. Гвардейцев Широнинцев
</name>
        <description>Автобус- 107, 204. Маршрутка - 259э.</description>
        <styleUrl>#icon-1532-000000</styleUrl>
        <Point>
          <coordinates>
            36.3584054,50.0333981,0
          </coordinates>
        </Point>
      </Placemark>
      <Placemark>
        <name>Остановка ул. Родниковая
</name>
        <description>Автобус- 107, 204. Маршрутка - 259э. Троллейбус-31, 35.</description>
        <styleUrl>#icon-1892-000000</styleUrl>
        <Point>
          <coordinates>
            36.3566136,50.0312548,0
          </coordinates>
        </Point>
      </Placemark>
      <Placemark>
        <name>Остановка ул. Гвардейцев Широнинцев
</name>
        <description>Автобус- 204.</description>
        <styleUrl>#icon-1532-000000</styleUrl>
        <Point>
          <coordinates>
            36.355318,50.0279952,0
          </coordinates>
        </Point>
      </Placemark>
      <Placemark>
        <name>Остановка 531 м/р
</name>
        <description>Автобус- 204.</description>
        <styleUrl>#icon-1546-000000</styleUrl>
        <Point>
          <coordinates>
            36.3610043,50.0272646,0
          </coordinates>
        </Point>
      </Placemark>
      <Placemark>
        <name>Остановка пр. Тракторостроителей
</name>
        <description>Автобус- 204.</description>
        <styleUrl>#icon-1532-000000</styleUrl>
        <Point>
          <coordinates>
            36.3675274,50.0251141,0
          </coordinates>
        </Point>
      </Placemark>
      <Placemark>
        <name>Остановка Поликлиника №11
</name>
        <description>Автобус- 204.</description>
        <styleUrl>#icon-1624-000000</styleUrl>
        <Point>
          <coordinates>
            36.3652509,50.0231222,0
          </coordinates>
        </Point>
      </Placemark>
      <Placemark>
        <name>Остановка Региональный центр услуг
</name>
        <description>Автобус- 204, 272.</description>
        <styleUrl>#icon-1548-000000</styleUrl>
        <Point>
          <coordinates>
            36.3597549,50.0190398,0
          </coordinates>
        </Point>
      </Placemark>
      <Placemark>
        <name>Остановка 606 м/р
</name>
        <description>Автобус- 204, 272.</description>
        <styleUrl>#icon-1546-000000</styleUrl>
        <Point>
          <coordinates>
            36.356301,50.0159278,0
          </coordinates>
        </Point>
      </Placemark>
      <Placemark>
        <name>Остановка ул. Валентиновская
</name>
        <description>Автобус- 204, 272.</description>
        <styleUrl>#icon-1532-000000</styleUrl>
        <Point>
          <coordinates>
            36.3504123,50.0111604,0
          </coordinates>
        </Point>
      </Placemark>
      <Placemark>
        <name>Остановка Сады
</name>
        <description>Автобус- 204.</description>
        <styleUrl>#icon-1582-000000</styleUrl>
        <Point>
          <coordinates>
            36.345636,50.0071216,0
          </coordinates>
        </Point>
      </Placemark>
      <Placemark>
        <name>Остановка ул. Владислва Зубенка
</name>
        <description>Автобус- 204.</description>
        <styleUrl>#icon-1532-000000</styleUrl>
        <Point>
          <coordinates>
            36.34149,50.0031357,0
          </coordinates>
        </Point>
      </Placemark>
      <Placemark>
        <name>Остановка ул. Василя Стуса
</name>
        <description>Автобус- 204.</description>
        <styleUrl>#icon-1532-000000</styleUrl>
        <Point>
          <coordinates>
            36.3403635,49.9998299,0
          </coordinates>
        </Point>
      </Placemark>
      <Placemark>
        <name>Остановка пр. Юбилейный</name>
        <description>Автобус-83, 204. Маршрутка-121э.</description>
        <styleUrl>#icon-1532-000000</styleUrl>
        <Point>
          <coordinates>
            36.3402878,49.9959711,0
          </coordinates>
        </Point>
      </Placemark>
      <Placemark>
        <name>Остановка Парк Победы</name>
        <description>Автобус-83, 204. Маршрутка-121э.</description>
        <styleUrl>#icon-1720-000000</styleUrl>
        <Point>
          <coordinates>
            36.3401543,49.9927191,0
          </coordinates>
        </Point>
      </Placemark>
      <Placemark>
        <name>Остановка ш. Салтовское</name>
        <description>Автобус-204. Маршрутка-121э.</description>
        <styleUrl>#icon-1532-000000</styleUrl>
        <Point>
          <coordinates>
            36.3400518,49.987463,0
          </coordinates>
        </Point>
      </Placemark>
      <Placemark>
        <name>Остановка ул. Амосова</name>
        <description>Автобус-204. Маршрутка-121э.</description>
        <styleUrl>#icon-1532-000000</styleUrl>
        <Point>
          <coordinates>
            36.3413178,49.9840965,0
          </coordinates>
        </Point>
      </Placemark>
      <Placemark>
        <name>Остановка ул. Краснодарская</name>
        <description>Автобус-204, 228. Маршрутка-121э.</description>
        <styleUrl>#icon-1532-000000</styleUrl>
        <Point>
          <coordinates>
            36.3428198,49.9794604,0
          </coordinates>
        </Point>
      </Placemark>
      <Placemark>
        <name>Остановка ул. Немышлянская</name>
        <description>Автобус-204, 228. Маршрутка-121э.</description>
        <styleUrl>#icon-1532-000000</styleUrl>
        <Point>
          <coordinates>
            36.3461887,49.972816,0
          </coordinates>
        </Point>
      </Placemark>
      <Placemark>
        <name>Остановка по требованию</name>
        <description>Автобус-204, 228. Маршрутка-121э.</description>
        <styleUrl>#icon-1769-000000</styleUrl>
        <Point>
          <coordinates>
            36.3511886,49.9642034,0
          </coordinates>
        </Point>
      </Placemark>
      <Placemark>
        <name>Остановка ул. Автогенная</name>
        <description>Автобус-204, 228. Маршрутка-121э.</description>
        <styleUrl>#icon-1532-000000</styleUrl>
        <Point>
          <coordinates>
            36.3577118,49.9607318,0
          </coordinates>
        </Point>
      </Placemark>
      <Placemark>
        <name>Станция метро Масельського</name>
        <description>Автобус-204. Маршрутка-121э.</description>
        <styleUrl>#icon-1626-000000</styleUrl>
        <Point>
          <coordinates>
            36.3622158,49.9583217,0
          </coordinates>
        </Point>
      </Placemark>
      <Placemark>
        <name>Остановка ул. Свистуна</name>
        <description>Автобус-204. Маршрутка-121э.</description>
        <styleUrl>#icon-1532-000000</styleUrl>
        <Point>
          <coordinates>
            36.3664609,49.9570953,0
          </coordinates>
        </Point>
      </Placemark>
      <Placemark>
        <name>Остановка ул. Северина Потоцкого</name>
        <description>Автобус-204. Маршрутка-121э.</description>
        <styleUrl>#icon-1532-000000</styleUrl>
        <Point>
          <coordinates>
            36.3723832,49.9550383,0
          </coordinates>
        </Point>
      </Placemark>
      <Placemark>
        <name>Станция метро Тракторный завод</name>
        <description>Автобус-204. Маршрутка-121э.</description>
        <styleUrl>#icon-1626-000000</styleUrl>
        <Point>
          <coordinates>
            36.3777334,49.953062,0
          </coordinates>
        </Point>
      </Placemark>
      <Placemark>
        <name>Остановка ул. Библика
</name>
        <description>Автобус- 64, 204, 224, 280.</description>
        <styleUrl>#icon-1532-000000</styleUrl>
        <Point>
          <coordinates>
            36.3742006,49.9485634,0
          </coordinates>
        </Point>
      </Placemark>
      <Placemark>
        <name>Остановка ул. Бекетова
</name>
        <description>Автобус- 204.</description>
        <styleUrl>#icon-1532-000000</styleUrl>
        <Point>
          <coordinates>
            36.3763249,49.946147,0
          </coordinates>
        </Point>
      </Placemark>
      <Placemark>
        <name>Остановка пр. Индустриальный 
</name>
        <description>Автобус- 204.</description>
        <styleUrl>#icon-1532-000000</styleUrl>
        <Point>
          <coordinates>
            36.3814318,49.9445867,0
          </coordinates>
        </Point>
      </Placemark>
      <Placemark>
        <name>Остановка ул. 12 Апреля
</name>
        <description>Автобус- 204.</description>
        <styleUrl>#icon-1532-000000</styleUrl>
        <Point>
          <coordinates>
            36.3885109,49.9426707,0
          </coordinates>
        </Point>
      </Placemark>
      <Placemark>
        <name>Остановка ул. Мира
</name>
        <description>Автобус- 204.</description>
        <styleUrl>#icon-1532-000000</styleUrl>
        <Point>
          <coordinates>
            36.3954422,49.9434994,0
          </coordinates>
        </Point>
      </Placemark>
      <Placemark>
        <name>Остановка 18 поликлиника
</name>
        <description>Автобус- 45, 70, 204, 252. Маршрутка -121э, 252э. Троллейбус-45, 51, 52.</description>
        <styleUrl>#icon-1624-000000</styleUrl>
        <Point>
          <coordinates>
            36.3995146,49.9433631,0
          </coordinates>
        </Point>
      </Placemark>
      <Placemark>
        <name>Станция метро Индустриальная</name>
        <description>Автобус- 7, 45, 70. Маршрутка-121э. Троллейбус -45, 46, 51, 52, 53.</description>
        <styleUrl>#icon-1626-000000</styleUrl>
        <Point>
          <coordinates>
            36.397849,49.9451557,0
          </coordinates>
        </Point>
      </Placemark>
    </Folder>
  </Document>
</kml>
