<?xml version="1.0" encoding="UTF-8"?>
<kml xmlns="http://www.opengis.net/kml/2.2">
  <Document>
    <name>Автобусный маршрут №81 Харьков (метро Академика Барабашова-626 м/р) kharkiv.inform.city</name>
    <description>Подробно https://kharkiv.inform.city/-ru/-tr/tr_city/tr_city_a/</description>
    <Style id="icon-1499-000000-normal">
      <IconStyle>
        <color>ff000000</color>
        <scale>1</scale>
        <Icon>
          <href>https://www.gstatic.com/mapspro/images/stock/503-wht-blank_maps.png</href>
        </Icon>
      </IconStyle>
      <LabelStyle>
        <scale>0</scale>
      </LabelStyle>
    </Style>
    <Style id="icon-1499-000000-highlight">
      <IconStyle>
        <color>ff000000</color>
        <scale>1</scale>
        <Icon>
          <href>https://www.gstatic.com/mapspro/images/stock/503-wht-blank_maps.png</href>
        </Icon>
      </IconStyle>
      <LabelStyle>
        <scale>1</scale>
      </LabelStyle>
    </Style>
    <StyleMap id="icon-1499-000000">
      <Pair>
        <key>normal</key>
        <styleUrl>#icon-1499-000000-normal</styleUrl>
      </Pair>
      <Pair>
        <key>highlight</key>
        <styleUrl>#icon-1499-000000-highlight</styleUrl>
      </Pair>
    </StyleMap>
    <Style id="icon-1499-A52714-normal">
      <IconStyle>
        <color>ff1427a5</color>
        <scale>1</scale>
        <Icon>
          <href>https://www.gstatic.com/mapspro/images/stock/503-wht-blank_maps.png</href>
        </Icon>
      </IconStyle>
      <LabelStyle>
        <scale>0</scale>
      </LabelStyle>
    </Style>
    <Style id="icon-1499-A52714-highlight">
      <IconStyle>
        <color>ff1427a5</color>
        <scale>1</scale>
        <Icon>
          <href>https://www.gstatic.com/mapspro/images/stock/503-wht-blank_maps.png</href>
        </Icon>
      </IconStyle>
      <LabelStyle>
        <scale>1</scale>
      </LabelStyle>
    </Style>
    <StyleMap id="icon-1499-A52714">
      <Pair>
        <key>normal</key>
        <styleUrl>#icon-1499-A52714-normal</styleUrl>
      </Pair>
      <Pair>
        <key>highlight</key>
        <styleUrl>#icon-1499-A52714-highlight</styleUrl>
      </Pair>
    </StyleMap>
    <Style id="icon-1532-000000-normal">
      <IconStyle>
        <color>ff000000</color>
        <scale>1</scale>
        <Icon>
          <href>https://www.gstatic.com/mapspro/images/stock/503-wht-blank_maps.png</href>
        </Icon>
      </IconStyle>
      <LabelStyle>
        <scale>0</scale>
      </LabelStyle>
    </Style>
    <Style id="icon-1532-000000-highlight">
      <IconStyle>
        <color>ff000000</color>
        <scale>1</scale>
        <Icon>
          <href>https://www.gstatic.com/mapspro/images/stock/503-wht-blank_maps.png</href>
        </Icon>
      </IconStyle>
      <LabelStyle>
        <scale>1</scale>
      </LabelStyle>
    </Style>
    <StyleMap id="icon-1532-000000">
      <Pair>
        <key>normal</key>
        <styleUrl>#icon-1532-000000-normal</styleUrl>
      </Pair>
      <Pair>
        <key>highlight</key>
        <styleUrl>#icon-1532-000000-highlight</styleUrl>
      </Pair>
    </StyleMap>
    <Style id="icon-1532-A52714-normal">
      <IconStyle>
        <color>ff1427a5</color>
        <scale>1</scale>
        <Icon>
          <href>https://www.gstatic.com/mapspro/images/stock/503-wht-blank_maps.png</href>
        </Icon>
      </IconStyle>
      <LabelStyle>
        <scale>0</scale>
      </LabelStyle>
    </Style>
    <Style id="icon-1532-A52714-highlight">
      <IconStyle>
        <color>ff1427a5</color>
        <scale>1</scale>
        <Icon>
          <href>https://www.gstatic.com/mapspro/images/stock/503-wht-blank_maps.png</href>
        </Icon>
      </IconStyle>
      <LabelStyle>
        <scale>1</scale>
      </LabelStyle>
    </Style>
    <StyleMap id="icon-1532-A52714">
      <Pair>
        <key>normal</key>
        <styleUrl>#icon-1532-A52714-normal</styleUrl>
      </Pair>
      <Pair>
        <key>highlight</key>
        <styleUrl>#icon-1532-A52714-highlight</styleUrl>
      </Pair>
    </StyleMap>
    <Style id="icon-1546-000000-normal">
      <IconStyle>
        <color>ff000000</color>
        <scale>1</scale>
        <Icon>
          <href>https://www.gstatic.com/mapspro/images/stock/503-wht-blank_maps.png</href>
        </Icon>
      </IconStyle>
      <LabelStyle>
        <scale>0</scale>
      </LabelStyle>
    </Style>
    <Style id="icon-1546-000000-highlight">
      <IconStyle>
        <color>ff000000</color>
        <scale>1</scale>
        <Icon>
          <href>https://www.gstatic.com/mapspro/images/stock/503-wht-blank_maps.png</href>
        </Icon>
      </IconStyle>
      <LabelStyle>
        <scale>1</scale>
      </LabelStyle>
    </Style>
    <StyleMap id="icon-1546-000000">
      <Pair>
        <key>normal</key>
        <styleUrl>#icon-1546-000000-normal</styleUrl>
      </Pair>
      <Pair>
        <key>highlight</key>
        <styleUrl>#icon-1546-000000-highlight</styleUrl>
      </Pair>
    </StyleMap>
    <Style id="icon-1546-A52714-normal">
      <IconStyle>
        <color>ff1427a5</color>
        <scale>1</scale>
        <Icon>
          <href>https://www.gstatic.com/mapspro/images/stock/503-wht-blank_maps.png</href>
        </Icon>
      </IconStyle>
      <LabelStyle>
        <scale>0</scale>
      </LabelStyle>
    </Style>
    <Style id="icon-1546-A52714-highlight">
      <IconStyle>
        <color>ff1427a5</color>
        <scale>1</scale>
        <Icon>
          <href>https://www.gstatic.com/mapspro/images/stock/503-wht-blank_maps.png</href>
        </Icon>
      </IconStyle>
      <LabelStyle>
        <scale>1</scale>
      </LabelStyle>
    </Style>
    <StyleMap id="icon-1546-A52714">
      <Pair>
        <key>normal</key>
        <styleUrl>#icon-1546-A52714-normal</styleUrl>
      </Pair>
      <Pair>
        <key>highlight</key>
        <styleUrl>#icon-1546-A52714-highlight</styleUrl>
      </Pair>
    </StyleMap>
    <Style id="icon-1619-000000-normal">
      <IconStyle>
        <color>ff000000</color>
        <scale>1</scale>
        <Icon>
          <href>https://www.gstatic.com/mapspro/images/stock/503-wht-blank_maps.png</href>
        </Icon>
      </IconStyle>
      <LabelStyle>
        <scale>0</scale>
      </LabelStyle>
    </Style>
    <Style id="icon-1619-000000-highlight">
      <IconStyle>
        <color>ff000000</color>
        <scale>1</scale>
        <Icon>
          <href>https://www.gstatic.com/mapspro/images/stock/503-wht-blank_maps.png</href>
        </Icon>
      </IconStyle>
      <LabelStyle>
        <scale>1</scale>
      </LabelStyle>
    </Style>
    <StyleMap id="icon-1619-000000">
      <Pair>
        <key>normal</key>
        <styleUrl>#icon-1619-000000-normal</styleUrl>
      </Pair>
      <Pair>
        <key>highlight</key>
        <styleUrl>#icon-1619-000000-highlight</styleUrl>
      </Pair>
    </StyleMap>
    <Style id="icon-1619-A52714-normal">
      <IconStyle>
        <color>ff1427a5</color>
        <scale>1</scale>
        <Icon>
          <href>https://www.gstatic.com/mapspro/images/stock/503-wht-blank_maps.png</href>
        </Icon>
      </IconStyle>
      <LabelStyle>
        <scale>0</scale>
      </LabelStyle>
    </Style>
    <Style id="icon-1619-A52714-highlight">
      <IconStyle>
        <color>ff1427a5</color>
        <scale>1</scale>
        <Icon>
          <href>https://www.gstatic.com/mapspro/images/stock/503-wht-blank_maps.png</href>
        </Icon>
      </IconStyle>
      <LabelStyle>
        <scale>1</scale>
      </LabelStyle>
    </Style>
    <StyleMap id="icon-1619-A52714">
      <Pair>
        <key>normal</key>
        <styleUrl>#icon-1619-A52714-normal</styleUrl>
      </Pair>
      <Pair>
        <key>highlight</key>
        <styleUrl>#icon-1619-A52714-highlight</styleUrl>
      </Pair>
    </StyleMap>
    <Style id="icon-1624-A52714-normal">
      <IconStyle>
        <color>ff1427a5</color>
        <scale>1</scale>
        <Icon>
          <href>https://www.gstatic.com/mapspro/images/stock/503-wht-blank_maps.png</href>
        </Icon>
      </IconStyle>
      <LabelStyle>
        <scale>0</scale>
      </LabelStyle>
    </Style>
    <Style id="icon-1624-A52714-highlight">
      <IconStyle>
        <color>ff1427a5</color>
        <scale>1</scale>
        <Icon>
          <href>https://www.gstatic.com/mapspro/images/stock/503-wht-blank_maps.png</href>
        </Icon>
      </IconStyle>
      <LabelStyle>
        <scale>1</scale>
      </LabelStyle>
    </Style>
    <StyleMap id="icon-1624-A52714">
      <Pair>
        <key>normal</key>
        <styleUrl>#icon-1624-A52714-normal</styleUrl>
      </Pair>
      <Pair>
        <key>highlight</key>
        <styleUrl>#icon-1624-A52714-highlight</styleUrl>
      </Pair>
    </StyleMap>
    <Style id="icon-1700-A52714-normal">
      <IconStyle>
        <color>ff1427a5</color>
        <scale>1</scale>
        <Icon>
          <href>https://www.gstatic.com/mapspro/images/stock/503-wht-blank_maps.png</href>
        </Icon>
      </IconStyle>
      <LabelStyle>
        <scale>0</scale>
      </LabelStyle>
    </Style>
    <Style id="icon-1700-A52714-highlight">
      <IconStyle>
        <color>ff1427a5</color>
        <scale>1</scale>
        <Icon>
          <href>https://www.gstatic.com/mapspro/images/stock/503-wht-blank_maps.png</href>
        </Icon>
      </IconStyle>
      <LabelStyle>
        <scale>1</scale>
      </LabelStyle>
    </Style>
    <StyleMap id="icon-1700-A52714">
      <Pair>
        <key>normal</key>
        <styleUrl>#icon-1700-A52714-normal</styleUrl>
      </Pair>
      <Pair>
        <key>highlight</key>
        <styleUrl>#icon-1700-A52714-highlight</styleUrl>
      </Pair>
    </StyleMap>
    <Style id="line-000000-5263-nodesc-normal">
      <LineStyle>
        <color>ff000000</color>
        <width>5.263</width>
      </LineStyle>
      <BalloonStyle>
        <text><![CDATA[<h3>$[name]</h3>]]></text>
      </BalloonStyle>
    </Style>
    <Style id="line-000000-5263-nodesc-highlight">
      <LineStyle>
        <color>ff000000</color>
        <width>7.8945</width>
      </LineStyle>
      <BalloonStyle>
        <text><![CDATA[<h3>$[name]</h3>]]></text>
      </BalloonStyle>
    </Style>
    <StyleMap id="line-000000-5263-nodesc">
      <Pair>
        <key>normal</key>
        <styleUrl>#line-000000-5263-nodesc-normal</styleUrl>
      </Pair>
      <Pair>
        <key>highlight</key>
        <styleUrl>#line-000000-5263-nodesc-highlight</styleUrl>
      </Pair>
    </StyleMap>
    <Style id="line-A52714-5456-nodesc-normal">
      <LineStyle>
        <color>ff1427a5</color>
        <width>5.456</width>
      </LineStyle>
      <BalloonStyle>
        <text><![CDATA[<h3>$[name]</h3>]]></text>
      </BalloonStyle>
    </Style>
    <Style id="line-A52714-5456-nodesc-highlight">
      <LineStyle>
        <color>ff1427a5</color>
        <width>8.184</width>
      </LineStyle>
      <BalloonStyle>
        <text><![CDATA[<h3>$[name]</h3>]]></text>
      </BalloonStyle>
    </Style>
    <StyleMap id="line-A52714-5456-nodesc">
      <Pair>
        <key>normal</key>
        <styleUrl>#line-A52714-5456-nodesc-normal</styleUrl>
      </Pair>
      <Pair>
        <key>highlight</key>
        <styleUrl>#line-A52714-5456-nodesc-highlight</styleUrl>
      </Pair>
    </StyleMap>
    <Folder>
      <name>Маршрут туда</name>
      <Placemark>
        <name>Линия маршрута</name>
        <styleUrl>#line-A52714-5456-nodesc</styleUrl>
        <LineString>
          <tessellate>1</tessellate>
          <coordinates>
            36.3050962,50.0021376,0
            36.3052847,50.0023061,0
            36.305671,50.0022785,0
            36.3062074,50.0022026,0
            36.3073125,50.0019475,0
            36.308085,50.0016578,0
            36.3109925,50.0004372,0
            36.3154235,49.998451,0
            36.3158205,49.9983476,0
            36.3161209,49.9983338,0
            36.3239529,49.99772,0
            36.3316669,49.9971613,0
            36.338351,49.9966648,0
            36.3394561,49.9965889,0
            36.3408186,49.9965199,0
            36.3421168,49.996513,0
            36.345711,49.9964992,0
            36.3469019,49.996451,0
            36.3485756,49.9964096,0
            36.3502493,49.9962923,0
            36.3512685,49.9961475,0
            36.3535109,49.9957406,0
            36.3552274,49.9952784,0
            36.3558765,49.9950336,0
            36.3563325,49.9947957,0
            36.357341,49.9943405,0
            36.3598409,49.992423,0
            36.3615146,49.9909676,0
            36.3584461,49.9905814,0
            36.358532,49.9901123,0
            36.3589289,49.9890914,0
            36.3597336,49.9861735,0
            36.360152,49.984849,0
            36.3607635,49.984849,0
            36.3637784,49.9855872,0
            36.3639071,49.985663,0
            36.3644543,49.9843109,0
            36.3662889,49.9812065,0
            36.3661709,49.9809995,0
            36.3657417,49.9807994,0
            36.3619805,49.9801894,0
          </coordinates>
        </LineString>
      </Placemark>
      <Placemark>
        <name>Станция метро Академика Барабашова </name>
        <description>Маршрутка-38э.</description>
        <styleUrl>#icon-1499-A52714</styleUrl>
        <Point>
          <coordinates>
            36.3047525,50.0019343,0
          </coordinates>
        </Point>
      </Placemark>
      <Placemark>
        <name>Остановка пр. Юбилейный</name>
        <description>Маршрутка-38э, 121э, 259э. Автобус - 83, 170 Троллейбус-19, 20, 24, 31, 35. </description>
        <styleUrl>#icon-1532-A52714</styleUrl>
        <Point>
          <coordinates>
            36.3169941,49.9981414,0
          </coordinates>
        </Point>
      </Placemark>
      <Placemark>
        <name>Остановка ул. Гвардейцев-Широнинцев</name>
        <description>Маршрутка-38э, 121э. Автобус - 83, 170 Троллейбус-19, 20, 24.</description>
        <styleUrl>#icon-1532-A52714</styleUrl>
        <Point>
          <coordinates>
            36.3296764,49.9972136,0
          </coordinates>
        </Point>
      </Placemark>
      <Placemark>
        <name>Остановка 6-я поликлиника</name>
        <description>Маршрутка-38э, 121э. Автобус - 83, 170 Троллейбус-19, 20, 24.</description>
        <styleUrl>#icon-1532-A52714</styleUrl>
        <Point>
          <coordinates>
            36.3358898,49.9967174,0
          </coordinates>
        </Point>
      </Placemark>
      <Placemark>
        <name>Остановка пр. Тракторостроителей</name>
        <description>Маршрутка-38э Автобус - 63, 81. Троллейбус-19, 20, 24.</description>
        <styleUrl>#icon-1532-A52714</styleUrl>
        <Point>
          <coordinates>
            36.341383,49.996407,0
          </coordinates>
        </Point>
      </Placemark>
      <Placemark>
        <name>Остановка ул. Познанская</name>
        <description>Маршрутка-38э. Автобус - 63, 81. Троллейбус-19, 20, 24.</description>
        <styleUrl>#icon-1532-A52714</styleUrl>
        <Point>
          <coordinates>
            36.3516674,49.9960156,0
          </coordinates>
        </Point>
      </Placemark>
      <Placemark>
        <name>Остановка Салтовский РЭМ</name>
        <description>Маршрутка-38э Автобус - 63, 81. Троллейбус-19, 20, 24.</description>
        <styleUrl>#icon-1619-A52714</styleUrl>
        <Point>
          <coordinates>
            36.356871,49.9944569,0
          </coordinates>
        </Point>
      </Placemark>
      <Placemark>
        <name>Остановка 602 микрорайон</name>
        <description>Маршрутка-38э. Автобус - 81.</description>
        <styleUrl>#icon-1546-A52714</styleUrl>
        <Point>
          <coordinates>
            36.3595424,49.9921118,0
          </coordinates>
        </Point>
      </Placemark>
      <Placemark>
        <name>Остановка Медкомплекс 
</name>
        <description>Автобус-81, 249.</description>
        <styleUrl>#icon-1624-A52714</styleUrl>
        <Point>
          <coordinates>
            36.3585231,49.9900564,0
          </coordinates>
        </Point>
      </Placemark>
      <Placemark>
        <name>Остановка ул. Амосова
</name>
        <description>Автобус-81.</description>
        <styleUrl>#icon-1532-A52714</styleUrl>
        <Point>
          <coordinates>
            36.3608355,49.9848981,0
          </coordinates>
        </Point>
      </Placemark>
      <Placemark>
        <name>Остановка ул. Солнечная
</name>
        <description>Автобус-81, 228.</description>
        <styleUrl>#icon-1700-A52714</styleUrl>
        <Point>
          <coordinates>
            36.3638342,49.98545,0
          </coordinates>
        </Point>
      </Placemark>
      <Placemark>
        <name>Остановка ул. Краснодарская
</name>
        <description>Автобус-81, 228.</description>
        <styleUrl>#icon-1532-A52714</styleUrl>
        <Point>
          <coordinates>
            36.3658676,49.9810152,0
          </coordinates>
        </Point>
      </Placemark>
    </Folder>
    <Folder>
      <name>Маршрут обратно</name>
      <Placemark>
        <name>Линия маршрута</name>
        <styleUrl>#line-000000-5263-nodesc</styleUrl>
        <LineString>
          <tessellate>1</tessellate>
          <coordinates>
            36.3619805,49.9801894,0
            36.3567019,49.9796098,0
            36.3555432,49.983901,0
            36.3603926,49.9848392,0
            36.3587618,49.9902473,0
            36.3588047,49.9904543,0
            36.3620019,49.9907854,0
            36.3611436,49.9915441,0
            36.3582898,49.9939237,0
            36.3568092,49.9948548,0
            36.3549316,49.9955446,0
            36.3530218,49.9959997,0
            36.3495565,49.9964963,0
            36.3471317,49.9966067,0
            36.3417888,49.996648,0
            36.3375616,49.9968274,0
            36.3339567,49.997117,0
            36.3270044,49.9975998,0
            36.3193011,49.9982067,0
            36.3159323,49.9984826,0
            36.3106537,50.0006894,0
            36.3075638,50.0019445,0
            36.3064909,50.002248,0
            36.3054395,50.0023721,0
            36.3030362,50.0023169,0
            36.3035727,50.0019169,0
            36.3040233,50.0017376,0
            36.3044953,50.0017514,0
            36.3050962,50.0021376,0
          </coordinates>
        </LineString>
      </Placemark>
      <Placemark>
        <name>Остановка ул. Велозаводская
</name>
        <description>Автобус-81.</description>
        <styleUrl>#icon-1532-000000</styleUrl>
        <Point>
          <coordinates>
            36.3566804,49.9799548,0
          </coordinates>
        </Point>
      </Placemark>
      <Placemark>
        <name>Остановка 626 м/p
</name>
        <description>Автобус-81, 228.</description>
        <styleUrl>#icon-1499-000000</styleUrl>
        <Point>
          <coordinates>
            36.3623593,49.9803391,0
          </coordinates>
        </Point>
      </Placemark>
      <Placemark>
        <name>Остановка 602 м/р
</name>
        <description>Автобус-81, 83, 249.</description>
        <styleUrl>#icon-1546-000000</styleUrl>
        <Point>
          <coordinates>
            36.3590805,49.9903624,0
          </coordinates>
        </Point>
      </Placemark>
      <Placemark>
        <name>Остановка 602 м/р
</name>
        <description>Маршрутка-38э. Автобус - 81.</description>
        <styleUrl>#icon-1546-000000</styleUrl>
        <Point>
          <coordinates>
            36.3603092,49.9924479,0
          </coordinates>
        </Point>
      </Placemark>
      <Placemark>
        <name>Остановка Салтовский РЭМ
</name>
        <description>Маршрутка-38э Автобус - 63, 81. Троллейбус-19, 20, 24.</description>
        <styleUrl>#icon-1619-000000</styleUrl>
        <Point>
          <coordinates>
            36.3564016,49.9950365,0
          </coordinates>
        </Point>
      </Placemark>
      <Placemark>
        <name>Остановка ул. Познанская
</name>
        <description>Маршрутка-38э. Автобус - 63, 81. Троллейбус-19, 20, 24.</description>
        <styleUrl>#icon-1532-000000</styleUrl>
        <Point>
          <coordinates>
            36.3511716,49.9963791,0
          </coordinates>
        </Point>
      </Placemark>
      <Placemark>
        <name>Остановка 603-й микрорайон</name>
        <description>Маршрутка-38э Автобус - 63, 81. Троллейбус-19, 20, 24.</description>
        <styleUrl>#icon-1532-000000</styleUrl>
        <Point>
          <coordinates>
            36.3464792,49.9967726,0
          </coordinates>
        </Point>
      </Placemark>
      <Placemark>
        <name>Остановка пр. Тракторостроителей 
</name>
        <description>Маршрутка-38э Автобус - 63, 81. Троллейбус-19, 20, 24.</description>
        <styleUrl>#icon-1532-000000</styleUrl>
        <Point>
          <coordinates>
            36.3393183,49.9967734,0
          </coordinates>
        </Point>
      </Placemark>
      <Placemark>
        <name>Остановка ул. Гвардейцев Широнинцев
</name>
        <description>Маршрутка-38э, 121э. Автобус - 83, 170 Троллейбус-19, 20, 24.</description>
        <styleUrl>#icon-1532-000000</styleUrl>
        <Point>
          <coordinates>
            36.3296492,49.9975188,0
          </coordinates>
        </Point>
      </Placemark>
      <Placemark>
        <name>Остановка пр. Льва Ландау
</name>
        <description>Маршрутка-38э, 121э, 259э. Автобус - 83, 170 Троллейбус-19, 20, 24, 31, 35.</description>
        <styleUrl>#icon-1532-000000</styleUrl>
        <Point>
          <coordinates>
            36.3149218,49.9989739,0
          </coordinates>
        </Point>
      </Placemark>
      <Placemark>
        <name>Остановка 625 м/р
</name>
        <description>Автобус-81, 228.</description>
        <styleUrl>#icon-1546-000000</styleUrl>
        <Point>
          <coordinates>
            36.3562298,49.9838458,0
          </coordinates>
        </Point>
      </Placemark>
      <Placemark>
        <name>Остановка ул. Амосова
</name>
        <description>Автобус-81, 228, 249.</description>
        <styleUrl>#icon-1532-000000</styleUrl>
        <Point>
          <coordinates>
            36.3595987,49.9845633,0
          </coordinates>
        </Point>
      </Placemark>
    </Folder>
  </Document>
</kml>
