<?xml version="1.0" encoding="UTF-8"?>
<kml xmlns="http://www.opengis.net/kml/2.2">
  <Document>
    <name>Троллейбусный маршрут №2 Харьков (пр. Жуковского - пр. Победы)</name>
    <description>Подробно https://kharkiv.inform.city/-ru/-tr/tr_city/tr_city_tb/</description>
    <Style id="icon-1499-000000-normal">
      <IconStyle>
        <color>ff000000</color>
        <scale>1</scale>
        <Icon>
          <href>https://www.gstatic.com/mapspro/images/stock/503-wht-blank_maps.png</href>
        </Icon>
      </IconStyle>
      <LabelStyle>
        <scale>0</scale>
      </LabelStyle>
    </Style>
    <Style id="icon-1499-000000-highlight">
      <IconStyle>
        <color>ff000000</color>
        <scale>1</scale>
        <Icon>
          <href>https://www.gstatic.com/mapspro/images/stock/503-wht-blank_maps.png</href>
        </Icon>
      </IconStyle>
      <LabelStyle>
        <scale>1</scale>
      </LabelStyle>
    </Style>
    <StyleMap id="icon-1499-000000">
      <Pair>
        <key>normal</key>
        <styleUrl>#icon-1499-000000-normal</styleUrl>
      </Pair>
      <Pair>
        <key>highlight</key>
        <styleUrl>#icon-1499-000000-highlight</styleUrl>
      </Pair>
    </StyleMap>
    <Style id="icon-1499-F57C00-normal">
      <IconStyle>
        <color>ff007cf5</color>
        <scale>1</scale>
        <Icon>
          <href>https://www.gstatic.com/mapspro/images/stock/503-wht-blank_maps.png</href>
        </Icon>
      </IconStyle>
      <LabelStyle>
        <scale>0</scale>
      </LabelStyle>
    </Style>
    <Style id="icon-1499-F57C00-highlight">
      <IconStyle>
        <color>ff007cf5</color>
        <scale>1</scale>
        <Icon>
          <href>https://www.gstatic.com/mapspro/images/stock/503-wht-blank_maps.png</href>
        </Icon>
      </IconStyle>
      <LabelStyle>
        <scale>1</scale>
      </LabelStyle>
    </Style>
    <StyleMap id="icon-1499-F57C00">
      <Pair>
        <key>normal</key>
        <styleUrl>#icon-1499-F57C00-normal</styleUrl>
      </Pair>
      <Pair>
        <key>highlight</key>
        <styleUrl>#icon-1499-F57C00-highlight</styleUrl>
      </Pair>
    </StyleMap>
    <Style id="icon-1522-000000-normal">
      <IconStyle>
        <color>ff000000</color>
        <scale>1</scale>
        <Icon>
          <href>https://www.gstatic.com/mapspro/images/stock/503-wht-blank_maps.png</href>
        </Icon>
      </IconStyle>
      <LabelStyle>
        <scale>0</scale>
      </LabelStyle>
    </Style>
    <Style id="icon-1522-000000-highlight">
      <IconStyle>
        <color>ff000000</color>
        <scale>1</scale>
        <Icon>
          <href>https://www.gstatic.com/mapspro/images/stock/503-wht-blank_maps.png</href>
        </Icon>
      </IconStyle>
      <LabelStyle>
        <scale>1</scale>
      </LabelStyle>
    </Style>
    <StyleMap id="icon-1522-000000">
      <Pair>
        <key>normal</key>
        <styleUrl>#icon-1522-000000-normal</styleUrl>
      </Pair>
      <Pair>
        <key>highlight</key>
        <styleUrl>#icon-1522-000000-highlight</styleUrl>
      </Pair>
    </StyleMap>
    <Style id="icon-1522-F57C00-normal">
      <IconStyle>
        <color>ff007cf5</color>
        <scale>1</scale>
        <Icon>
          <href>https://www.gstatic.com/mapspro/images/stock/503-wht-blank_maps.png</href>
        </Icon>
      </IconStyle>
      <LabelStyle>
        <scale>0</scale>
      </LabelStyle>
    </Style>
    <Style id="icon-1522-F57C00-highlight">
      <IconStyle>
        <color>ff007cf5</color>
        <scale>1</scale>
        <Icon>
          <href>https://www.gstatic.com/mapspro/images/stock/503-wht-blank_maps.png</href>
        </Icon>
      </IconStyle>
      <LabelStyle>
        <scale>1</scale>
      </LabelStyle>
    </Style>
    <StyleMap id="icon-1522-F57C00">
      <Pair>
        <key>normal</key>
        <styleUrl>#icon-1522-F57C00-normal</styleUrl>
      </Pair>
      <Pair>
        <key>highlight</key>
        <styleUrl>#icon-1522-F57C00-highlight</styleUrl>
      </Pair>
    </StyleMap>
    <Style id="icon-1532-000000-normal">
      <IconStyle>
        <color>ff000000</color>
        <scale>1</scale>
        <Icon>
          <href>https://www.gstatic.com/mapspro/images/stock/503-wht-blank_maps.png</href>
        </Icon>
      </IconStyle>
      <LabelStyle>
        <scale>0</scale>
      </LabelStyle>
    </Style>
    <Style id="icon-1532-000000-highlight">
      <IconStyle>
        <color>ff000000</color>
        <scale>1</scale>
        <Icon>
          <href>https://www.gstatic.com/mapspro/images/stock/503-wht-blank_maps.png</href>
        </Icon>
      </IconStyle>
      <LabelStyle>
        <scale>1</scale>
      </LabelStyle>
    </Style>
    <StyleMap id="icon-1532-000000">
      <Pair>
        <key>normal</key>
        <styleUrl>#icon-1532-000000-normal</styleUrl>
      </Pair>
      <Pair>
        <key>highlight</key>
        <styleUrl>#icon-1532-000000-highlight</styleUrl>
      </Pair>
    </StyleMap>
    <Style id="icon-1532-F57C00-normal">
      <IconStyle>
        <color>ff007cf5</color>
        <scale>1</scale>
        <Icon>
          <href>https://www.gstatic.com/mapspro/images/stock/503-wht-blank_maps.png</href>
        </Icon>
      </IconStyle>
      <LabelStyle>
        <scale>0</scale>
      </LabelStyle>
    </Style>
    <Style id="icon-1532-F57C00-highlight">
      <IconStyle>
        <color>ff007cf5</color>
        <scale>1</scale>
        <Icon>
          <href>https://www.gstatic.com/mapspro/images/stock/503-wht-blank_maps.png</href>
        </Icon>
      </IconStyle>
      <LabelStyle>
        <scale>1</scale>
      </LabelStyle>
    </Style>
    <StyleMap id="icon-1532-F57C00">
      <Pair>
        <key>normal</key>
        <styleUrl>#icon-1532-F57C00-normal</styleUrl>
      </Pair>
      <Pair>
        <key>highlight</key>
        <styleUrl>#icon-1532-F57C00-highlight</styleUrl>
      </Pair>
    </StyleMap>
    <Style id="icon-1546-000000-normal">
      <IconStyle>
        <color>ff000000</color>
        <scale>1</scale>
        <Icon>
          <href>https://www.gstatic.com/mapspro/images/stock/503-wht-blank_maps.png</href>
        </Icon>
      </IconStyle>
      <LabelStyle>
        <scale>0</scale>
      </LabelStyle>
    </Style>
    <Style id="icon-1546-000000-highlight">
      <IconStyle>
        <color>ff000000</color>
        <scale>1</scale>
        <Icon>
          <href>https://www.gstatic.com/mapspro/images/stock/503-wht-blank_maps.png</href>
        </Icon>
      </IconStyle>
      <LabelStyle>
        <scale>1</scale>
      </LabelStyle>
    </Style>
    <StyleMap id="icon-1546-000000">
      <Pair>
        <key>normal</key>
        <styleUrl>#icon-1546-000000-normal</styleUrl>
      </Pair>
      <Pair>
        <key>highlight</key>
        <styleUrl>#icon-1546-000000-highlight</styleUrl>
      </Pair>
    </StyleMap>
    <Style id="icon-1600-000000-normal">
      <IconStyle>
        <color>ff000000</color>
        <scale>1</scale>
        <Icon>
          <href>https://www.gstatic.com/mapspro/images/stock/503-wht-blank_maps.png</href>
        </Icon>
      </IconStyle>
      <LabelStyle>
        <scale>0</scale>
      </LabelStyle>
    </Style>
    <Style id="icon-1600-000000-highlight">
      <IconStyle>
        <color>ff000000</color>
        <scale>1</scale>
        <Icon>
          <href>https://www.gstatic.com/mapspro/images/stock/503-wht-blank_maps.png</href>
        </Icon>
      </IconStyle>
      <LabelStyle>
        <scale>1</scale>
      </LabelStyle>
    </Style>
    <StyleMap id="icon-1600-000000">
      <Pair>
        <key>normal</key>
        <styleUrl>#icon-1600-000000-normal</styleUrl>
      </Pair>
      <Pair>
        <key>highlight</key>
        <styleUrl>#icon-1600-000000-highlight</styleUrl>
      </Pair>
    </StyleMap>
    <Style id="icon-1600-F57C00-normal">
      <IconStyle>
        <color>ff007cf5</color>
        <scale>1</scale>
        <Icon>
          <href>https://www.gstatic.com/mapspro/images/stock/503-wht-blank_maps.png</href>
        </Icon>
      </IconStyle>
      <LabelStyle>
        <scale>0</scale>
      </LabelStyle>
    </Style>
    <Style id="icon-1600-F57C00-highlight">
      <IconStyle>
        <color>ff007cf5</color>
        <scale>1</scale>
        <Icon>
          <href>https://www.gstatic.com/mapspro/images/stock/503-wht-blank_maps.png</href>
        </Icon>
      </IconStyle>
      <LabelStyle>
        <scale>1</scale>
      </LabelStyle>
    </Style>
    <StyleMap id="icon-1600-F57C00">
      <Pair>
        <key>normal</key>
        <styleUrl>#icon-1600-F57C00-normal</styleUrl>
      </Pair>
      <Pair>
        <key>highlight</key>
        <styleUrl>#icon-1600-F57C00-highlight</styleUrl>
      </Pair>
    </StyleMap>
    <Style id="icon-1626-000000-normal">
      <IconStyle>
        <color>ff000000</color>
        <scale>1</scale>
        <Icon>
          <href>https://www.gstatic.com/mapspro/images/stock/503-wht-blank_maps.png</href>
        </Icon>
      </IconStyle>
      <LabelStyle>
        <scale>0</scale>
      </LabelStyle>
    </Style>
    <Style id="icon-1626-000000-highlight">
      <IconStyle>
        <color>ff000000</color>
        <scale>1</scale>
        <Icon>
          <href>https://www.gstatic.com/mapspro/images/stock/503-wht-blank_maps.png</href>
        </Icon>
      </IconStyle>
      <LabelStyle>
        <scale>1</scale>
      </LabelStyle>
    </Style>
    <StyleMap id="icon-1626-000000">
      <Pair>
        <key>normal</key>
        <styleUrl>#icon-1626-000000-normal</styleUrl>
      </Pair>
      <Pair>
        <key>highlight</key>
        <styleUrl>#icon-1626-000000-highlight</styleUrl>
      </Pair>
    </StyleMap>
    <Style id="icon-1626-F57C00-normal">
      <IconStyle>
        <color>ff007cf5</color>
        <scale>1</scale>
        <Icon>
          <href>https://www.gstatic.com/mapspro/images/stock/503-wht-blank_maps.png</href>
        </Icon>
      </IconStyle>
      <LabelStyle>
        <scale>0</scale>
      </LabelStyle>
    </Style>
    <Style id="icon-1626-F57C00-highlight">
      <IconStyle>
        <color>ff007cf5</color>
        <scale>1</scale>
        <Icon>
          <href>https://www.gstatic.com/mapspro/images/stock/503-wht-blank_maps.png</href>
        </Icon>
      </IconStyle>
      <LabelStyle>
        <scale>1</scale>
      </LabelStyle>
    </Style>
    <StyleMap id="icon-1626-F57C00">
      <Pair>
        <key>normal</key>
        <styleUrl>#icon-1626-F57C00-normal</styleUrl>
      </Pair>
      <Pair>
        <key>highlight</key>
        <styleUrl>#icon-1626-F57C00-highlight</styleUrl>
      </Pair>
    </StyleMap>
    <Style id="icon-1648-000000-normal">
      <IconStyle>
        <color>ff000000</color>
        <scale>1</scale>
        <Icon>
          <href>https://www.gstatic.com/mapspro/images/stock/503-wht-blank_maps.png</href>
        </Icon>
      </IconStyle>
      <LabelStyle>
        <scale>0</scale>
      </LabelStyle>
    </Style>
    <Style id="icon-1648-000000-highlight">
      <IconStyle>
        <color>ff000000</color>
        <scale>1</scale>
        <Icon>
          <href>https://www.gstatic.com/mapspro/images/stock/503-wht-blank_maps.png</href>
        </Icon>
      </IconStyle>
      <LabelStyle>
        <scale>1</scale>
      </LabelStyle>
    </Style>
    <StyleMap id="icon-1648-000000">
      <Pair>
        <key>normal</key>
        <styleUrl>#icon-1648-000000-normal</styleUrl>
      </Pair>
      <Pair>
        <key>highlight</key>
        <styleUrl>#icon-1648-000000-highlight</styleUrl>
      </Pair>
    </StyleMap>
    <Style id="icon-1648-F57C00-normal">
      <IconStyle>
        <color>ff007cf5</color>
        <scale>1</scale>
        <Icon>
          <href>https://www.gstatic.com/mapspro/images/stock/503-wht-blank_maps.png</href>
        </Icon>
      </IconStyle>
      <LabelStyle>
        <scale>0</scale>
      </LabelStyle>
    </Style>
    <Style id="icon-1648-F57C00-highlight">
      <IconStyle>
        <color>ff007cf5</color>
        <scale>1</scale>
        <Icon>
          <href>https://www.gstatic.com/mapspro/images/stock/503-wht-blank_maps.png</href>
        </Icon>
      </IconStyle>
      <LabelStyle>
        <scale>1</scale>
      </LabelStyle>
    </Style>
    <StyleMap id="icon-1648-F57C00">
      <Pair>
        <key>normal</key>
        <styleUrl>#icon-1648-F57C00-normal</styleUrl>
      </Pair>
      <Pair>
        <key>highlight</key>
        <styleUrl>#icon-1648-F57C00-highlight</styleUrl>
      </Pair>
    </StyleMap>
    <Style id="icon-1662-000000-normal">
      <IconStyle>
        <color>ff000000</color>
        <scale>1</scale>
        <Icon>
          <href>https://www.gstatic.com/mapspro/images/stock/503-wht-blank_maps.png</href>
        </Icon>
      </IconStyle>
      <LabelStyle>
        <scale>0</scale>
      </LabelStyle>
    </Style>
    <Style id="icon-1662-000000-highlight">
      <IconStyle>
        <color>ff000000</color>
        <scale>1</scale>
        <Icon>
          <href>https://www.gstatic.com/mapspro/images/stock/503-wht-blank_maps.png</href>
        </Icon>
      </IconStyle>
      <LabelStyle>
        <scale>1</scale>
      </LabelStyle>
    </Style>
    <StyleMap id="icon-1662-000000">
      <Pair>
        <key>normal</key>
        <styleUrl>#icon-1662-000000-normal</styleUrl>
      </Pair>
      <Pair>
        <key>highlight</key>
        <styleUrl>#icon-1662-000000-highlight</styleUrl>
      </Pair>
    </StyleMap>
    <Style id="icon-1662-F57C00-normal">
      <IconStyle>
        <color>ff007cf5</color>
        <scale>1</scale>
        <Icon>
          <href>https://www.gstatic.com/mapspro/images/stock/503-wht-blank_maps.png</href>
        </Icon>
      </IconStyle>
      <LabelStyle>
        <scale>0</scale>
      </LabelStyle>
    </Style>
    <Style id="icon-1662-F57C00-highlight">
      <IconStyle>
        <color>ff007cf5</color>
        <scale>1</scale>
        <Icon>
          <href>https://www.gstatic.com/mapspro/images/stock/503-wht-blank_maps.png</href>
        </Icon>
      </IconStyle>
      <LabelStyle>
        <scale>1</scale>
      </LabelStyle>
    </Style>
    <StyleMap id="icon-1662-F57C00">
      <Pair>
        <key>normal</key>
        <styleUrl>#icon-1662-F57C00-normal</styleUrl>
      </Pair>
      <Pair>
        <key>highlight</key>
        <styleUrl>#icon-1662-F57C00-highlight</styleUrl>
      </Pair>
    </StyleMap>
    <Style id="icon-1670-000000-normal">
      <IconStyle>
        <color>ff000000</color>
        <scale>1</scale>
        <Icon>
          <href>https://www.gstatic.com/mapspro/images/stock/503-wht-blank_maps.png</href>
        </Icon>
      </IconStyle>
      <LabelStyle>
        <scale>0</scale>
      </LabelStyle>
    </Style>
    <Style id="icon-1670-000000-highlight">
      <IconStyle>
        <color>ff000000</color>
        <scale>1</scale>
        <Icon>
          <href>https://www.gstatic.com/mapspro/images/stock/503-wht-blank_maps.png</href>
        </Icon>
      </IconStyle>
      <LabelStyle>
        <scale>1</scale>
      </LabelStyle>
    </Style>
    <StyleMap id="icon-1670-000000">
      <Pair>
        <key>normal</key>
        <styleUrl>#icon-1670-000000-normal</styleUrl>
      </Pair>
      <Pair>
        <key>highlight</key>
        <styleUrl>#icon-1670-000000-highlight</styleUrl>
      </Pair>
    </StyleMap>
    <Style id="icon-1670-F57C00-normal">
      <IconStyle>
        <color>ff007cf5</color>
        <scale>1</scale>
        <Icon>
          <href>https://www.gstatic.com/mapspro/images/stock/503-wht-blank_maps.png</href>
        </Icon>
      </IconStyle>
      <LabelStyle>
        <scale>0</scale>
      </LabelStyle>
    </Style>
    <Style id="icon-1670-F57C00-highlight">
      <IconStyle>
        <color>ff007cf5</color>
        <scale>1</scale>
        <Icon>
          <href>https://www.gstatic.com/mapspro/images/stock/503-wht-blank_maps.png</href>
        </Icon>
      </IconStyle>
      <LabelStyle>
        <scale>1</scale>
      </LabelStyle>
    </Style>
    <StyleMap id="icon-1670-F57C00">
      <Pair>
        <key>normal</key>
        <styleUrl>#icon-1670-F57C00-normal</styleUrl>
      </Pair>
      <Pair>
        <key>highlight</key>
        <styleUrl>#icon-1670-F57C00-highlight</styleUrl>
      </Pair>
    </StyleMap>
    <Style id="icon-1682-000000-normal">
      <IconStyle>
        <color>ff000000</color>
        <scale>1</scale>
        <Icon>
          <href>https://www.gstatic.com/mapspro/images/stock/503-wht-blank_maps.png</href>
        </Icon>
      </IconStyle>
      <LabelStyle>
        <scale>0</scale>
      </LabelStyle>
    </Style>
    <Style id="icon-1682-000000-highlight">
      <IconStyle>
        <color>ff000000</color>
        <scale>1</scale>
        <Icon>
          <href>https://www.gstatic.com/mapspro/images/stock/503-wht-blank_maps.png</href>
        </Icon>
      </IconStyle>
      <LabelStyle>
        <scale>1</scale>
      </LabelStyle>
    </Style>
    <StyleMap id="icon-1682-000000">
      <Pair>
        <key>normal</key>
        <styleUrl>#icon-1682-000000-normal</styleUrl>
      </Pair>
      <Pair>
        <key>highlight</key>
        <styleUrl>#icon-1682-000000-highlight</styleUrl>
      </Pair>
    </StyleMap>
    <Style id="icon-1682-F57C00-normal">
      <IconStyle>
        <color>ff007cf5</color>
        <scale>1</scale>
        <Icon>
          <href>https://www.gstatic.com/mapspro/images/stock/503-wht-blank_maps.png</href>
        </Icon>
      </IconStyle>
      <LabelStyle>
        <scale>0</scale>
      </LabelStyle>
    </Style>
    <Style id="icon-1682-F57C00-highlight">
      <IconStyle>
        <color>ff007cf5</color>
        <scale>1</scale>
        <Icon>
          <href>https://www.gstatic.com/mapspro/images/stock/503-wht-blank_maps.png</href>
        </Icon>
      </IconStyle>
      <LabelStyle>
        <scale>1</scale>
      </LabelStyle>
    </Style>
    <StyleMap id="icon-1682-F57C00">
      <Pair>
        <key>normal</key>
        <styleUrl>#icon-1682-F57C00-normal</styleUrl>
      </Pair>
      <Pair>
        <key>highlight</key>
        <styleUrl>#icon-1682-F57C00-highlight</styleUrl>
      </Pair>
    </StyleMap>
    <Style id="icon-1694-000000-normal">
      <IconStyle>
        <color>ff000000</color>
        <scale>1</scale>
        <Icon>
          <href>https://www.gstatic.com/mapspro/images/stock/503-wht-blank_maps.png</href>
        </Icon>
      </IconStyle>
      <LabelStyle>
        <scale>0</scale>
      </LabelStyle>
    </Style>
    <Style id="icon-1694-000000-highlight">
      <IconStyle>
        <color>ff000000</color>
        <scale>1</scale>
        <Icon>
          <href>https://www.gstatic.com/mapspro/images/stock/503-wht-blank_maps.png</href>
        </Icon>
      </IconStyle>
      <LabelStyle>
        <scale>1</scale>
      </LabelStyle>
    </Style>
    <StyleMap id="icon-1694-000000">
      <Pair>
        <key>normal</key>
        <styleUrl>#icon-1694-000000-normal</styleUrl>
      </Pair>
      <Pair>
        <key>highlight</key>
        <styleUrl>#icon-1694-000000-highlight</styleUrl>
      </Pair>
    </StyleMap>
    <Style id="icon-1694-F57C00-normal">
      <IconStyle>
        <color>ff007cf5</color>
        <scale>1</scale>
        <Icon>
          <href>https://www.gstatic.com/mapspro/images/stock/503-wht-blank_maps.png</href>
        </Icon>
      </IconStyle>
      <LabelStyle>
        <scale>0</scale>
      </LabelStyle>
    </Style>
    <Style id="icon-1694-F57C00-highlight">
      <IconStyle>
        <color>ff007cf5</color>
        <scale>1</scale>
        <Icon>
          <href>https://www.gstatic.com/mapspro/images/stock/503-wht-blank_maps.png</href>
        </Icon>
      </IconStyle>
      <LabelStyle>
        <scale>1</scale>
      </LabelStyle>
    </Style>
    <StyleMap id="icon-1694-F57C00">
      <Pair>
        <key>normal</key>
        <styleUrl>#icon-1694-F57C00-normal</styleUrl>
      </Pair>
      <Pair>
        <key>highlight</key>
        <styleUrl>#icon-1694-F57C00-highlight</styleUrl>
      </Pair>
    </StyleMap>
    <Style id="icon-1700-000000-normal">
      <IconStyle>
        <color>ff000000</color>
        <scale>1</scale>
        <Icon>
          <href>https://www.gstatic.com/mapspro/images/stock/503-wht-blank_maps.png</href>
        </Icon>
      </IconStyle>
      <LabelStyle>
        <scale>0</scale>
      </LabelStyle>
    </Style>
    <Style id="icon-1700-000000-highlight">
      <IconStyle>
        <color>ff000000</color>
        <scale>1</scale>
        <Icon>
          <href>https://www.gstatic.com/mapspro/images/stock/503-wht-blank_maps.png</href>
        </Icon>
      </IconStyle>
      <LabelStyle>
        <scale>1</scale>
      </LabelStyle>
    </Style>
    <StyleMap id="icon-1700-000000">
      <Pair>
        <key>normal</key>
        <styleUrl>#icon-1700-000000-normal</styleUrl>
      </Pair>
      <Pair>
        <key>highlight</key>
        <styleUrl>#icon-1700-000000-highlight</styleUrl>
      </Pair>
    </StyleMap>
    <Style id="icon-1700-F57C00-normal">
      <IconStyle>
        <color>ff007cf5</color>
        <scale>1</scale>
        <Icon>
          <href>https://www.gstatic.com/mapspro/images/stock/503-wht-blank_maps.png</href>
        </Icon>
      </IconStyle>
      <LabelStyle>
        <scale>0</scale>
      </LabelStyle>
    </Style>
    <Style id="icon-1700-F57C00-highlight">
      <IconStyle>
        <color>ff007cf5</color>
        <scale>1</scale>
        <Icon>
          <href>https://www.gstatic.com/mapspro/images/stock/503-wht-blank_maps.png</href>
        </Icon>
      </IconStyle>
      <LabelStyle>
        <scale>1</scale>
      </LabelStyle>
    </Style>
    <StyleMap id="icon-1700-F57C00">
      <Pair>
        <key>normal</key>
        <styleUrl>#icon-1700-F57C00-normal</styleUrl>
      </Pair>
      <Pair>
        <key>highlight</key>
        <styleUrl>#icon-1700-F57C00-highlight</styleUrl>
      </Pair>
    </StyleMap>
    <Style id="icon-1720-000000-normal">
      <IconStyle>
        <color>ff000000</color>
        <scale>1</scale>
        <Icon>
          <href>https://www.gstatic.com/mapspro/images/stock/503-wht-blank_maps.png</href>
        </Icon>
      </IconStyle>
      <LabelStyle>
        <scale>0</scale>
      </LabelStyle>
    </Style>
    <Style id="icon-1720-000000-highlight">
      <IconStyle>
        <color>ff000000</color>
        <scale>1</scale>
        <Icon>
          <href>https://www.gstatic.com/mapspro/images/stock/503-wht-blank_maps.png</href>
        </Icon>
      </IconStyle>
      <LabelStyle>
        <scale>1</scale>
      </LabelStyle>
    </Style>
    <StyleMap id="icon-1720-000000">
      <Pair>
        <key>normal</key>
        <styleUrl>#icon-1720-000000-normal</styleUrl>
      </Pair>
      <Pair>
        <key>highlight</key>
        <styleUrl>#icon-1720-000000-highlight</styleUrl>
      </Pair>
    </StyleMap>
    <Style id="icon-1720-F57C00-normal">
      <IconStyle>
        <color>ff007cf5</color>
        <scale>1</scale>
        <Icon>
          <href>https://www.gstatic.com/mapspro/images/stock/503-wht-blank_maps.png</href>
        </Icon>
      </IconStyle>
      <LabelStyle>
        <scale>0</scale>
      </LabelStyle>
    </Style>
    <Style id="icon-1720-F57C00-highlight">
      <IconStyle>
        <color>ff007cf5</color>
        <scale>1</scale>
        <Icon>
          <href>https://www.gstatic.com/mapspro/images/stock/503-wht-blank_maps.png</href>
        </Icon>
      </IconStyle>
      <LabelStyle>
        <scale>1</scale>
      </LabelStyle>
    </Style>
    <StyleMap id="icon-1720-F57C00">
      <Pair>
        <key>normal</key>
        <styleUrl>#icon-1720-F57C00-normal</styleUrl>
      </Pair>
      <Pair>
        <key>highlight</key>
        <styleUrl>#icon-1720-F57C00-highlight</styleUrl>
      </Pair>
    </StyleMap>
    <Style id="line-000000-5263-nodesc-normal">
      <LineStyle>
        <color>ff000000</color>
        <width>5.263</width>
      </LineStyle>
      <BalloonStyle>
        <text><![CDATA[<h3>$[name]</h3>]]></text>
      </BalloonStyle>
    </Style>
    <Style id="line-000000-5263-nodesc-highlight">
      <LineStyle>
        <color>ff000000</color>
        <width>7.8945</width>
      </LineStyle>
      <BalloonStyle>
        <text><![CDATA[<h3>$[name]</h3>]]></text>
      </BalloonStyle>
    </Style>
    <StyleMap id="line-000000-5263-nodesc">
      <Pair>
        <key>normal</key>
        <styleUrl>#line-000000-5263-nodesc-normal</styleUrl>
      </Pair>
      <Pair>
        <key>highlight</key>
        <styleUrl>#line-000000-5263-nodesc-highlight</styleUrl>
      </Pair>
    </StyleMap>
    <Style id="line-F57C00-5456-nodesc-normal">
      <LineStyle>
        <color>ff007cf5</color>
        <width>5.456</width>
      </LineStyle>
      <BalloonStyle>
        <text><![CDATA[<h3>$[name]</h3>]]></text>
      </BalloonStyle>
    </Style>
    <Style id="line-F57C00-5456-nodesc-highlight">
      <LineStyle>
        <color>ff007cf5</color>
        <width>8.184</width>
      </LineStyle>
      <BalloonStyle>
        <text><![CDATA[<h3>$[name]</h3>]]></text>
      </BalloonStyle>
    </Style>
    <StyleMap id="line-F57C00-5456-nodesc">
      <Pair>
        <key>normal</key>
        <styleUrl>#line-F57C00-5456-nodesc-normal</styleUrl>
      </Pair>
      <Pair>
        <key>highlight</key>
        <styleUrl>#line-F57C00-5456-nodesc-highlight</styleUrl>
      </Pair>
    </StyleMap>
    <Folder>
      <name>Маршрут туда</name>
      <Placemark>
        <name>Линия маршрута</name>
        <styleUrl>#line-F57C00-5456-nodesc</styleUrl>
        <LineString>
          <tessellate>1</tessellate>
          <coordinates>
            36.2931682,50.0464962,0
            36.2885086,50.0465001,0
            36.2880687,50.0464657,0
            36.2874679,50.0463486,0
            36.2818782,50.0452738,0
            36.2760202,50.0441438,0
            36.2752156,50.0440336,0
            36.2750868,50.0438406,0
            36.2749152,50.0435995,0
            36.2741642,50.0428209,0
            36.2732415,50.0418563,0
            36.2712566,50.0398167,0
            36.2702589,50.0388244,0
            36.2679843,50.0365435,0
            36.2671797,50.0356959,0
            36.264991,50.0334631,0
            36.2635426,50.0319951,0
            36.2605385,50.0289144,0
            36.2573306,50.0256612,0
            36.2545411,50.0227179,0
            36.2523095,50.0205534,0
            36.2512259,50.0196021,0
            36.2471168,50.0160174,0
            36.2458829,50.0149419,0
            36.242836,50.0122186,0
            36.2390272,50.0087918,0
            36.237729,50.0077438,0
            36.2374715,50.007468,0
            36.2363343,50.0057924,0
            36.235358,50.0061165,0
            36.2339954,50.0066405,0
            36.2328796,50.0071163,0
            36.2310986,50.007992,0
            36.2305622,50.0082126,0
            36.2299935,50.0083023,0
            36.2287383,50.0084953,0
            36.2284915,50.0084747,0
            36.2284057,50.008716,0
            36.2275474,50.0114671,0
            36.2268285,50.0137905,0
            36.2261633,50.015976,0
            36.2255196,50.0181889,0
            36.2250797,50.0196297,0
            36.2242965,50.022325,0
            36.2234919,50.025158,0
            36.222934,50.02715,0
            36.2222795,50.028942,0
            36.2218074,50.0307064,0
            36.2214748,50.0317057,0
            36.2207882,50.0342556,0
            36.2204341,50.035248,0
            36.2203483,50.0358406,0
            36.2203805,50.0362885,0
            36.2205414,50.0366538,0
            36.2213997,50.038659,0
            36.2226336,50.0416427,0
            36.2229662,50.0424282,0
            36.2219791,50.0428071,0
            36.2212174,50.0431585,0
            36.2191145,50.0441025,0
            36.216207,50.0454804,0
            36.214147,50.0464037,0
            36.2128381,50.0469824,0
            36.2123982,50.0472856,0
            36.211658,50.047816,0
            36.2096409,50.0492422,0
            36.2086324,50.0497451,0
            36.2067871,50.0507371,0
            36.2063579,50.051116,0
            36.2059824,50.0515982,0
            36.2058322,50.0519151,0
            36.2046306,50.0549599,0
            36.203783,50.05724,0
            36.2036113,50.0577152,0
            36.2034182,50.0579425,0
            36.2017445,50.0593408,0
            36.2021415,50.0597127,0
            36.2053172,50.0627088,0
            36.2084286,50.0656428,0
            36.2111001,50.0681564,0
            36.2118189,50.0688451,0
            36.2121086,50.0691033,0
            36.2121408,50.0692238,0
            36.2118511,50.0693891,0
            36.211556,50.0695406,0
            36.2111751,50.0696508,0
            36.2108801,50.0696198,0
            36.2105851,50.06952,0
            36.2103061,50.0692789,0
            36.2102525,50.0690655,0
            36.2103276,50.0689209,0
            36.2104456,50.0688313,0
            36.2105743,50.0686764,0
            36.2107245,50.0685765,0
            36.2107782,50.0683837,0
            36.2106924,50.0682184,0
            36.2105883,50.0680837,0
          </coordinates>
        </LineString>
      </Placemark>
      <Placemark>
        <name>Остановка пр. Жуковского
</name>
        <description>Автобус-65э, 240э, 302э. Троллейбус 2.</description>
        <styleUrl>#icon-1499-F57C00</styleUrl>
        <Point>
          <coordinates>
            36.2933897,50.0465502,0
          </coordinates>
        </Point>
      </Placemark>
      <Placemark>
        <name>Остановка ул. Продольная 
</name>
        <description>Автобус-33, 62. Троллейбус-2, 55.</description>
        <styleUrl>#icon-1532-F57C00</styleUrl>
        <Point>
          <coordinates>
            36.2888025,50.0465579,0
          </coordinates>
        </Point>
      </Placemark>
      <Placemark>
        <name>Остановка Литвиновка
</name>
        <description>Автобус-33, 62. Троллейбус-2, 55.</description>
        <styleUrl>#icon-1532-F57C00</styleUrl>
        <Point>
          <coordinates>
            36.2827212,50.0454781,0
          </coordinates>
        </Point>
      </Placemark>
      <Placemark>
        <name>Остановка ул. Вадима Манько
</name>
        <description>Автобус-33, 62. Троллейбус-2, 55.</description>
        <styleUrl>#icon-1532-F57C00</styleUrl>
        <Point>
          <coordinates>
            36.2758095,50.0441346,0
          </coordinates>
        </Point>
      </Placemark>
      <Placemark>
        <name>Остановка Лесопарк
</name>
        <description>Автобус-31, 33, 62, 63, 96. Троллейбус-2, 12.</description>
        <styleUrl>#icon-1720-F57C00</styleUrl>
        <Point>
          <coordinates>
            36.2723913,50.0410136,0
          </coordinates>
        </Point>
      </Placemark>
      <Placemark>
        <name>Остановка Мемориал Славы
</name>
        <description>Автобус-31, 33, 62, 63, 96. Троллейбус-2, 12.</description>
        <styleUrl>#icon-1600-F57C00</styleUrl>
        <Point>
          <coordinates>
            36.2676638,50.0361693,0
          </coordinates>
        </Point>
      </Placemark>
      <Placemark>
        <name>Остановка Велоцентр
</name>
        <description>Автобус-31, 33, 62, 63, 96. Троллейбус-2, 12, 55.</description>
        <styleUrl>#icon-1522-F57C00</styleUrl>
        <Point>
          <coordinates>
            36.2639516,50.0323239,0
          </coordinates>
        </Point>
      </Placemark>
      <Placemark>
        <name>Остановка Сокольники
</name>
        <description>Автобус-31, 33, 62, 63, 96. Троллейбус-2, 12, 55.</description>
        <styleUrl>#icon-1720-F57C00</styleUrl>
        <Point>
          <coordinates>
            36.2575013,50.0259073,0
          </coordinates>
        </Point>
      </Placemark>
      <Placemark>
        <name>Остановка Детская железная дорога 
</name>
        <description>Автобус-31, 33, 62, 63, 96. Троллейбус-2, 12, 55.</description>
        <styleUrl>#icon-1662-F57C00</styleUrl>
        <Point>
          <coordinates>
            36.2519486,50.0202849,0
          </coordinates>
        </Point>
      </Placemark>
      <Placemark>
        <name>Остановка Центральный парк
</name>
        <description>Автобус-31, 33, 62, 63, 96. Троллейбус-2, 12, 55.</description>
        <styleUrl>#icon-1720-F57C00</styleUrl>
        <Point>
          <coordinates>
            36.2470039,50.0159468,0
          </coordinates>
        </Point>
      </Placemark>
      <Placemark>
        <name>Остановка ул. Олеся Гончара
</name>
        <description>Автобус-31, 47, 62, 96. Троллейбус-2, 40, 55. .</description>
        <styleUrl>#icon-1532-F57C00</styleUrl>
        <Point>
          <coordinates>
            36.2437545,50.0130772,0
          </coordinates>
        </Point>
      </Placemark>
      <Placemark>
        <name>Остановка Мыколы Хвылевого 
</name>
        <description>Автобус-31, 47, 62, 96. Троллейбус-2, 40, 55.</description>
        <styleUrl>#icon-1532-F57C00</styleUrl>
        <Point>
          <coordinates>
            36.2407251,50.0103911,0
          </coordinates>
        </Point>
      </Placemark>
      <Placemark>
        <name>Остановка ул. Сумская
</name>
        <description>Автобус-31, 47, 62, 96. Троллейбус-2, 40, 55.</description>
        <styleUrl>#icon-1532-F57C00</styleUrl>
        <Point>
          <coordinates>
            36.2367219,50.0065088,0
          </coordinates>
        </Point>
      </Placemark>
      <Placemark>
        <name>Остановка  ул. Тринклера</name>
        <description>Троллейбус 2, 58.</description>
        <styleUrl>#icon-1532-F57C00</styleUrl>
        <Point>
          <coordinates>
            36.2329866,50.0071175,0
          </coordinates>
        </Point>
      </Placemark>
      <Placemark>
        <name>Остановка ул. Данилевского
</name>
        <description>Автобус-33. Троллейбус-2, 18, 58.</description>
        <styleUrl>#icon-1532-F57C00</styleUrl>
        <Point>
          <coordinates>
            36.2278246,50.0106868,0
          </coordinates>
        </Point>
      </Placemark>
      <Placemark>
        <name>Станция метро Научная
</name>
        <description>Автобус-20, 33. Троллейбус-2, 18, 58.</description>
        <styleUrl>#icon-1626-F57C00</styleUrl>
        <Point>
          <coordinates>
            36.2270259,50.0135227,0
          </coordinates>
        </Point>
      </Placemark>
      <Placemark>
        <name>Остановка ул. Космическая
</name>
        <description>Автобус-20, 33. Троллейбус-2, 18, 58.</description>
        <styleUrl>#icon-1532-F57C00</styleUrl>
        <Point>
          <coordinates>
            36.2254872,50.0188049,0
          </coordinates>
        </Point>
      </Placemark>
      <Placemark>
        <name>Остановка ул. Европейская
</name>
        <description>Автобус-20, 33. Троллейбус-2, 18, 58.</description>
        <styleUrl>#icon-1532-F57C00</styleUrl>
        <Point>
          <coordinates>
            36.2246637,50.0216941,0
          </coordinates>
        </Point>
      </Placemark>
      <Placemark>
        <name>Станция метро Ботанический Сад
</name>
        <description>Автобус-20, 33. Троллейбус-2, 18, 58.</description>
        <styleUrl>#icon-1626-F57C00</styleUrl>
        <Point>
          <coordinates>
            36.2228335,50.0276074,0
          </coordinates>
        </Point>
      </Placemark>
      <Placemark>
        <name>Остановка ул. Тобольская
</name>
        <description>Автобус-20, 33. Троллейбус-2, 18, 58.</description>
        <styleUrl>#icon-1532-F57C00</styleUrl>
        <Point>
          <coordinates>
            36.2220206,50.0309363,0
          </coordinates>
        </Point>
      </Placemark>
      <Placemark>
        <name>Станция метро 23 Августа
</name>
        <description>Автобус-20, 33. Троллейбус-2, 18, 58.</description>
        <styleUrl>#icon-1626-F57C00</styleUrl>
        <Point>
          <coordinates>
            36.220722,50.0348482,0
          </coordinates>
        </Point>
      </Placemark>
      <Placemark>
        <name>Остановка Институт низких температур
</name>
        <description>Автобус-63. Троллейбус-2, 18, 58.</description>
        <styleUrl>#icon-1694-F57C00</styleUrl>
        <Point>
          <coordinates>
            36.2218441,50.0396357,0
          </coordinates>
        </Point>
      </Placemark>
      <Placemark>
        <name>Остановка Рождественская церковь
</name>
        <description>Автобус-63. Троллейбус-2, 18, 58.</description>
        <styleUrl>#icon-1670-F57C00</styleUrl>
        <Point>
          <coordinates>
            36.2227374,50.0414497,0
          </coordinates>
        </Point>
      </Placemark>
      <Placemark>
        <name>Остановка ул. Белогорская
</name>
        <description>Автобус-63. Троллейбус-2, 40, 58.</description>
        <styleUrl>#icon-1532-F57C00</styleUrl>
        <Point>
          <coordinates>
            36.2122982,50.0474293,0
          </coordinates>
        </Point>
      </Placemark>
      <Placemark>
        <name>Станция метро Алексеевская
</name>
        <description>Автобус-63. Троллейбус-2, 40, 58.</description>
        <styleUrl>#icon-1626-F57C00</styleUrl>
        <Point>
          <coordinates>
            36.2076086,50.050355,0
          </coordinates>
        </Point>
      </Placemark>
      <Placemark>
        <name>Остановка АТС 336
</name>
        <description>Автобус-63. Троллейбус-2, 40, 58.</description>
        <styleUrl>#icon-1648-F57C00</styleUrl>
        <Point>
          <coordinates>
            36.2055131,50.0529274,0
          </coordinates>
        </Point>
      </Placemark>
      <Placemark>
        <name>Остановка пр. Людвига Свободы
</name>
        <description>Автобус-63. Троллейбус-2, 40, 58.</description>
        <styleUrl>#icon-1532-F57C00</styleUrl>
        <Point>
          <coordinates>
            36.2049015,50.0547188,0
          </coordinates>
        </Point>
      </Placemark>
      <Placemark>
        <name>Станция метро Победа
</name>
        <description>Автобус-63. Троллейбус-2, 40.</description>
        <styleUrl>#icon-1626-F57C00</styleUrl>
        <Point>
          <coordinates>
            36.2029744,50.0584172,0
          </coordinates>
        </Point>
      </Placemark>
      <Placemark>
        <name>Станция метро Победа
</name>
        <description>Автобус-63. Троллейбус-2, 40.</description>
        <styleUrl>#icon-1626-F57C00</styleUrl>
        <Point>
          <coordinates>
            36.2034082,50.0607507,0
          </coordinates>
        </Point>
      </Placemark>
      <Placemark>
        <name>Остановка Школьная
</name>
        <description>Троллейбус-2, 40, 58.</description>
        <styleUrl>#icon-1682-F57C00</styleUrl>
        <Point>
          <coordinates>
            36.205731,50.0629483,0
          </coordinates>
        </Point>
      </Placemark>
      <Placemark>
        <name>Остановка ул. Солнечная
</name>
        <description>Троллейбус-2, 40, 58.</description>
        <styleUrl>#icon-1700-F57C00</styleUrl>
        <Point>
          <coordinates>
            36.2091893,50.0662571,0
          </coordinates>
        </Point>
      </Placemark>
      <Placemark>
        <name>Остановка пр. Победы 
</name>
        <description>Троллейбус-2, 40, 58.</description>
        <styleUrl>#icon-1532-F57C00</styleUrl>
        <Point>
          <coordinates>
            36.2108351,50.0677393,0
          </coordinates>
        </Point>
      </Placemark>
    </Folder>
    <Folder>
      <name>Маршрут обратно</name>
      <Placemark>
        <name>Линия маршрута</name>
        <styleUrl>#line-000000-5263-nodesc</styleUrl>
        <LineString>
          <tessellate>1</tessellate>
          <coordinates>
            36.2105883,50.0680837,0
            36.2078525,50.0655011,0
            36.2039365,50.061844,0
            36.2014152,50.0594402,0
            36.2027563,50.0582624,0
            36.2033571,50.0577045,0
            36.2036897,50.0567539,0
            36.204194,50.0556173,0
            36.2056424,50.051863,0
            36.2065007,50.0495069,0
            36.2071444,50.0496241,0
            36.2077452,50.0496172,0
            36.208507,50.0495552,0
            36.2089146,50.0494518,0
            36.2093438,50.0492245,0
            36.2099553,50.0489076,0
            36.2111355,50.0480602,0
            36.2124981,50.0470198,0
            36.213174,50.0466891,0
            36.2144078,50.0461586,0
            36.2152876,50.0457315,0
            36.215824,50.045511,0
            36.2175406,50.0447187,0
            36.2190534,50.0440021,0
            36.2221862,50.0425758,0
            36.2227334,50.0423622,0
            36.2223472,50.0414941,0
            36.2214137,50.0392133,0
            36.2202658,50.0365465,0
            36.2201907,50.0362571,0
            36.2201907,50.0358229,0
            36.2202765,50.0351476,0
            36.2204589,50.034679,0
            36.2208129,50.0334936,0
            36.2211563,50.0322256,0
            36.2215961,50.0308817,0
            36.2218965,50.02971,0
            36.2224115,50.0282351,0
            36.2225295,50.027663,0
            36.222948,50.0262501,0
            36.2231518,50.0255953,0
            36.2236346,50.0238238,0
            36.2239028,50.0229415,0
            36.224332,50.0215353,0
            36.2245573,50.020646,0
            36.2251259,50.0186607,0
            36.2256087,50.0170751,0
            36.2260271,50.015786,0
            36.2271644,50.0118424,0
            36.2274755,50.0108909,0
            36.2282587,50.0080984,0
            36.2283553,50.0079467,0
            36.228645,50.0079398,0
            36.2289132,50.0080019,0
            36.2294818,50.0080157,0
            36.2300934,50.0080502,0
            36.2308229,50.0079122,0
            36.231177,50.0077537,0
            36.2335159,50.0066987,0
            36.2355758,50.0059609,0
            36.2364234,50.0056644,0
            36.2366058,50.0059678,0
            36.2370027,50.0065332,0
            36.2374963,50.0071882,0
            36.2378503,50.0076295,0
            36.2388374,50.008457,0
            36.2400283,50.0095119,0
            36.2420131,50.0113115,0
            36.2443413,50.0133523,0
            36.2476672,50.0162961,0
            36.2501456,50.0184677,0
            36.2535144,50.0214801,0
            36.2569584,50.0250369,0
            36.258396,50.0265258,0
            36.2594582,50.0275872,0
            36.2609388,50.029138,0
            36.2618293,50.0300339,0
            36.2632884,50.0315226,0
            36.2644471,50.0326942,0
            36.2658848,50.0341828,0
            36.2669684,50.0352854,0
            36.2688137,50.037146,0
            36.2697686,50.0381176,0
            36.2723864,50.0407843,0
            36.2751974,50.0436714,0
            36.2753583,50.0439263,0
            36.2769355,50.0442019,0
            36.2788667,50.0446084,0
            36.2840916,50.0456212,0
            36.2873961,50.0462413,0
            36.2882222,50.0464204,0
            36.2890269,50.0464411,0
            36.2936081,50.0464549,0
            36.2947132,50.0464411,0
            36.2948955,50.0463309,0
            36.2951852,50.0462069,0
            36.2954105,50.0462069,0
            36.2954964,50.0463516,0
            36.2954534,50.0465031,0
            36.2950457,50.0465307,0
            36.2948312,50.0464893,0
            36.2931682,50.0464962,0
          </coordinates>
        </LineString>
      </Placemark>
      <Placemark>
        <name>Остановка пр. Победы
</name>
        <description>Троллейбус-2, 40, 58.</description>
        <styleUrl>#icon-1499-000000</styleUrl>
        <Point>
          <coordinates>
            36.2102962,50.0680236,0
          </coordinates>
        </Point>
      </Placemark>
      <Placemark>
        <name>Остановка Солнечная
</name>
        <description>Троллейбус-2, 40, 58.</description>
        <styleUrl>#icon-1700-000000</styleUrl>
        <Point>
          <coordinates>
            36.2082792,50.0661849,0
          </coordinates>
        </Point>
      </Placemark>
      <Placemark>
        <name>Остановка Школьная
</name>
        <description>Троллейбус-2, 40, 58.</description>
        <styleUrl>#icon-1682-000000</styleUrl>
        <Point>
          <coordinates>
            36.2052751,50.0632165,0
          </coordinates>
        </Point>
      </Placemark>
      <Placemark>
        <name>Остановка 339 микрорайон
</name>
        <description>Троллейбус-2, 40, 58.</description>
        <styleUrl>#icon-1546-000000</styleUrl>
        <Point>
          <coordinates>
            36.2031196,50.0612163,0
          </coordinates>
        </Point>
      </Placemark>
      <Placemark>
        <name>Станция метро Победа
</name>
        <description>Автобус-63. Троллейбус-2, 40.</description>
        <styleUrl>#icon-1626-000000</styleUrl>
        <Point>
          <coordinates>
            36.2023934,50.0583757,0
          </coordinates>
        </Point>
      </Placemark>
      <Placemark>
        <name>Остановка  336 микрорайон
</name>
        <description>Автобус-63. Троллейбус-2, 40, 58.</description>
        <styleUrl>#icon-1546-000000</styleUrl>
        <Point>
          <coordinates>
            36.203537,50.0566041,0
          </coordinates>
        </Point>
      </Placemark>
      <Placemark>
        <name>Остановка пр. Людвига Свободы
</name>
        <description>Автобус-63. Троллейбус-2, 40, 58.</description>
        <styleUrl>#icon-1532-000000</styleUrl>
        <Point>
          <coordinates>
            36.2044891,50.0542244,0
          </coordinates>
        </Point>
      </Placemark>
      <Placemark>
        <name>Остановка АТС 336
</name>
        <description>Автобус-63. Троллейбус-2, 40, 58.</description>
        <styleUrl>#icon-1648-000000</styleUrl>
        <Point>
          <coordinates>
            36.2052508,50.0523517,0
          </coordinates>
        </Point>
      </Placemark>
      <Placemark>
        <name>Станция метро Алексеевская
</name>
        <description>Автобус-63. Троллейбус-2, 40, 58.</description>
        <styleUrl>#icon-1626-000000</styleUrl>
        <Point>
          <coordinates>
            36.2089308,50.049286,0
          </coordinates>
        </Point>
      </Placemark>
      <Placemark>
        <name>Остановка ул. Белогорская
</name>
        <description>Автобус-63. Троллейбус-2, 40, 58.</description>
        <styleUrl>#icon-1532-000000</styleUrl>
        <Point>
          <coordinates>
            36.2126752,50.0467852,0
          </coordinates>
        </Point>
      </Placemark>
      <Placemark>
        <name>Остановка Рождественская церковь
</name>
        <description>Автобус-63. Троллейбус-2, 18, 58.</description>
        <styleUrl>#icon-1670-000000</styleUrl>
        <Point>
          <coordinates>
            36.222355,50.0417838,0
          </coordinates>
        </Point>
      </Placemark>
      <Placemark>
        <name>Остановка Институт низких температур 
</name>
        <description>Автобус-63. Троллейбус-2, 18, 58.</description>
        <styleUrl>#icon-1694-000000</styleUrl>
        <Point>
          <coordinates>
            36.221164,50.0390139,0
          </coordinates>
        </Point>
      </Placemark>
      <Placemark>
        <name>Станция метро 23 Августа
</name>
        <description>Автобус-20, 33. Троллейбус-2, 18, 58.</description>
        <styleUrl>#icon-1626-000000</styleUrl>
        <Point>
          <coordinates>
            36.2205739,50.033811,0
          </coordinates>
        </Point>
      </Placemark>
      <Placemark>
        <name>Остановка ул. Тобольская
</name>
        <description>Автобус-20, 33. Троллейбус-2, 18, 58.</description>
        <styleUrl>#icon-1532-000000</styleUrl>
        <Point>
          <coordinates>
            36.2216146,50.0303307,0
          </coordinates>
        </Point>
      </Placemark>
      <Placemark>
        <name>Остановка метро Ботанический сад
</name>
        <description>Автобус-20, 33. Троллейбус-2, 18, 58.</description>
        <styleUrl>#icon-1626-000000</styleUrl>
        <Point>
          <coordinates>
            36.2226865,50.026581,0
          </coordinates>
        </Point>
      </Placemark>
      <Placemark>
        <name>Остановка ул. Европейская
</name>
        <description>Автобус-20, 33. Троллейбус-2, 18, 58.</description>
        <styleUrl>#icon-1532-000000</styleUrl>
        <Point>
          <coordinates>
            36.2242528,50.0211321,0
          </coordinates>
        </Point>
      </Placemark>
      <Placemark>
        <name>Остановка ул. Космическая
</name>
        <description>Автобус-20, 33. Троллейбус-2, 18, 58.</description>
        <styleUrl>#icon-1532-000000</styleUrl>
        <Point>
          <coordinates>
            36.2251112,50.0181782,0
          </coordinates>
        </Point>
      </Placemark>
      <Placemark>
        <name>Станция метро Научная
</name>
        <description>Автобус-20, 33. Троллейбус-2, 18, 58.</description>
        <styleUrl>#icon-1626-000000</styleUrl>
        <Point>
          <coordinates>
            36.2266029,50.0133461,0
          </coordinates>
        </Point>
      </Placemark>
      <Placemark>
        <name>Остановка ул. Данилевского 
</name>
        <description>Автобус-33. Троллейбус-2, 18, 58.</description>
        <styleUrl>#icon-1532-000000</styleUrl>
        <Point>
          <coordinates>
            36.2277187,50.0096298,0
          </coordinates>
        </Point>
      </Placemark>
      <Placemark>
        <name>Станция метро Университет
</name>
        <description>Автобус-31, 47, 96. Троллейбус-2, 58.</description>
        <styleUrl>#icon-1626-000000</styleUrl>
        <Point>
          <coordinates>
            36.2356319,50.0058067,0
          </coordinates>
        </Point>
      </Placemark>
      <Placemark>
        <name>Остановка ул. Сумская
</name>
        <description>Автобус-31, 47, 62, 96. Троллейбус-2, 40, 55.</description>
        <styleUrl>#icon-1532-000000</styleUrl>
        <Point>
          <coordinates>
            36.2370261,50.0064521,0
          </coordinates>
        </Point>
      </Placemark>
      <Placemark>
        <name>Остановка ул. Миколы Хвылевого
</name>
        <description>Автобус-31, 47, 62, 96. Троллейбус-2, 40, 55.</description>
        <styleUrl>#icon-1532-000000</styleUrl>
        <Point>
          <coordinates>
            36.2415053,50.0107876,0
          </coordinates>
        </Point>
      </Placemark>
      <Placemark>
        <name>Остановка ул. Олеся Гончара 
</name>
        <description>Автобус-31, 47, 62, 96. Троллейбус-2, 40, 55.</description>
        <styleUrl>#icon-1532-000000</styleUrl>
        <Point>
          <coordinates>
            36.2437843,50.0128598,0
          </coordinates>
        </Point>
      </Placemark>
      <Placemark>
        <name>Остановка Центральный парк 
</name>
        <description>Автобус-31, 62, 63, 96. Троллейбус-2, 12, 55.</description>
        <styleUrl>#icon-1720-000000</styleUrl>
        <Point>
          <coordinates>
            36.2482047,50.0164,0
          </coordinates>
        </Point>
      </Placemark>
      <Placemark>
        <name>Остановка Детская железная дорога
</name>
        <description>Автобус-31, 33, 62, 63, 96. Троллейбус-2, 12, 55.</description>
        <styleUrl>#icon-1662-000000</styleUrl>
        <Point>
          <coordinates>
            36.2529468,50.0207155,0
          </coordinates>
        </Point>
      </Placemark>
      <Placemark>
        <name>Остановка Сокольники
</name>
        <description>Автобус-31, 33, 62, 63, 96. Троллейбус-2, 12, 55.</description>
        <styleUrl>#icon-1720-000000</styleUrl>
        <Point>
          <coordinates>
            36.2588691,50.0265745,0
          </coordinates>
        </Point>
      </Placemark>
      <Placemark>
        <name>Остановка Велоцентр
</name>
        <description>Автобус-31, 33, 62, 63, 96. Троллейбус-2, 12, 55.</description>
        <styleUrl>#icon-1522-000000</styleUrl>
        <Point>
          <coordinates>
            36.2639116,50.0317988,0
          </coordinates>
        </Point>
      </Placemark>
      <Placemark>
        <name>Остановка Мемориал Славы
</name>
        <description>Автобус-31, 33, 62, 63, 96. Троллейбус-2, 12.</description>
        <styleUrl>#icon-1600-000000</styleUrl>
        <Point>
          <coordinates>
            36.2696103,50.0376781,0
          </coordinates>
        </Point>
      </Placemark>
      <Placemark>
        <name>Остановка Лесопарк
</name>
        <description>Автобус-31, 33, 62, 63, 96. Троллейбус-2, 12.</description>
        <styleUrl>#icon-1720-000000</styleUrl>
        <Point>
          <coordinates>
            36.2720779,50.0402552,0
          </coordinates>
        </Point>
      </Placemark>
      <Placemark>
        <name>Остановка ул. Вадима Манько
</name>
        <description>Автобус-33, 62. Троллейбус-2, 55.</description>
        <styleUrl>#icon-1532-000000</styleUrl>
        <Point>
          <coordinates>
            36.2772492,50.044293,0
          </coordinates>
        </Point>
      </Placemark>
      <Placemark>
        <name>Остановка Литвиновка
</name>
        <description>Автобус-33, 62. Троллейбус-2, 55.</description>
        <styleUrl>#icon-1532-000000</styleUrl>
        <Point>
          <coordinates>
            36.2816051,50.0450784,0
          </coordinates>
        </Point>
      </Placemark>
      <Placemark>
        <name>Остановка ул. Продольная
</name>
        <description>Автобус-33, 62. Троллейбус-2, 55.</description>
        <styleUrl>#icon-1532-000000</styleUrl>
        <Point>
          <coordinates>
            36.2876408,50.0463083,0
          </coordinates>
        </Point>
      </Placemark>
    </Folder>
  </Document>
</kml>
