<?xml version="1.0" encoding="UTF-8"?>
<kml xmlns="http://www.opengis.net/kml/2.2">
  <Document>
    <name>Троллейбусный маршрут №18 Харьков (метро Госпром - Больница неотложной помощи)</name>
    <description>Подробно на https://kharkiv.inform.city/-ru/-tr/tr_city/tr_city_tb/</description>
    <Style id="icon-1499-000000-normal">
      <IconStyle>
        <color>ff000000</color>
        <scale>1</scale>
        <Icon>
          <href>https://www.gstatic.com/mapspro/images/stock/503-wht-blank_maps.png</href>
        </Icon>
      </IconStyle>
      <LabelStyle>
        <scale>0</scale>
      </LabelStyle>
    </Style>
    <Style id="icon-1499-000000-highlight">
      <IconStyle>
        <color>ff000000</color>
        <scale>1</scale>
        <Icon>
          <href>https://www.gstatic.com/mapspro/images/stock/503-wht-blank_maps.png</href>
        </Icon>
      </IconStyle>
      <LabelStyle>
        <scale>1</scale>
      </LabelStyle>
    </Style>
    <StyleMap id="icon-1499-000000">
      <Pair>
        <key>normal</key>
        <styleUrl>#icon-1499-000000-normal</styleUrl>
      </Pair>
      <Pair>
        <key>highlight</key>
        <styleUrl>#icon-1499-000000-highlight</styleUrl>
      </Pair>
    </StyleMap>
    <Style id="icon-1499-F57C00-normal">
      <IconStyle>
        <color>ff007cf5</color>
        <scale>1</scale>
        <Icon>
          <href>https://www.gstatic.com/mapspro/images/stock/503-wht-blank_maps.png</href>
        </Icon>
      </IconStyle>
      <LabelStyle>
        <scale>0</scale>
      </LabelStyle>
    </Style>
    <Style id="icon-1499-F57C00-highlight">
      <IconStyle>
        <color>ff007cf5</color>
        <scale>1</scale>
        <Icon>
          <href>https://www.gstatic.com/mapspro/images/stock/503-wht-blank_maps.png</href>
        </Icon>
      </IconStyle>
      <LabelStyle>
        <scale>1</scale>
      </LabelStyle>
    </Style>
    <StyleMap id="icon-1499-F57C00">
      <Pair>
        <key>normal</key>
        <styleUrl>#icon-1499-F57C00-normal</styleUrl>
      </Pair>
      <Pair>
        <key>highlight</key>
        <styleUrl>#icon-1499-F57C00-highlight</styleUrl>
      </Pair>
    </StyleMap>
    <Style id="icon-1532-000000-normal">
      <IconStyle>
        <color>ff000000</color>
        <scale>1</scale>
        <Icon>
          <href>https://www.gstatic.com/mapspro/images/stock/503-wht-blank_maps.png</href>
        </Icon>
      </IconStyle>
      <LabelStyle>
        <scale>0</scale>
      </LabelStyle>
    </Style>
    <Style id="icon-1532-000000-highlight">
      <IconStyle>
        <color>ff000000</color>
        <scale>1</scale>
        <Icon>
          <href>https://www.gstatic.com/mapspro/images/stock/503-wht-blank_maps.png</href>
        </Icon>
      </IconStyle>
      <LabelStyle>
        <scale>1</scale>
      </LabelStyle>
    </Style>
    <StyleMap id="icon-1532-000000">
      <Pair>
        <key>normal</key>
        <styleUrl>#icon-1532-000000-normal</styleUrl>
      </Pair>
      <Pair>
        <key>highlight</key>
        <styleUrl>#icon-1532-000000-highlight</styleUrl>
      </Pair>
    </StyleMap>
    <Style id="icon-1532-F57C00-normal">
      <IconStyle>
        <color>ff007cf5</color>
        <scale>1</scale>
        <Icon>
          <href>https://www.gstatic.com/mapspro/images/stock/503-wht-blank_maps.png</href>
        </Icon>
      </IconStyle>
      <LabelStyle>
        <scale>0</scale>
      </LabelStyle>
    </Style>
    <Style id="icon-1532-F57C00-highlight">
      <IconStyle>
        <color>ff007cf5</color>
        <scale>1</scale>
        <Icon>
          <href>https://www.gstatic.com/mapspro/images/stock/503-wht-blank_maps.png</href>
        </Icon>
      </IconStyle>
      <LabelStyle>
        <scale>1</scale>
      </LabelStyle>
    </Style>
    <StyleMap id="icon-1532-F57C00">
      <Pair>
        <key>normal</key>
        <styleUrl>#icon-1532-F57C00-normal</styleUrl>
      </Pair>
      <Pair>
        <key>highlight</key>
        <styleUrl>#icon-1532-F57C00-highlight</styleUrl>
      </Pair>
    </StyleMap>
    <Style id="icon-1626-000000-normal">
      <IconStyle>
        <color>ff000000</color>
        <scale>1</scale>
        <Icon>
          <href>https://www.gstatic.com/mapspro/images/stock/503-wht-blank_maps.png</href>
        </Icon>
      </IconStyle>
      <LabelStyle>
        <scale>0</scale>
      </LabelStyle>
    </Style>
    <Style id="icon-1626-000000-highlight">
      <IconStyle>
        <color>ff000000</color>
        <scale>1</scale>
        <Icon>
          <href>https://www.gstatic.com/mapspro/images/stock/503-wht-blank_maps.png</href>
        </Icon>
      </IconStyle>
      <LabelStyle>
        <scale>1</scale>
      </LabelStyle>
    </Style>
    <StyleMap id="icon-1626-000000">
      <Pair>
        <key>normal</key>
        <styleUrl>#icon-1626-000000-normal</styleUrl>
      </Pair>
      <Pair>
        <key>highlight</key>
        <styleUrl>#icon-1626-000000-highlight</styleUrl>
      </Pair>
    </StyleMap>
    <Style id="icon-1626-F57C00-normal">
      <IconStyle>
        <color>ff007cf5</color>
        <scale>1</scale>
        <Icon>
          <href>https://www.gstatic.com/mapspro/images/stock/503-wht-blank_maps.png</href>
        </Icon>
      </IconStyle>
      <LabelStyle>
        <scale>0</scale>
      </LabelStyle>
    </Style>
    <Style id="icon-1626-F57C00-highlight">
      <IconStyle>
        <color>ff007cf5</color>
        <scale>1</scale>
        <Icon>
          <href>https://www.gstatic.com/mapspro/images/stock/503-wht-blank_maps.png</href>
        </Icon>
      </IconStyle>
      <LabelStyle>
        <scale>1</scale>
      </LabelStyle>
    </Style>
    <StyleMap id="icon-1626-F57C00">
      <Pair>
        <key>normal</key>
        <styleUrl>#icon-1626-F57C00-normal</styleUrl>
      </Pair>
      <Pair>
        <key>highlight</key>
        <styleUrl>#icon-1626-F57C00-highlight</styleUrl>
      </Pair>
    </StyleMap>
    <Style id="icon-1670-000000-normal">
      <IconStyle>
        <color>ff000000</color>
        <scale>1</scale>
        <Icon>
          <href>https://www.gstatic.com/mapspro/images/stock/503-wht-blank_maps.png</href>
        </Icon>
      </IconStyle>
      <LabelStyle>
        <scale>0</scale>
      </LabelStyle>
    </Style>
    <Style id="icon-1670-000000-highlight">
      <IconStyle>
        <color>ff000000</color>
        <scale>1</scale>
        <Icon>
          <href>https://www.gstatic.com/mapspro/images/stock/503-wht-blank_maps.png</href>
        </Icon>
      </IconStyle>
      <LabelStyle>
        <scale>1</scale>
      </LabelStyle>
    </Style>
    <StyleMap id="icon-1670-000000">
      <Pair>
        <key>normal</key>
        <styleUrl>#icon-1670-000000-normal</styleUrl>
      </Pair>
      <Pair>
        <key>highlight</key>
        <styleUrl>#icon-1670-000000-highlight</styleUrl>
      </Pair>
    </StyleMap>
    <Style id="icon-1670-F57C00-normal">
      <IconStyle>
        <color>ff007cf5</color>
        <scale>1</scale>
        <Icon>
          <href>https://www.gstatic.com/mapspro/images/stock/503-wht-blank_maps.png</href>
        </Icon>
      </IconStyle>
      <LabelStyle>
        <scale>0</scale>
      </LabelStyle>
    </Style>
    <Style id="icon-1670-F57C00-highlight">
      <IconStyle>
        <color>ff007cf5</color>
        <scale>1</scale>
        <Icon>
          <href>https://www.gstatic.com/mapspro/images/stock/503-wht-blank_maps.png</href>
        </Icon>
      </IconStyle>
      <LabelStyle>
        <scale>1</scale>
      </LabelStyle>
    </Style>
    <StyleMap id="icon-1670-F57C00">
      <Pair>
        <key>normal</key>
        <styleUrl>#icon-1670-F57C00-normal</styleUrl>
      </Pair>
      <Pair>
        <key>highlight</key>
        <styleUrl>#icon-1670-F57C00-highlight</styleUrl>
      </Pair>
    </StyleMap>
    <Style id="icon-1694-000000-normal">
      <IconStyle>
        <color>ff000000</color>
        <scale>1</scale>
        <Icon>
          <href>https://www.gstatic.com/mapspro/images/stock/503-wht-blank_maps.png</href>
        </Icon>
      </IconStyle>
      <LabelStyle>
        <scale>0</scale>
      </LabelStyle>
    </Style>
    <Style id="icon-1694-000000-highlight">
      <IconStyle>
        <color>ff000000</color>
        <scale>1</scale>
        <Icon>
          <href>https://www.gstatic.com/mapspro/images/stock/503-wht-blank_maps.png</href>
        </Icon>
      </IconStyle>
      <LabelStyle>
        <scale>1</scale>
      </LabelStyle>
    </Style>
    <StyleMap id="icon-1694-000000">
      <Pair>
        <key>normal</key>
        <styleUrl>#icon-1694-000000-normal</styleUrl>
      </Pair>
      <Pair>
        <key>highlight</key>
        <styleUrl>#icon-1694-000000-highlight</styleUrl>
      </Pair>
    </StyleMap>
    <Style id="icon-1694-F57C00-normal">
      <IconStyle>
        <color>ff007cf5</color>
        <scale>1</scale>
        <Icon>
          <href>https://www.gstatic.com/mapspro/images/stock/503-wht-blank_maps.png</href>
        </Icon>
      </IconStyle>
      <LabelStyle>
        <scale>0</scale>
      </LabelStyle>
    </Style>
    <Style id="icon-1694-F57C00-highlight">
      <IconStyle>
        <color>ff007cf5</color>
        <scale>1</scale>
        <Icon>
          <href>https://www.gstatic.com/mapspro/images/stock/503-wht-blank_maps.png</href>
        </Icon>
      </IconStyle>
      <LabelStyle>
        <scale>1</scale>
      </LabelStyle>
    </Style>
    <StyleMap id="icon-1694-F57C00">
      <Pair>
        <key>normal</key>
        <styleUrl>#icon-1694-F57C00-normal</styleUrl>
      </Pair>
      <Pair>
        <key>highlight</key>
        <styleUrl>#icon-1694-F57C00-highlight</styleUrl>
      </Pair>
    </StyleMap>
    <Style id="icon-1886-000000-normal">
      <IconStyle>
        <color>ff000000</color>
        <scale>1</scale>
        <Icon>
          <href>https://www.gstatic.com/mapspro/images/stock/503-wht-blank_maps.png</href>
        </Icon>
      </IconStyle>
      <LabelStyle>
        <scale>0</scale>
      </LabelStyle>
    </Style>
    <Style id="icon-1886-000000-highlight">
      <IconStyle>
        <color>ff000000</color>
        <scale>1</scale>
        <Icon>
          <href>https://www.gstatic.com/mapspro/images/stock/503-wht-blank_maps.png</href>
        </Icon>
      </IconStyle>
      <LabelStyle>
        <scale>1</scale>
      </LabelStyle>
    </Style>
    <StyleMap id="icon-1886-000000">
      <Pair>
        <key>normal</key>
        <styleUrl>#icon-1886-000000-normal</styleUrl>
      </Pair>
      <Pair>
        <key>highlight</key>
        <styleUrl>#icon-1886-000000-highlight</styleUrl>
      </Pair>
    </StyleMap>
    <Style id="icon-1886-F57C00-normal">
      <IconStyle>
        <color>ff007cf5</color>
        <scale>1</scale>
        <Icon>
          <href>https://www.gstatic.com/mapspro/images/stock/503-wht-blank_maps.png</href>
        </Icon>
      </IconStyle>
      <LabelStyle>
        <scale>0</scale>
      </LabelStyle>
    </Style>
    <Style id="icon-1886-F57C00-highlight">
      <IconStyle>
        <color>ff007cf5</color>
        <scale>1</scale>
        <Icon>
          <href>https://www.gstatic.com/mapspro/images/stock/503-wht-blank_maps.png</href>
        </Icon>
      </IconStyle>
      <LabelStyle>
        <scale>1</scale>
      </LabelStyle>
    </Style>
    <StyleMap id="icon-1886-F57C00">
      <Pair>
        <key>normal</key>
        <styleUrl>#icon-1886-F57C00-normal</styleUrl>
      </Pair>
      <Pair>
        <key>highlight</key>
        <styleUrl>#icon-1886-F57C00-highlight</styleUrl>
      </Pair>
    </StyleMap>
    <Style id="line-000000-5456-nodesc-normal">
      <LineStyle>
        <color>ff000000</color>
        <width>5.456</width>
      </LineStyle>
      <BalloonStyle>
        <text><![CDATA[<h3>$[name]</h3>]]></text>
      </BalloonStyle>
    </Style>
    <Style id="line-000000-5456-nodesc-highlight">
      <LineStyle>
        <color>ff000000</color>
        <width>8.184</width>
      </LineStyle>
      <BalloonStyle>
        <text><![CDATA[<h3>$[name]</h3>]]></text>
      </BalloonStyle>
    </Style>
    <StyleMap id="line-000000-5456-nodesc">
      <Pair>
        <key>normal</key>
        <styleUrl>#line-000000-5456-nodesc-normal</styleUrl>
      </Pair>
      <Pair>
        <key>highlight</key>
        <styleUrl>#line-000000-5456-nodesc-highlight</styleUrl>
      </Pair>
    </StyleMap>
    <Style id="line-F57C00-5263-nodesc-normal">
      <LineStyle>
        <color>ff007cf5</color>
        <width>5.263</width>
      </LineStyle>
      <BalloonStyle>
        <text><![CDATA[<h3>$[name]</h3>]]></text>
      </BalloonStyle>
    </Style>
    <Style id="line-F57C00-5263-nodesc-highlight">
      <LineStyle>
        <color>ff007cf5</color>
        <width>7.8945</width>
      </LineStyle>
      <BalloonStyle>
        <text><![CDATA[<h3>$[name]</h3>]]></text>
      </BalloonStyle>
    </Style>
    <StyleMap id="line-F57C00-5263-nodesc">
      <Pair>
        <key>normal</key>
        <styleUrl>#line-F57C00-5263-nodesc-normal</styleUrl>
      </Pair>
      <Pair>
        <key>highlight</key>
        <styleUrl>#line-F57C00-5263-nodesc-highlight</styleUrl>
      </Pair>
    </StyleMap>
    <Folder>
      <name>Маршрут туда</name>
      <Placemark>
        <name>Линия маршрута</name>
        <styleUrl>#line-F57C00-5263-nodesc</styleUrl>
        <LineString>
          <tessellate>1</tessellate>
          <coordinates>
            36.2307114,50.0059485,0
            36.2303681,50.0062312,0
            36.2300784,50.0064242,0
            36.2293703,50.0065966,0
            36.2290162,50.0066656,0
            36.2285978,50.0077413,0
            36.2286407,50.0079067,0
            36.2286193,50.0080377,0
            36.2283832,50.0088514,0
            36.2273425,50.0121954,0
            36.2265486,50.0147808,0
            36.2256581,50.0177452,0
            36.2246603,50.0211438,0
            36.2238986,50.0236873,0
            36.2228901,50.0273887,0
            36.222536,50.0282778,0
            36.2223644,50.0287741,0
            36.2215168,50.0315653,0
            36.2207765,50.0341497,0
            36.2205512,50.0348251,0
            36.2204117,50.035528,0
            36.2203903,50.0359552,0
            36.2204546,50.0364238,0
            36.2210554,50.0378916,0
            36.2225789,50.0416264,0
            36.2228579,50.0423085,0
            36.2234051,50.0422189,0
            36.2249071,50.0419778,0
            36.225642,50.04184,0
            36.226334,50.0416264,0
            36.2272245,50.0412681,0
            36.2279326,50.0407995,0
            36.2291879,50.0399726,0
            36.2304968,50.039132,0
            36.2314088,50.0385325,0
            36.232546,50.038057,0
            36.2342197,50.0373403,0
            36.2353141,50.0369476,0
            36.2363011,50.0366512,0
            36.2375349,50.0363342,0
            36.2385971,50.0360862,0
            36.2394983,50.0356658,0
            36.2405068,50.0352179,0
            36.241687,50.0347079,0
            36.2423415,50.0354522,0
            36.2453455,50.0383568,0
            36.2454904,50.0385049,0
            36.2453402,50.0385428,0
            36.2452165,50.0384919,0
            36.245147,50.0384119,0
          </coordinates>
        </LineString>
      </Placemark>
      <Placemark>
        <name>Станция метро Госпром
</name>
        <description>Автобус - 33. Троллейбус - 2, 18, 58.</description>
        <styleUrl>#icon-1499-F57C00</styleUrl>
        <Point>
          <coordinates>
            36.2308367,50.0059926,0
          </coordinates>
        </Point>
      </Placemark>
      <Placemark>
        <name>Остановка ул. Чичибабина</name>
        <description>Автобус - 33. Троллейбус - 2, 18, 58.</description>
        <styleUrl>#icon-1532-F57C00</styleUrl>
        <Point>
          <coordinates>
            36.2278327,50.0106676,0
          </coordinates>
        </Point>
      </Placemark>
      <Placemark>
        <name>Станция метро Научная</name>
        <description>Автобус -  33. Троллейбус - 2, 18, 58.</description>
        <styleUrl>#icon-1626-F57C00</styleUrl>
        <Point>
          <coordinates>
            36.2270173,50.0135426,0
          </coordinates>
        </Point>
      </Placemark>
      <Placemark>
        <name>Остановка ул. Космическая
</name>
        <description>Автобус - 20, 33. Троллейбус - 2, 18, 58.</description>
        <styleUrl>#icon-1532-F57C00</styleUrl>
        <Point>
          <coordinates>
            36.2255796,50.0187994,0
          </coordinates>
        </Point>
      </Placemark>
      <Placemark>
        <name>Остановка ул. Европейская
</name>
        <description>Автобус - 20, 33. Троллейбус - 2, 18, 58.</description>
        <styleUrl>#icon-1532-F57C00</styleUrl>
        <Point>
          <coordinates>
            36.2246605,50.0217451,0
          </coordinates>
        </Point>
      </Placemark>
      <Placemark>
        <name>Станция метро Ботанический сад
</name>
        <description>Автобус -33. Троллейбус - 2, 18, 58.</description>
        <styleUrl>#icon-1626-F57C00</styleUrl>
        <Point>
          <coordinates>
            36.2230727,50.0274296,0
          </coordinates>
        </Point>
      </Placemark>
      <Placemark>
        <name>Остановка ул. Тобольская
</name>
        <description>Автобус -33. Троллейбус - 2, 18, 58.</description>
        <styleUrl>#icon-1532-F57C00</styleUrl>
        <Point>
          <coordinates>
            36.221989,50.0308825,0
          </coordinates>
        </Point>
      </Placemark>
      <Placemark>
        <name>Станция метро 23 Августа 
</name>
        <description>Автобус -63. Троллейбус - 2, 18, 58..</description>
        <styleUrl>#icon-1626-F57C00</styleUrl>
        <Point>
          <coordinates>
            36.2207445,50.0348659,0
          </coordinates>
        </Point>
      </Placemark>
      <Placemark>
        <name>Станция метро 23 Августа
</name>
        <description>Автобус -63. Троллейбус - 2, 18, 58.</description>
        <styleUrl>#icon-1626-F57C00</styleUrl>
        <Point>
          <coordinates>
            36.2207082,50.0367662,0
          </coordinates>
        </Point>
      </Placemark>
      <Placemark>
        <name>Остановка Институт низких температур
</name>
        <description>Автобус -63. Троллейбус - 2, 18, 58.</description>
        <styleUrl>#icon-1694-F57C00</styleUrl>
        <Point>
          <coordinates>
            36.2218024,50.0396356,0
          </coordinates>
        </Point>
      </Placemark>
      <Placemark>
        <name>Остановка Рождественская церковь
</name>
        <description>Троллейбус - 18, 40.</description>
        <styleUrl>#icon-1670-F57C00</styleUrl>
        <Point>
          <coordinates>
            36.223734,50.0421713,0
          </coordinates>
        </Point>
      </Placemark>
      <Placemark>
        <name>Остановка Диброва
</name>
        <description>Троллейбус - 18, 40.</description>
        <styleUrl>#icon-1886-F57C00</styleUrl>
        <Point>
          <coordinates>
            36.2280892,50.0406554,0
          </coordinates>
        </Point>
      </Placemark>
      <Placemark>
        <name>Остановка ул. Новопрудная
</name>
        <description>Автобус- 33, 63. Троллейбус - 12, 18, 40.</description>
        <styleUrl>#icon-1532-F57C00</styleUrl>
        <Point>
          <coordinates>
            36.2360216,50.0366761,0
          </coordinates>
        </Point>
      </Placemark>
      <Placemark>
        <name>Остановка ул. Балакирева
</name>
        <description>Автобус- 20, 77. Маршрутка - 277э.  Троллейбус -18.</description>
        <styleUrl>#icon-1532-F57C00</styleUrl>
        <Point>
          <coordinates>
            36.2421263,50.0351359,0
          </coordinates>
        </Point>
      </Placemark>
    </Folder>
    <Folder>
      <name>Маршрут обратно</name>
      <Placemark>
        <name>Линия маршрута</name>
        <styleUrl>#line-000000-5456-nodesc</styleUrl>
        <LineString>
          <tessellate>1</tessellate>
          <coordinates>
            36.245147,50.0384119,0
            36.2451155,50.038335,0
            36.2451799,50.0382764,0
            36.2450887,50.0381765,0
            36.242841,50.0360402,0
            36.2423582,50.0355716,0
            36.2416608,50.0348825,0
            36.2408669,50.035203,0
            36.2395848,50.0357715,0
            36.2386085,50.036185,0
            36.2370367,50.0365709,0
            36.2356581,50.0369258,0
            36.2343813,50.0373737,0
            36.2334962,50.0377561,0
            36.231565,50.0385899,0
            36.2312485,50.038776,0
            36.2290759,50.0401817,0
            36.2274022,50.0412842,0
            36.2270053,50.0414909,0
            36.2264366,50.0417045,0
            36.2260289,50.0418388,0
            36.2240656,50.0422178,0
            36.2227996,50.0424417,0
            36.2226923,50.0422385,0
            36.2222041,50.0411188,0
            36.2219734,50.0405365,0
            36.2213565,50.0390034,0
            36.2207986,50.0376459,0
            36.2203909,50.0367052,0
            36.2202783,50.0364537,0
            36.2202193,50.0362573,0
            36.2202032,50.0358335,0
            36.2202461,50.0354614,0
            36.2203266,50.0351513,0
            36.2206752,50.0340314,0
            36.2211795,50.0322775,0
            36.2216838,50.030558,0
            36.2223275,50.0284559,0
            36.2223919,50.0282112,0
            36.222644,50.027391,0
            36.2232233,50.0253474,0
            36.2238939,50.0230245,0
            36.2243606,50.0214425,0
            36.2245001,50.0207876,0
            36.2247468,50.019957,0
            36.2252618,50.0182473,0
            36.2254335,50.0177269,0
            36.2260504,50.0156793,0
            36.2266834,50.0134594,0
            36.2274344,50.0110945,0
            36.2281479,50.0085917,0
            36.2284,50.0078815,0
            36.2286407,50.0079067,0
            36.2288399,50.0079401,0
            36.22943,50.008009,0
            36.2302561,50.0080021,0
            36.2307282,50.0078987,0
            36.2316294,50.0075746,0
            36.2327345,50.0070575,0
            36.2334855,50.0067334,0
            36.2318976,50.0051681,0
            36.2307114,50.0059485,0
          </coordinates>
        </LineString>
      </Placemark>
      <Placemark>
        <name>Остановка Больница неотложной помощи
</name>
        <description>Троллейбус-18.</description>
        <styleUrl>#icon-1499-000000</styleUrl>
        <Point>
          <coordinates>
            36.2452165,50.0384919,0
          </coordinates>
        </Point>
      </Placemark>
      <Placemark>
        <name>Остановка ул. Балакирева
</name>
        <description>Автобус- 33, 63.  Троллейбус - 12, 18, 40.</description>
        <styleUrl>#icon-1532-000000</styleUrl>
        <Point>
          <coordinates>
            36.2411485,50.0351287,0
          </coordinates>
        </Point>
      </Placemark>
      <Placemark>
        <name>Остановка ул. Новопрудная
</name>
        <description>Автобус- 33, 63. Троллейбус - 12, 18, 40.</description>
        <styleUrl>#icon-1532-000000</styleUrl>
        <Point>
          <coordinates>
            36.2355242,50.0369652,0
          </coordinates>
        </Point>
      </Placemark>
      <Placemark>
        <name>Остановка Диброва
</name>
        <description>Троллейбус - 18, 40.</description>
        <styleUrl>#icon-1886-000000</styleUrl>
        <Point>
          <coordinates>
            36.2265453,50.0416965,0
          </coordinates>
        </Point>
      </Placemark>
      <Placemark>
        <name>Остановка Рождественская церковь
</name>
        <description>Автобус -63. Троллейбус - 2, 18, 58.</description>
        <styleUrl>#icon-1670-000000</styleUrl>
        <Point>
          <coordinates>
            36.2226825,50.0416545,0
          </coordinates>
        </Point>
      </Placemark>
      <Placemark>
        <name>Остановка Институт низких температур
</name>
        <description>Автобус -63. Троллейбус - 2, 18, 58.</description>
        <styleUrl>#icon-1694-000000</styleUrl>
        <Point>
          <coordinates>
            36.221223,50.0390292,0
          </coordinates>
        </Point>
      </Placemark>
      <Placemark>
        <name>Станция метро 23 Августа
</name>
        <description>Автобус -63. Троллейбус - 2, 18, 58.</description>
        <styleUrl>#icon-1626-000000</styleUrl>
        <Point>
          <coordinates>
            36.2205473,50.0337644,0
          </coordinates>
        </Point>
      </Placemark>
      <Placemark>
        <name>Остановка ул. Тобольская
</name>
        <description>Автобус -33. Троллейбус - 2, 18, 58.</description>
        <styleUrl>#icon-1532-000000</styleUrl>
        <Point>
          <coordinates>
            36.2216319,50.0302971,0
          </coordinates>
        </Point>
      </Placemark>
      <Placemark>
        <name>Станция метро Ботанический сад
</name>
        <description>Автобус -33. Троллейбус - 2, 18, 58.</description>
        <styleUrl>#icon-1626-000000</styleUrl>
        <Point>
          <coordinates>
            36.2227713,50.0265684,0
          </coordinates>
        </Point>
      </Placemark>
      <Placemark>
        <name>Остановка ул. Европейская
</name>
        <description>Автобус - 20, 33. Троллейбус - 2, 18, 58.</description>
        <styleUrl>#icon-1532-000000</styleUrl>
        <Point>
          <coordinates>
            36.2242654,50.0209231,0
          </coordinates>
        </Point>
      </Placemark>
      <Placemark>
        <name>Остановка ул. Космическая
</name>
        <description>Автобус - 20, 33. Троллейбус - 2, 18, 58.</description>
        <styleUrl>#icon-1532-000000</styleUrl>
        <Point>
          <coordinates>
            36.2251452,50.0181967,0
          </coordinates>
        </Point>
      </Placemark>
      <Placemark>
        <name>Станция метро Научная
</name>
        <description>Автобус - 33. Троллейбус - 2, 18, 58.</description>
        <styleUrl>#icon-1626-000000</styleUrl>
        <Point>
          <coordinates>
            36.226634,50.0132985,0
          </coordinates>
        </Point>
      </Placemark>
      <Placemark>
        <name>Остановка ул. Чичибабина
</name>
        <description>Автобус - 33. Троллейбус - 2, 18, 58.</description>
        <styleUrl>#icon-1532-000000</styleUrl>
        <Point>
          <coordinates>
            36.2277051,50.0095788,0
          </coordinates>
        </Point>
      </Placemark>
      <Placemark>
        <name>Станция метро Госпром
</name>
        <description>Троллейбус - 18.</description>
        <styleUrl>#icon-1626-000000</styleUrl>
        <Point>
          <coordinates>
            36.2330181,50.0063001,0
          </coordinates>
        </Point>
      </Placemark>
    </Folder>
  </Document>
</kml>
