<?xml version="1.0" encoding="UTF-8"?>
<kml xmlns="http://www.opengis.net/kml/2.2">
  <Document>
    <name>Троллейбусный маршрут №57 Харьков (парк Зустрич - метро Академика Барабашова)</name>
    <description>Подробно https://kharkiv.inform.city/-ru/-tr/tr_city/tr_city_tb/ </description>
    <Style id="icon-1499-000000-normal">
      <IconStyle>
        <color>ff000000</color>
        <scale>1</scale>
        <Icon>
          <href>https://www.gstatic.com/mapspro/images/stock/503-wht-blank_maps.png</href>
        </Icon>
      </IconStyle>
      <LabelStyle>
        <scale>0</scale>
      </LabelStyle>
    </Style>
    <Style id="icon-1499-000000-highlight">
      <IconStyle>
        <color>ff000000</color>
        <scale>1</scale>
        <Icon>
          <href>https://www.gstatic.com/mapspro/images/stock/503-wht-blank_maps.png</href>
        </Icon>
      </IconStyle>
      <LabelStyle>
        <scale>1</scale>
      </LabelStyle>
    </Style>
    <StyleMap id="icon-1499-000000">
      <Pair>
        <key>normal</key>
        <styleUrl>#icon-1499-000000-normal</styleUrl>
      </Pair>
      <Pair>
        <key>highlight</key>
        <styleUrl>#icon-1499-000000-highlight</styleUrl>
      </Pair>
    </StyleMap>
    <Style id="icon-1499-F57C00-normal">
      <IconStyle>
        <color>ff007cf5</color>
        <scale>1</scale>
        <Icon>
          <href>https://www.gstatic.com/mapspro/images/stock/503-wht-blank_maps.png</href>
        </Icon>
      </IconStyle>
      <LabelStyle>
        <scale>0</scale>
      </LabelStyle>
    </Style>
    <Style id="icon-1499-F57C00-highlight">
      <IconStyle>
        <color>ff007cf5</color>
        <scale>1</scale>
        <Icon>
          <href>https://www.gstatic.com/mapspro/images/stock/503-wht-blank_maps.png</href>
        </Icon>
      </IconStyle>
      <LabelStyle>
        <scale>1</scale>
      </LabelStyle>
    </Style>
    <StyleMap id="icon-1499-F57C00">
      <Pair>
        <key>normal</key>
        <styleUrl>#icon-1499-F57C00-normal</styleUrl>
      </Pair>
      <Pair>
        <key>highlight</key>
        <styleUrl>#icon-1499-F57C00-highlight</styleUrl>
      </Pair>
    </StyleMap>
    <Style id="icon-1532-000000-normal">
      <IconStyle>
        <color>ff000000</color>
        <scale>1</scale>
        <Icon>
          <href>https://www.gstatic.com/mapspro/images/stock/503-wht-blank_maps.png</href>
        </Icon>
      </IconStyle>
      <LabelStyle>
        <scale>0</scale>
      </LabelStyle>
    </Style>
    <Style id="icon-1532-000000-highlight">
      <IconStyle>
        <color>ff000000</color>
        <scale>1</scale>
        <Icon>
          <href>https://www.gstatic.com/mapspro/images/stock/503-wht-blank_maps.png</href>
        </Icon>
      </IconStyle>
      <LabelStyle>
        <scale>1</scale>
      </LabelStyle>
    </Style>
    <StyleMap id="icon-1532-000000">
      <Pair>
        <key>normal</key>
        <styleUrl>#icon-1532-000000-normal</styleUrl>
      </Pair>
      <Pair>
        <key>highlight</key>
        <styleUrl>#icon-1532-000000-highlight</styleUrl>
      </Pair>
    </StyleMap>
    <Style id="icon-1532-F57C00-normal">
      <IconStyle>
        <color>ff007cf5</color>
        <scale>1</scale>
        <Icon>
          <href>https://www.gstatic.com/mapspro/images/stock/503-wht-blank_maps.png</href>
        </Icon>
      </IconStyle>
      <LabelStyle>
        <scale>0</scale>
      </LabelStyle>
    </Style>
    <Style id="icon-1532-F57C00-highlight">
      <IconStyle>
        <color>ff007cf5</color>
        <scale>1</scale>
        <Icon>
          <href>https://www.gstatic.com/mapspro/images/stock/503-wht-blank_maps.png</href>
        </Icon>
      </IconStyle>
      <LabelStyle>
        <scale>1</scale>
      </LabelStyle>
    </Style>
    <StyleMap id="icon-1532-F57C00">
      <Pair>
        <key>normal</key>
        <styleUrl>#icon-1532-F57C00-normal</styleUrl>
      </Pair>
      <Pair>
        <key>highlight</key>
        <styleUrl>#icon-1532-F57C00-highlight</styleUrl>
      </Pair>
    </StyleMap>
    <Style id="icon-1626-000000-normal">
      <IconStyle>
        <color>ff000000</color>
        <scale>1</scale>
        <Icon>
          <href>https://www.gstatic.com/mapspro/images/stock/503-wht-blank_maps.png</href>
        </Icon>
      </IconStyle>
      <LabelStyle>
        <scale>0</scale>
      </LabelStyle>
    </Style>
    <Style id="icon-1626-000000-highlight">
      <IconStyle>
        <color>ff000000</color>
        <scale>1</scale>
        <Icon>
          <href>https://www.gstatic.com/mapspro/images/stock/503-wht-blank_maps.png</href>
        </Icon>
      </IconStyle>
      <LabelStyle>
        <scale>1</scale>
      </LabelStyle>
    </Style>
    <StyleMap id="icon-1626-000000">
      <Pair>
        <key>normal</key>
        <styleUrl>#icon-1626-000000-normal</styleUrl>
      </Pair>
      <Pair>
        <key>highlight</key>
        <styleUrl>#icon-1626-000000-highlight</styleUrl>
      </Pair>
    </StyleMap>
    <Style id="icon-1626-F57C00-normal">
      <IconStyle>
        <color>ff007cf5</color>
        <scale>1</scale>
        <Icon>
          <href>https://www.gstatic.com/mapspro/images/stock/503-wht-blank_maps.png</href>
        </Icon>
      </IconStyle>
      <LabelStyle>
        <scale>0</scale>
      </LabelStyle>
    </Style>
    <Style id="icon-1626-F57C00-highlight">
      <IconStyle>
        <color>ff007cf5</color>
        <scale>1</scale>
        <Icon>
          <href>https://www.gstatic.com/mapspro/images/stock/503-wht-blank_maps.png</href>
        </Icon>
      </IconStyle>
      <LabelStyle>
        <scale>1</scale>
      </LabelStyle>
    </Style>
    <StyleMap id="icon-1626-F57C00">
      <Pair>
        <key>normal</key>
        <styleUrl>#icon-1626-F57C00-normal</styleUrl>
      </Pair>
      <Pair>
        <key>highlight</key>
        <styleUrl>#icon-1626-F57C00-highlight</styleUrl>
      </Pair>
    </StyleMap>
    <Style id="icon-1638-000000-normal">
      <IconStyle>
        <color>ff000000</color>
        <scale>1</scale>
        <Icon>
          <href>https://www.gstatic.com/mapspro/images/stock/503-wht-blank_maps.png</href>
        </Icon>
      </IconStyle>
      <LabelStyle>
        <scale>0</scale>
      </LabelStyle>
    </Style>
    <Style id="icon-1638-000000-highlight">
      <IconStyle>
        <color>ff000000</color>
        <scale>1</scale>
        <Icon>
          <href>https://www.gstatic.com/mapspro/images/stock/503-wht-blank_maps.png</href>
        </Icon>
      </IconStyle>
      <LabelStyle>
        <scale>1</scale>
      </LabelStyle>
    </Style>
    <StyleMap id="icon-1638-000000">
      <Pair>
        <key>normal</key>
        <styleUrl>#icon-1638-000000-normal</styleUrl>
      </Pair>
      <Pair>
        <key>highlight</key>
        <styleUrl>#icon-1638-000000-highlight</styleUrl>
      </Pair>
    </StyleMap>
    <Style id="icon-1638-F57C00-normal">
      <IconStyle>
        <color>ff007cf5</color>
        <scale>1</scale>
        <Icon>
          <href>https://www.gstatic.com/mapspro/images/stock/503-wht-blank_maps.png</href>
        </Icon>
      </IconStyle>
      <LabelStyle>
        <scale>0</scale>
      </LabelStyle>
    </Style>
    <Style id="icon-1638-F57C00-highlight">
      <IconStyle>
        <color>ff007cf5</color>
        <scale>1</scale>
        <Icon>
          <href>https://www.gstatic.com/mapspro/images/stock/503-wht-blank_maps.png</href>
        </Icon>
      </IconStyle>
      <LabelStyle>
        <scale>1</scale>
      </LabelStyle>
    </Style>
    <StyleMap id="icon-1638-F57C00">
      <Pair>
        <key>normal</key>
        <styleUrl>#icon-1638-F57C00-normal</styleUrl>
      </Pair>
      <Pair>
        <key>highlight</key>
        <styleUrl>#icon-1638-F57C00-highlight</styleUrl>
      </Pair>
    </StyleMap>
    <Style id="icon-1720-000000-normal">
      <IconStyle>
        <color>ff000000</color>
        <scale>1</scale>
        <Icon>
          <href>https://www.gstatic.com/mapspro/images/stock/503-wht-blank_maps.png</href>
        </Icon>
      </IconStyle>
      <LabelStyle>
        <scale>0</scale>
      </LabelStyle>
    </Style>
    <Style id="icon-1720-000000-highlight">
      <IconStyle>
        <color>ff000000</color>
        <scale>1</scale>
        <Icon>
          <href>https://www.gstatic.com/mapspro/images/stock/503-wht-blank_maps.png</href>
        </Icon>
      </IconStyle>
      <LabelStyle>
        <scale>1</scale>
      </LabelStyle>
    </Style>
    <StyleMap id="icon-1720-000000">
      <Pair>
        <key>normal</key>
        <styleUrl>#icon-1720-000000-normal</styleUrl>
      </Pair>
      <Pair>
        <key>highlight</key>
        <styleUrl>#icon-1720-000000-highlight</styleUrl>
      </Pair>
    </StyleMap>
    <Style id="icon-1720-F57C00-normal">
      <IconStyle>
        <color>ff007cf5</color>
        <scale>1</scale>
        <Icon>
          <href>https://www.gstatic.com/mapspro/images/stock/503-wht-blank_maps.png</href>
        </Icon>
      </IconStyle>
      <LabelStyle>
        <scale>0</scale>
      </LabelStyle>
    </Style>
    <Style id="icon-1720-F57C00-highlight">
      <IconStyle>
        <color>ff007cf5</color>
        <scale>1</scale>
        <Icon>
          <href>https://www.gstatic.com/mapspro/images/stock/503-wht-blank_maps.png</href>
        </Icon>
      </IconStyle>
      <LabelStyle>
        <scale>1</scale>
      </LabelStyle>
    </Style>
    <StyleMap id="icon-1720-F57C00">
      <Pair>
        <key>normal</key>
        <styleUrl>#icon-1720-F57C00-normal</styleUrl>
      </Pair>
      <Pair>
        <key>highlight</key>
        <styleUrl>#icon-1720-F57C00-highlight</styleUrl>
      </Pair>
    </StyleMap>
    <Style id="line-000000-5069-nodesc-normal">
      <LineStyle>
        <color>ff000000</color>
        <width>5.069</width>
      </LineStyle>
      <BalloonStyle>
        <text><![CDATA[<h3>$[name]</h3>]]></text>
      </BalloonStyle>
    </Style>
    <Style id="line-000000-5069-nodesc-highlight">
      <LineStyle>
        <color>ff000000</color>
        <width>7.6035</width>
      </LineStyle>
      <BalloonStyle>
        <text><![CDATA[<h3>$[name]</h3>]]></text>
      </BalloonStyle>
    </Style>
    <StyleMap id="line-000000-5069-nodesc">
      <Pair>
        <key>normal</key>
        <styleUrl>#line-000000-5069-nodesc-normal</styleUrl>
      </Pair>
      <Pair>
        <key>highlight</key>
        <styleUrl>#line-000000-5069-nodesc-highlight</styleUrl>
      </Pair>
    </StyleMap>
    <Style id="line-F57C00-5069-nodesc-normal">
      <LineStyle>
        <color>ff007cf5</color>
        <width>5.069</width>
      </LineStyle>
      <BalloonStyle>
        <text><![CDATA[<h3>$[name]</h3>]]></text>
      </BalloonStyle>
    </Style>
    <Style id="line-F57C00-5069-nodesc-highlight">
      <LineStyle>
        <color>ff007cf5</color>
        <width>7.6035</width>
      </LineStyle>
      <BalloonStyle>
        <text><![CDATA[<h3>$[name]</h3>]]></text>
      </BalloonStyle>
    </Style>
    <StyleMap id="line-F57C00-5069-nodesc">
      <Pair>
        <key>normal</key>
        <styleUrl>#line-F57C00-5069-nodesc-normal</styleUrl>
      </Pair>
      <Pair>
        <key>highlight</key>
        <styleUrl>#line-F57C00-5069-nodesc-highlight</styleUrl>
      </Pair>
    </StyleMap>
    <Folder>
      <name>Маршрут туда</name>
      <Placemark>
        <name>Линия маршрута</name>
        <styleUrl>#line-F57C00-5069-nodesc</styleUrl>
        <LineString>
          <tessellate>1</tessellate>
          <coordinates>
            36.3273632,49.947618,0
            36.327585,49.9481282,0
            36.3283897,49.9499232,0
            36.3296235,49.9526224,0
            36.3312221,49.9561705,0
            36.332928,49.9600565,0
            36.3346231,49.9636524,0
            36.3324452,49.9640527,0
            36.3262546,49.9651983,0
            36.3236046,49.9657642,0
            36.3204718,49.9666407,0
            36.3171888,49.9674964,0
            36.3155043,49.9680554,0
            36.3139701,49.9685453,0
            36.3106335,49.9696219,0
            36.3078869,49.9705741,0
            36.3034773,49.9718714,0
            36.3001119,49.9729417,0
            36.2998759,49.9728313,0
            36.2997364,49.9727277,0
            36.3027156,49.9717403,0
            36.3091851,49.9696357,0
            36.3089061,49.9688766,0
            36.3086593,49.9686212,0
            36.308316,49.9686557,0
            36.3079298,49.9688628,0
            36.3079727,49.9691043,0
            36.308198,49.9697323,0
            36.3087559,49.9709675,0
            36.3091851,49.9722372,0
            36.3100434,49.9744797,0
            36.3102365,49.9751145,0
            36.3104618,49.9759908,0
            36.3105691,49.9767015,0
            36.3106442,49.9780538,0
            36.3107622,49.9785644,0
            36.3110626,49.9806272,0
            36.3116205,49.9845596,0
            36.3120497,49.9874638,0
            36.3121891,49.988195,0
            36.312511,49.9889331,0
            36.3129938,49.9904023,0
            36.3139594,49.9931131,0
            36.3144851,49.9945339,0
            36.314528,49.9947477,0
            36.3158369,49.998472,0
            36.3149894,49.9987962,0
            36.3095284,50.0011754,0
            36.3071788,50.0021133,0
            36.3065672,50.0022719,0
            36.3061703,50.0023477,0
            36.3057518,50.0023753,0
            36.3049399,50.0023346,0
          </coordinates>
        </LineString>
      </Placemark>
      <Placemark>
        <name>Остановка Парк Зустрич
</name>
        <description>Троллейбус-13, 57.</description>
        <styleUrl>#icon-1499-F57C00</styleUrl>
        <Point>
          <coordinates>
            36.3275043,49.9475381,0
          </coordinates>
        </Point>
      </Placemark>
      <Placemark>
        <name>Остановка ул. Парковая
</name>
        <description>Троллейбус-34, 56.</description>
        <styleUrl>#icon-1720-F57C00</styleUrl>
        <Point>
          <coordinates>
            36.3284092,49.9496504,0
          </coordinates>
        </Point>
      </Placemark>
      <Placemark>
        <name>Остановка  ул. Каденюка
</name>
        <description>Троллейбус-13, 57.</description>
        <styleUrl>#icon-1532-F57C00</styleUrl>
        <Point>
          <coordinates>
            36.3305592,49.954593,0
          </coordinates>
        </Point>
      </Placemark>
      <Placemark>
        <name>Остановка бул. Юрьева
</name>
        <description>Троллейбус-13, 57.</description>
        <styleUrl>#icon-1532-F57C00</styleUrl>
        <Point>
          <coordinates>
            36.3324308,49.958821,0
          </coordinates>
        </Point>
      </Placemark>
      <Placemark>
        <name>Остановка пр. Героев Харькова
</name>
        <description>Троллейбус-13, 57.</description>
        <styleUrl>#icon-1532-F57C00</styleUrl>
        <Point>
          <coordinates>
            36.333592,49.9639284,0
          </coordinates>
        </Point>
      </Placemark>
      <Placemark>
        <name>Остановка ул. Василя Мельникова 
</name>
        <description>Троллейбус-13, 57.</description>
        <styleUrl>#icon-1532-F57C00</styleUrl>
        <Point>
          <coordinates>
            36.3266934,49.9651638,0
          </coordinates>
        </Point>
      </Placemark>
      <Placemark>
        <name>Станция метро Дворец Спорта 
</name>
        <description>Троллейбус-13, 57.</description>
        <styleUrl>#icon-1626-F57C00</styleUrl>
        <Point>
          <coordinates>
            36.3191058,49.9670827,0
          </coordinates>
        </Point>
      </Placemark>
      <Placemark>
        <name>Остановка Издательство Харьков
</name>
        <description>Троллейбус-13, 57.</description>
        <styleUrl>#icon-1638-F57C00</styleUrl>
        <Point>
          <coordinates>
            36.3121455,49.9692242,0
          </coordinates>
        </Point>
      </Placemark>
      <Placemark>
        <name>Станция метро Турбоатом
</name>
        <description>Маршрутка - 259э. Троллейбус-13, 20, 57.</description>
        <styleUrl>#icon-1626-F57C00</styleUrl>
        <Point>
          <coordinates>
            36.304477,49.9717418,0
          </coordinates>
        </Point>
      </Placemark>
      <Placemark>
        <name>Остановка Издательство Харьков
</name>
        <description>Маршрутка - 259э. Троллейбус-13, 20, 57.</description>
        <styleUrl>#icon-1638-F57C00</styleUrl>
        <Point>
          <coordinates>
            36.3090367,49.9690575,0
          </coordinates>
        </Point>
      </Placemark>
      <Placemark>
        <name>Остановка ул. Единства
</name>
        <description>Маршрутка - 259э. Троллейбус -19, 20, 31, 35, 57.</description>
        <styleUrl>#icon-1532-F57C00</styleUrl>
        <Point>
          <coordinates>
            36.3115439,49.9827751,0
          </coordinates>
        </Point>
      </Placemark>
      <Placemark>
        <name>Остановка ш. Салтовское
</name>
        <description>Маршрутка - 259э. Троллейбус -19, 20, 31, 35, 57.</description>
        <styleUrl>#icon-1532-F57C00</styleUrl>
        <Point>
          <coordinates>
            36.3124984,49.988652,0
          </coordinates>
        </Point>
      </Placemark>
      <Placemark>
        <name>Остановка Камышева
</name>
        <description>Маршрутка - 259э. Троллейбус -19, 20, 31, 35, 57.</description>
        <styleUrl>#icon-1532-F57C00</styleUrl>
        <Point>
          <coordinates>
            36.3137479,49.9919113,0
          </coordinates>
        </Point>
      </Placemark>
      <Placemark>
        <name>Остановка пр. Льва Ландау
</name>
        <description>Маршрутка - 38э, 259э. Троллейбус - 24, 56, 57.</description>
        <styleUrl>#icon-1532-F57C00</styleUrl>
        <Point>
          <coordinates>
            36.3149289,49.9989605,0
          </coordinates>
        </Point>
      </Placemark>
    </Folder>
    <Folder>
      <name>Маршрут обратно</name>
      <Placemark>
        <name>Линия маршрута</name>
        <styleUrl>#line-000000-5069-nodesc</styleUrl>
        <LineString>
          <tessellate>1</tessellate>
          <coordinates>
            36.3049399,50.0023346,0
            36.3030516,50.0022519,0
            36.3035237,50.0019346,0
            36.3041245,50.0018243,0
            36.3044464,50.0019071,0
            36.3047683,50.0020726,0
            36.3051759,50.0022519,0
            36.3053905,50.0023346,0
            36.3060986,50.0022794,0
            36.3069355,50.0021001,0
            36.3078582,50.0017278,0
            36.3101649,50.0007347,0
            36.3150357,49.9986106,0
            36.3156795,49.9983485,0
            36.3150143,49.9965761,0
            36.3142955,49.9944794,0
            36.3141238,49.994169,0
            36.3134479,49.992286,0
            36.3125681,49.9897477,0
            36.3119137,49.9879749,0
            36.3118386,49.9875197,0
            36.3116776,49.9866781,0
            36.3114523,49.9846637,0
            36.3110017,49.9816835,0
            36.3107228,49.9795309,0
            36.3106047,49.9786823,0
            36.3103902,49.9777992,0
            36.3104224,49.9774611,0
            36.3102936,49.9765158,0
            36.3101327,49.9756051,0
            36.3099717,49.9750462,0
            36.3097679,49.9743079,0
            36.3094568,49.9735834,0
            36.3091349,49.972776,0
            36.3087272,49.9717962,0
            36.3085985,49.9717272,0
            36.3083839,49.9716789,0
            36.3077401,49.9716858,0
            36.3072144,49.9715478,0
            36.3060986,49.9712235,0
            36.3055836,49.9712304,0
            36.3001119,49.9729417,0
            36.2998759,49.9728313,0
            36.2997364,49.9727277,0
            36.2999188,49.9726518,0
            36.303749,49.9713684,0
            36.3086092,49.9698502,0
            36.3163876,49.9673245,0
            36.3177072,49.9669588,0
            36.3193809,49.9664826,0
            36.3215374,49.9659167,0
            36.3226961,49.9656061,0
            36.3233184,49.9654474,0
            36.324284,49.9652197,0
            36.3260757,49.9648539,0
            36.3275027,49.9645847,0
            36.3291013,49.9642604,0
            36.3325667,49.9636047,0
            36.334294,49.9632941,0
            36.3333499,49.9613962,0
            36.3325345,49.959643,0
            36.3315152,49.9573032,0
            36.3312041,49.9565439,0
            36.3301312,49.95419,0
            36.329745,49.9532996,0
            36.3292729,49.9522503,0
            36.3275563,49.9485086,0
            36.327095,49.9474247,0
            36.3266711,49.9469441,0
            36.3269126,49.9468931,0
            36.3271808,49.9469621,0
            36.3274276,49.9470519,0
            36.3274919,49.9471554,0
            36.3273525,49.9473418,0
            36.327213,49.947404,0
            36.3273632,49.947618,0
          </coordinates>
        </LineString>
      </Placemark>
      <Placemark>
        <name>Станция метро Академика Барабашова</name>
        <description>Троллейбус-57.</description>
        <styleUrl>#icon-1499-000000</styleUrl>
        <Point>
          <coordinates>
            36.3043812,50.0024195,0
          </coordinates>
        </Point>
      </Placemark>
      <Placemark>
        <name>Остановка пр. Льва Ландау</name>
        <description>Автобус-7э, 11э, 15э, 107э, 152э, 201э, 213э, 225э, 255э, 259э. Троллейбус -19, 20, 31, 35, 57. </description>
        <styleUrl>#icon-1532-000000</styleUrl>
        <Point>
          <coordinates>
            36.3151636,49.9978403,0
          </coordinates>
        </Point>
      </Placemark>
      <Placemark>
        <name>Остановка ул. Камышева</name>
        <description>Маршрутка - 259э. Троллейбус -19, 20, 31, 35, 57.</description>
        <styleUrl>#icon-1532-000000</styleUrl>
        <Point>
          <coordinates>
            36.3127819,49.9910742,0
          </coordinates>
        </Point>
      </Placemark>
      <Placemark>
        <name>Остановка ш. Салтовское</name>
        <description>Маршрутка - 259э. Троллейбус -19, 20, 31, 35, 57.</description>
        <styleUrl>#icon-1532-000000</styleUrl>
        <Point>
          <coordinates>
            36.3116982,49.9876494,0
          </coordinates>
        </Point>
      </Placemark>
      <Placemark>
        <name>Остановка ул. Единства
</name>
        <description>Маршрутка - 259э. Троллейбус -19, 20, 31, 35, 57.</description>
        <styleUrl>#icon-1532-000000</styleUrl>
        <Point>
          <coordinates>
            36.3107969,49.9820167,0
          </coordinates>
        </Point>
      </Placemark>
      <Placemark>
        <name>Станция метро Турбоатом</name>
        <description>Автобус- 226э, 49э, 226э, 249э, 259э. Троллейбус-57.</description>
        <styleUrl>#icon-1626-000000</styleUrl>
        <Point>
          <coordinates>
            36.3033425,49.9714547,0
          </coordinates>
        </Point>
      </Placemark>
      <Placemark>
        <name>Остановка Издательство Харьков
</name>
        <description>Троллейбус-13, 57.</description>
        <styleUrl>#icon-1638-000000</styleUrl>
        <Point>
          <coordinates>
            36.3103547,49.9691473,0
          </coordinates>
        </Point>
      </Placemark>
      <Placemark>
        <name>Станция метро Дворец Спорта 
</name>
        <description>Троллейбус-13, 57. </description>
        <styleUrl>#icon-1626-000000</styleUrl>
        <Point>
          <coordinates>
            36.3190987,49.9664284,0
          </coordinates>
        </Point>
      </Placemark>
      <Placemark>
        <name>Остановка ул. Василя Мельникова</name>
        <description>Троллейбус-13, 57.</description>
        <styleUrl>#icon-1532-000000</styleUrl>
        <Point>
          <coordinates>
            36.3263406,49.9646961,0
          </coordinates>
        </Point>
      </Placemark>
      <Placemark>
        <name>Остановка ул. Харьковских Дивизий</name>
        <description>Троллейбус-13, 57.</description>
        <styleUrl>#icon-1532-000000</styleUrl>
        <Point>
          <coordinates>
            36.3336363,49.9622254,0
          </coordinates>
        </Point>
      </Placemark>
      <Placemark>
        <name>Остановка бул. Юрьева</name>
        <description>Троллейбус-13, 57.</description>
        <styleUrl>#icon-1532-000000</styleUrl>
        <Point>
          <coordinates>
            36.3320215,49.9583948,0
          </coordinates>
        </Point>
      </Placemark>
      <Placemark>
        <name>Остановка ул. Каденюка</name>
        <description>Троллейбус-13, 57.</description>
        <styleUrl>#icon-1532-000000</styleUrl>
        <Point>
          <coordinates>
            36.3299657,49.953908,0
          </coordinates>
        </Point>
      </Placemark>
      <Placemark>
        <name>Остановка ул. Парковая
</name>
        <description>Автобус 15э. Троллейбус-57.</description>
        <styleUrl>#icon-1720-000000</styleUrl>
        <Point>
          <coordinates>
            36.3278261,49.9491779,0
          </coordinates>
        </Point>
      </Placemark>
      <Placemark>
        <name>Остановка Парк Зустрич
</name>
        <description>Троллейбус-34, 56.</description>
        <styleUrl>#icon-1720-000000</styleUrl>
        <Point>
          <coordinates>
            36.3266711,49.9469441,0
          </coordinates>
        </Point>
      </Placemark>
    </Folder>
  </Document>
</kml>
