<?xml version="1.0" encoding="UTF-8"?>
<kml xmlns="http://www.opengis.net/kml/2.2">
  <Document>
    <name>Троллейбусный маршрут №59 Харьков (Станция Рогань - ул. Университетская)</name>
    <description>Подробно https://kharkiv.inform.city/-ru/-tr/tr_city/tr_city_tb/</description>
    <Style id="icon-1499-424242-normal">
      <IconStyle>
        <color>ff424242</color>
        <scale>1</scale>
        <Icon>
          <href>https://www.gstatic.com/mapspro/images/stock/503-wht-blank_maps.png</href>
        </Icon>
      </IconStyle>
      <LabelStyle>
        <scale>0</scale>
      </LabelStyle>
    </Style>
    <Style id="icon-1499-424242-highlight">
      <IconStyle>
        <color>ff424242</color>
        <scale>1</scale>
        <Icon>
          <href>https://www.gstatic.com/mapspro/images/stock/503-wht-blank_maps.png</href>
        </Icon>
      </IconStyle>
      <LabelStyle>
        <scale>1</scale>
      </LabelStyle>
    </Style>
    <StyleMap id="icon-1499-424242">
      <Pair>
        <key>normal</key>
        <styleUrl>#icon-1499-424242-normal</styleUrl>
      </Pair>
      <Pair>
        <key>highlight</key>
        <styleUrl>#icon-1499-424242-highlight</styleUrl>
      </Pair>
    </StyleMap>
    <Style id="icon-1499-F57C00-normal">
      <IconStyle>
        <color>ff007cf5</color>
        <scale>1</scale>
        <Icon>
          <href>https://www.gstatic.com/mapspro/images/stock/503-wht-blank_maps.png</href>
        </Icon>
      </IconStyle>
      <LabelStyle>
        <scale>0</scale>
      </LabelStyle>
    </Style>
    <Style id="icon-1499-F57C00-highlight">
      <IconStyle>
        <color>ff007cf5</color>
        <scale>1</scale>
        <Icon>
          <href>https://www.gstatic.com/mapspro/images/stock/503-wht-blank_maps.png</href>
        </Icon>
      </IconStyle>
      <LabelStyle>
        <scale>1</scale>
      </LabelStyle>
    </Style>
    <StyleMap id="icon-1499-F57C00">
      <Pair>
        <key>normal</key>
        <styleUrl>#icon-1499-F57C00-normal</styleUrl>
      </Pair>
      <Pair>
        <key>highlight</key>
        <styleUrl>#icon-1499-F57C00-highlight</styleUrl>
      </Pair>
    </StyleMap>
    <Style id="icon-1532-000000-normal">
      <IconStyle>
        <color>ff000000</color>
        <scale>1</scale>
        <Icon>
          <href>https://www.gstatic.com/mapspro/images/stock/503-wht-blank_maps.png</href>
        </Icon>
      </IconStyle>
      <LabelStyle>
        <scale>0</scale>
      </LabelStyle>
    </Style>
    <Style id="icon-1532-000000-highlight">
      <IconStyle>
        <color>ff000000</color>
        <scale>1</scale>
        <Icon>
          <href>https://www.gstatic.com/mapspro/images/stock/503-wht-blank_maps.png</href>
        </Icon>
      </IconStyle>
      <LabelStyle>
        <scale>1</scale>
      </LabelStyle>
    </Style>
    <StyleMap id="icon-1532-000000">
      <Pair>
        <key>normal</key>
        <styleUrl>#icon-1532-000000-normal</styleUrl>
      </Pair>
      <Pair>
        <key>highlight</key>
        <styleUrl>#icon-1532-000000-highlight</styleUrl>
      </Pair>
    </StyleMap>
    <Style id="icon-1532-F57C00-normal">
      <IconStyle>
        <color>ff007cf5</color>
        <scale>1</scale>
        <Icon>
          <href>https://www.gstatic.com/mapspro/images/stock/503-wht-blank_maps.png</href>
        </Icon>
      </IconStyle>
      <LabelStyle>
        <scale>0</scale>
      </LabelStyle>
    </Style>
    <Style id="icon-1532-F57C00-highlight">
      <IconStyle>
        <color>ff007cf5</color>
        <scale>1</scale>
        <Icon>
          <href>https://www.gstatic.com/mapspro/images/stock/503-wht-blank_maps.png</href>
        </Icon>
      </IconStyle>
      <LabelStyle>
        <scale>1</scale>
      </LabelStyle>
    </Style>
    <StyleMap id="icon-1532-F57C00">
      <Pair>
        <key>normal</key>
        <styleUrl>#icon-1532-F57C00-normal</styleUrl>
      </Pair>
      <Pair>
        <key>highlight</key>
        <styleUrl>#icon-1532-F57C00-highlight</styleUrl>
      </Pair>
    </StyleMap>
    <Style id="icon-1546-000000-normal">
      <IconStyle>
        <color>ff000000</color>
        <scale>1</scale>
        <Icon>
          <href>https://www.gstatic.com/mapspro/images/stock/503-wht-blank_maps.png</href>
        </Icon>
      </IconStyle>
      <LabelStyle>
        <scale>0</scale>
      </LabelStyle>
    </Style>
    <Style id="icon-1546-000000-highlight">
      <IconStyle>
        <color>ff000000</color>
        <scale>1</scale>
        <Icon>
          <href>https://www.gstatic.com/mapspro/images/stock/503-wht-blank_maps.png</href>
        </Icon>
      </IconStyle>
      <LabelStyle>
        <scale>1</scale>
      </LabelStyle>
    </Style>
    <StyleMap id="icon-1546-000000">
      <Pair>
        <key>normal</key>
        <styleUrl>#icon-1546-000000-normal</styleUrl>
      </Pair>
      <Pair>
        <key>highlight</key>
        <styleUrl>#icon-1546-000000-highlight</styleUrl>
      </Pair>
    </StyleMap>
    <Style id="icon-1546-F57C00-normal">
      <IconStyle>
        <color>ff007cf5</color>
        <scale>1</scale>
        <Icon>
          <href>https://www.gstatic.com/mapspro/images/stock/503-wht-blank_maps.png</href>
        </Icon>
      </IconStyle>
      <LabelStyle>
        <scale>0</scale>
      </LabelStyle>
    </Style>
    <Style id="icon-1546-F57C00-highlight">
      <IconStyle>
        <color>ff007cf5</color>
        <scale>1</scale>
        <Icon>
          <href>https://www.gstatic.com/mapspro/images/stock/503-wht-blank_maps.png</href>
        </Icon>
      </IconStyle>
      <LabelStyle>
        <scale>1</scale>
      </LabelStyle>
    </Style>
    <StyleMap id="icon-1546-F57C00">
      <Pair>
        <key>normal</key>
        <styleUrl>#icon-1546-F57C00-normal</styleUrl>
      </Pair>
      <Pair>
        <key>highlight</key>
        <styleUrl>#icon-1546-F57C00-highlight</styleUrl>
      </Pair>
    </StyleMap>
    <Style id="icon-1578-F57C00-normal">
      <IconStyle>
        <color>ff007cf5</color>
        <scale>1</scale>
        <Icon>
          <href>https://www.gstatic.com/mapspro/images/stock/503-wht-blank_maps.png</href>
        </Icon>
      </IconStyle>
      <LabelStyle>
        <scale>0</scale>
      </LabelStyle>
    </Style>
    <Style id="icon-1578-F57C00-highlight">
      <IconStyle>
        <color>ff007cf5</color>
        <scale>1</scale>
        <Icon>
          <href>https://www.gstatic.com/mapspro/images/stock/503-wht-blank_maps.png</href>
        </Icon>
      </IconStyle>
      <LabelStyle>
        <scale>1</scale>
      </LabelStyle>
    </Style>
    <StyleMap id="icon-1578-F57C00">
      <Pair>
        <key>normal</key>
        <styleUrl>#icon-1578-F57C00-normal</styleUrl>
      </Pair>
      <Pair>
        <key>highlight</key>
        <styleUrl>#icon-1578-F57C00-highlight</styleUrl>
      </Pair>
    </StyleMap>
    <Style id="icon-1619-000000-normal">
      <IconStyle>
        <color>ff000000</color>
        <scale>1</scale>
        <Icon>
          <href>https://www.gstatic.com/mapspro/images/stock/503-wht-blank_maps.png</href>
        </Icon>
      </IconStyle>
      <LabelStyle>
        <scale>0</scale>
      </LabelStyle>
    </Style>
    <Style id="icon-1619-000000-highlight">
      <IconStyle>
        <color>ff000000</color>
        <scale>1</scale>
        <Icon>
          <href>https://www.gstatic.com/mapspro/images/stock/503-wht-blank_maps.png</href>
        </Icon>
      </IconStyle>
      <LabelStyle>
        <scale>1</scale>
      </LabelStyle>
    </Style>
    <StyleMap id="icon-1619-000000">
      <Pair>
        <key>normal</key>
        <styleUrl>#icon-1619-000000-normal</styleUrl>
      </Pair>
      <Pair>
        <key>highlight</key>
        <styleUrl>#icon-1619-000000-highlight</styleUrl>
      </Pair>
    </StyleMap>
    <Style id="icon-1619-F57C00-normal">
      <IconStyle>
        <color>ff007cf5</color>
        <scale>1</scale>
        <Icon>
          <href>https://www.gstatic.com/mapspro/images/stock/503-wht-blank_maps.png</href>
        </Icon>
      </IconStyle>
      <LabelStyle>
        <scale>0</scale>
      </LabelStyle>
    </Style>
    <Style id="icon-1619-F57C00-highlight">
      <IconStyle>
        <color>ff007cf5</color>
        <scale>1</scale>
        <Icon>
          <href>https://www.gstatic.com/mapspro/images/stock/503-wht-blank_maps.png</href>
        </Icon>
      </IconStyle>
      <LabelStyle>
        <scale>1</scale>
      </LabelStyle>
    </Style>
    <StyleMap id="icon-1619-F57C00">
      <Pair>
        <key>normal</key>
        <styleUrl>#icon-1619-F57C00-normal</styleUrl>
      </Pair>
      <Pair>
        <key>highlight</key>
        <styleUrl>#icon-1619-F57C00-highlight</styleUrl>
      </Pair>
    </StyleMap>
    <Style id="icon-1624-000000-normal">
      <IconStyle>
        <color>ff000000</color>
        <scale>1</scale>
        <Icon>
          <href>https://www.gstatic.com/mapspro/images/stock/503-wht-blank_maps.png</href>
        </Icon>
      </IconStyle>
      <LabelStyle>
        <scale>0</scale>
      </LabelStyle>
    </Style>
    <Style id="icon-1624-000000-highlight">
      <IconStyle>
        <color>ff000000</color>
        <scale>1</scale>
        <Icon>
          <href>https://www.gstatic.com/mapspro/images/stock/503-wht-blank_maps.png</href>
        </Icon>
      </IconStyle>
      <LabelStyle>
        <scale>1</scale>
      </LabelStyle>
    </Style>
    <StyleMap id="icon-1624-000000">
      <Pair>
        <key>normal</key>
        <styleUrl>#icon-1624-000000-normal</styleUrl>
      </Pair>
      <Pair>
        <key>highlight</key>
        <styleUrl>#icon-1624-000000-highlight</styleUrl>
      </Pair>
    </StyleMap>
    <Style id="icon-1624-F57C00-normal">
      <IconStyle>
        <color>ff007cf5</color>
        <scale>1</scale>
        <Icon>
          <href>https://www.gstatic.com/mapspro/images/stock/503-wht-blank_maps.png</href>
        </Icon>
      </IconStyle>
      <LabelStyle>
        <scale>0</scale>
      </LabelStyle>
    </Style>
    <Style id="icon-1624-F57C00-highlight">
      <IconStyle>
        <color>ff007cf5</color>
        <scale>1</scale>
        <Icon>
          <href>https://www.gstatic.com/mapspro/images/stock/503-wht-blank_maps.png</href>
        </Icon>
      </IconStyle>
      <LabelStyle>
        <scale>1</scale>
      </LabelStyle>
    </Style>
    <StyleMap id="icon-1624-F57C00">
      <Pair>
        <key>normal</key>
        <styleUrl>#icon-1624-F57C00-normal</styleUrl>
      </Pair>
      <Pair>
        <key>highlight</key>
        <styleUrl>#icon-1624-F57C00-highlight</styleUrl>
      </Pair>
    </StyleMap>
    <Style id="icon-1626-000000-normal">
      <IconStyle>
        <color>ff000000</color>
        <scale>1</scale>
        <Icon>
          <href>https://www.gstatic.com/mapspro/images/stock/503-wht-blank_maps.png</href>
        </Icon>
      </IconStyle>
      <LabelStyle>
        <scale>0</scale>
      </LabelStyle>
    </Style>
    <Style id="icon-1626-000000-highlight">
      <IconStyle>
        <color>ff000000</color>
        <scale>1</scale>
        <Icon>
          <href>https://www.gstatic.com/mapspro/images/stock/503-wht-blank_maps.png</href>
        </Icon>
      </IconStyle>
      <LabelStyle>
        <scale>1</scale>
      </LabelStyle>
    </Style>
    <StyleMap id="icon-1626-000000">
      <Pair>
        <key>normal</key>
        <styleUrl>#icon-1626-000000-normal</styleUrl>
      </Pair>
      <Pair>
        <key>highlight</key>
        <styleUrl>#icon-1626-000000-highlight</styleUrl>
      </Pair>
    </StyleMap>
    <Style id="icon-1626-F57C00-normal">
      <IconStyle>
        <color>ff007cf5</color>
        <scale>1</scale>
        <Icon>
          <href>https://www.gstatic.com/mapspro/images/stock/503-wht-blank_maps.png</href>
        </Icon>
      </IconStyle>
      <LabelStyle>
        <scale>0</scale>
      </LabelStyle>
    </Style>
    <Style id="icon-1626-F57C00-highlight">
      <IconStyle>
        <color>ff007cf5</color>
        <scale>1</scale>
        <Icon>
          <href>https://www.gstatic.com/mapspro/images/stock/503-wht-blank_maps.png</href>
        </Icon>
      </IconStyle>
      <LabelStyle>
        <scale>1</scale>
      </LabelStyle>
    </Style>
    <StyleMap id="icon-1626-F57C00">
      <Pair>
        <key>normal</key>
        <styleUrl>#icon-1626-F57C00-normal</styleUrl>
      </Pair>
      <Pair>
        <key>highlight</key>
        <styleUrl>#icon-1626-F57C00-highlight</styleUrl>
      </Pair>
    </StyleMap>
    <Style id="icon-1682-000000-normal">
      <IconStyle>
        <color>ff000000</color>
        <scale>1</scale>
        <Icon>
          <href>https://www.gstatic.com/mapspro/images/stock/503-wht-blank_maps.png</href>
        </Icon>
      </IconStyle>
      <LabelStyle>
        <scale>0</scale>
      </LabelStyle>
    </Style>
    <Style id="icon-1682-000000-highlight">
      <IconStyle>
        <color>ff000000</color>
        <scale>1</scale>
        <Icon>
          <href>https://www.gstatic.com/mapspro/images/stock/503-wht-blank_maps.png</href>
        </Icon>
      </IconStyle>
      <LabelStyle>
        <scale>1</scale>
      </LabelStyle>
    </Style>
    <StyleMap id="icon-1682-000000">
      <Pair>
        <key>normal</key>
        <styleUrl>#icon-1682-000000-normal</styleUrl>
      </Pair>
      <Pair>
        <key>highlight</key>
        <styleUrl>#icon-1682-000000-highlight</styleUrl>
      </Pair>
    </StyleMap>
    <Style id="icon-1682-F57C00-normal">
      <IconStyle>
        <color>ff007cf5</color>
        <scale>1</scale>
        <Icon>
          <href>https://www.gstatic.com/mapspro/images/stock/503-wht-blank_maps.png</href>
        </Icon>
      </IconStyle>
      <LabelStyle>
        <scale>0</scale>
      </LabelStyle>
    </Style>
    <Style id="icon-1682-F57C00-highlight">
      <IconStyle>
        <color>ff007cf5</color>
        <scale>1</scale>
        <Icon>
          <href>https://www.gstatic.com/mapspro/images/stock/503-wht-blank_maps.png</href>
        </Icon>
      </IconStyle>
      <LabelStyle>
        <scale>1</scale>
      </LabelStyle>
    </Style>
    <StyleMap id="icon-1682-F57C00">
      <Pair>
        <key>normal</key>
        <styleUrl>#icon-1682-F57C00-normal</styleUrl>
      </Pair>
      <Pair>
        <key>highlight</key>
        <styleUrl>#icon-1682-F57C00-highlight</styleUrl>
      </Pair>
    </StyleMap>
    <Style id="icon-1685-000000-normal">
      <IconStyle>
        <color>ff000000</color>
        <scale>1</scale>
        <Icon>
          <href>https://www.gstatic.com/mapspro/images/stock/503-wht-blank_maps.png</href>
        </Icon>
      </IconStyle>
      <LabelStyle>
        <scale>0</scale>
      </LabelStyle>
    </Style>
    <Style id="icon-1685-000000-highlight">
      <IconStyle>
        <color>ff000000</color>
        <scale>1</scale>
        <Icon>
          <href>https://www.gstatic.com/mapspro/images/stock/503-wht-blank_maps.png</href>
        </Icon>
      </IconStyle>
      <LabelStyle>
        <scale>1</scale>
      </LabelStyle>
    </Style>
    <StyleMap id="icon-1685-000000">
      <Pair>
        <key>normal</key>
        <styleUrl>#icon-1685-000000-normal</styleUrl>
      </Pair>
      <Pair>
        <key>highlight</key>
        <styleUrl>#icon-1685-000000-highlight</styleUrl>
      </Pair>
    </StyleMap>
    <Style id="icon-1685-F57C00-normal">
      <IconStyle>
        <color>ff007cf5</color>
        <scale>1</scale>
        <Icon>
          <href>https://www.gstatic.com/mapspro/images/stock/503-wht-blank_maps.png</href>
        </Icon>
      </IconStyle>
      <LabelStyle>
        <scale>0</scale>
      </LabelStyle>
    </Style>
    <Style id="icon-1685-F57C00-highlight">
      <IconStyle>
        <color>ff007cf5</color>
        <scale>1</scale>
        <Icon>
          <href>https://www.gstatic.com/mapspro/images/stock/503-wht-blank_maps.png</href>
        </Icon>
      </IconStyle>
      <LabelStyle>
        <scale>1</scale>
      </LabelStyle>
    </Style>
    <StyleMap id="icon-1685-F57C00">
      <Pair>
        <key>normal</key>
        <styleUrl>#icon-1685-F57C00-normal</styleUrl>
      </Pair>
      <Pair>
        <key>highlight</key>
        <styleUrl>#icon-1685-F57C00-highlight</styleUrl>
      </Pair>
    </StyleMap>
    <Style id="icon-1879-000000-normal">
      <IconStyle>
        <color>ff000000</color>
        <scale>1</scale>
        <Icon>
          <href>https://www.gstatic.com/mapspro/images/stock/503-wht-blank_maps.png</href>
        </Icon>
      </IconStyle>
      <LabelStyle>
        <scale>0</scale>
      </LabelStyle>
    </Style>
    <Style id="icon-1879-000000-highlight">
      <IconStyle>
        <color>ff000000</color>
        <scale>1</scale>
        <Icon>
          <href>https://www.gstatic.com/mapspro/images/stock/503-wht-blank_maps.png</href>
        </Icon>
      </IconStyle>
      <LabelStyle>
        <scale>1</scale>
      </LabelStyle>
    </Style>
    <StyleMap id="icon-1879-000000">
      <Pair>
        <key>normal</key>
        <styleUrl>#icon-1879-000000-normal</styleUrl>
      </Pair>
      <Pair>
        <key>highlight</key>
        <styleUrl>#icon-1879-000000-highlight</styleUrl>
      </Pair>
    </StyleMap>
    <Style id="icon-1879-F57C00-normal">
      <IconStyle>
        <color>ff007cf5</color>
        <scale>1</scale>
        <Icon>
          <href>https://www.gstatic.com/mapspro/images/stock/503-wht-blank_maps.png</href>
        </Icon>
      </IconStyle>
      <LabelStyle>
        <scale>0</scale>
      </LabelStyle>
    </Style>
    <Style id="icon-1879-F57C00-highlight">
      <IconStyle>
        <color>ff007cf5</color>
        <scale>1</scale>
        <Icon>
          <href>https://www.gstatic.com/mapspro/images/stock/503-wht-blank_maps.png</href>
        </Icon>
      </IconStyle>
      <LabelStyle>
        <scale>1</scale>
      </LabelStyle>
    </Style>
    <StyleMap id="icon-1879-F57C00">
      <Pair>
        <key>normal</key>
        <styleUrl>#icon-1879-F57C00-normal</styleUrl>
      </Pair>
      <Pair>
        <key>highlight</key>
        <styleUrl>#icon-1879-F57C00-highlight</styleUrl>
      </Pair>
    </StyleMap>
    <Style id="line-000000-5069-nodesc-normal">
      <LineStyle>
        <color>ff000000</color>
        <width>5.069</width>
      </LineStyle>
      <BalloonStyle>
        <text><![CDATA[<h3>$[name]</h3>]]></text>
      </BalloonStyle>
    </Style>
    <Style id="line-000000-5069-nodesc-highlight">
      <LineStyle>
        <color>ff000000</color>
        <width>7.6035</width>
      </LineStyle>
      <BalloonStyle>
        <text><![CDATA[<h3>$[name]</h3>]]></text>
      </BalloonStyle>
    </Style>
    <StyleMap id="line-000000-5069-nodesc">
      <Pair>
        <key>normal</key>
        <styleUrl>#line-000000-5069-nodesc-normal</styleUrl>
      </Pair>
      <Pair>
        <key>highlight</key>
        <styleUrl>#line-000000-5069-nodesc-highlight</styleUrl>
      </Pair>
    </StyleMap>
    <Style id="line-F57C00-5069-nodesc-normal">
      <LineStyle>
        <color>ff007cf5</color>
        <width>5.069</width>
      </LineStyle>
      <BalloonStyle>
        <text><![CDATA[<h3>$[name]</h3>]]></text>
      </BalloonStyle>
    </Style>
    <Style id="line-F57C00-5069-nodesc-highlight">
      <LineStyle>
        <color>ff007cf5</color>
        <width>7.6035</width>
      </LineStyle>
      <BalloonStyle>
        <text><![CDATA[<h3>$[name]</h3>]]></text>
      </BalloonStyle>
    </Style>
    <StyleMap id="line-F57C00-5069-nodesc">
      <Pair>
        <key>normal</key>
        <styleUrl>#line-F57C00-5069-nodesc-normal</styleUrl>
      </Pair>
      <Pair>
        <key>highlight</key>
        <styleUrl>#line-F57C00-5069-nodesc-highlight</styleUrl>
      </Pair>
    </StyleMap>
    <Folder>
      <name>Маршрут туда</name>
      <Placemark>
        <name>Линия маршрута</name>
        <styleUrl>#line-F57C00-5069-nodesc</styleUrl>
        <LineString>
          <tessellate>1</tessellate>
          <coordinates>
            36.4296663,49.9038247,0
            36.4292997,49.9043617,0
            36.4284307,49.9054051,0
            36.4242786,49.9105043,0
            36.4207703,49.91485,0
            36.4177984,49.9184907,0
            36.4164359,49.9204525,0
            36.4156205,49.9214473,0
            36.4124447,49.9253223,0
            36.412198,49.9250874,0
            36.4097089,49.9218686,0
            36.4076382,49.9225594,0
            36.4033038,49.9240514,0
            36.3991624,49.9254328,0
            36.394195,49.9271043,0
            36.3900966,49.9285201,0
            36.3898498,49.9289829,0
            36.3890988,49.9288655,0
            36.3863522,49.9297357,0
            36.3856656,49.9300258,0
            36.3850218,49.9303573,0
            36.3841528,49.9307509,0
            36.3837451,49.9309443,0
            36.3798398,49.9322081,0
            36.3836056,49.9372148,0
            36.3841099,49.9379191,0
            36.3783699,49.9397697,0
            36.3716859,49.9419378,0
            36.3663966,49.9436985,0
            36.3602919,49.945894,0
            36.3578242,49.9469158,0
            36.3572985,49.9472127,0
            36.3565797,49.9476477,0
            36.3558394,49.9479514,0
            36.3551849,49.948124,0
            36.3494665,49.9491182,0
            36.347031,49.9494841,0
            36.3464409,49.9491941,0
            36.3456899,49.9486694,0
            36.3421709,49.9468882,0
            36.3395959,49.9456869,0
            36.338802,49.9454591,0
            36.3381046,49.9453555,0
            36.3321394,49.9452036,0
            36.3212174,49.9447548,0
            36.3142544,49.9444442,0
            36.3070661,49.9441818,0
            36.3013476,49.9439678,0
            36.2970454,49.9439747,0
            36.2776691,49.944168,0
            36.2760169,49.9442163,0
            36.2730664,49.9444925,0
            36.2642366,49.9455972,0
            36.2632388,49.9457145,0
            36.2619406,49.9461771,0
            36.2604493,49.9467087,0
            36.2603206,49.9467571,0
            36.2603098,49.9477374,0
            36.2601918,49.9499604,0
            36.2601382,49.9525906,0
            36.2600631,49.953557,0
            36.259827,49.9560834,0
            36.2595374,49.9588513,0
            36.2590224,49.9623645,0
            36.2587756,49.9641175,0
            36.2587863,49.9646558,0
            36.2594837,49.9692864,0
            36.2596017,49.9708253,0
            36.2595374,49.9713497,0
            36.2593228,49.9717913,0
            36.2588936,49.9721985,0
            36.2565333,49.9740684,0
            36.2537331,49.9762833,0
            36.2528855,49.9768077,0
            36.24986,49.9781738,0
            36.2435192,49.9809197,0
            36.2405259,49.9822443,0
            36.2389273,49.9829687,0
            36.2386161,49.9832102,0
            36.2385625,49.9834999,0
            36.2384337,49.9837897,0
            36.2381441,49.9839,0
            36.2377793,49.9840587,0
            36.2359983,49.9859213,0
            36.2329513,49.9849969,0
            36.2319428,49.9846934,0
            36.2311381,49.9846175,0
            36.2309128,49.984514,0
          </coordinates>
        </LineString>
      </Placemark>
      <Placemark>
        <name>Станция Рогань
</name>
        <description>Троллейбус-59.</description>
        <styleUrl>#icon-1499-F57C00</styleUrl>
        <Point>
          <coordinates>
            36.4295102,49.9040798,0
          </coordinates>
        </Point>
      </Placemark>
      <Placemark>
        <name>Остановка Пивзавод Рогань
</name>
        <description>Троллейбус - 59.</description>
        <styleUrl>#icon-1879-F57C00</styleUrl>
        <Point>
          <coordinates>
            36.4261768,49.9085015,0
          </coordinates>
        </Point>
      </Placemark>
      <Placemark>
        <name>Остановка ул. Горловская 
</name>
        <description>Троллейбус- 59.</description>
        <styleUrl>#icon-1532-F57C00</styleUrl>
        <Point>
          <coordinates>
            36.42337,49.9119688,0
          </coordinates>
        </Point>
      </Placemark>
      <Placemark>
        <name>Остановка ул. Роганская
</name>
        <description>Троллейбус- 59.</description>
        <styleUrl>#icon-1532-F57C00</styleUrl>
        <Point>
          <coordinates>
            36.4201514,49.9159413,0
          </coordinates>
        </Point>
      </Placemark>
      <Placemark>
        <name>Остановка ул. Луи Пастера
</name>
        <description>Троллейбус- 59.</description>
        <styleUrl>#icon-1532-F57C00</styleUrl>
        <Point>
          <coordinates>
            36.4171001,49.919806,0
          </coordinates>
        </Point>
      </Placemark>
      <Placemark>
        <name>Остановка ул. Граковская
</name>
        <description>Троллейбус- 45, 51, 59.</description>
        <styleUrl>#icon-1532-F57C00</styleUrl>
        <Point>
          <coordinates>
            36.4160766,49.9210869,0
          </coordinates>
        </Point>
      </Placemark>
      <Placemark>
        <name>Остановка ул. 92 бригады
</name>
        <description>Троллейбус- 45, 51, 59.</description>
        <styleUrl>#icon-1532-F57C00</styleUrl>
        <Point>
          <coordinates>
            36.4139245,49.9235189,0
          </coordinates>
        </Point>
      </Placemark>
      <Placemark>
        <name>Остановка ул. 92 бригады
</name>
        <description>Троллейбус- 45, 51, 59.</description>
        <styleUrl>#icon-1532-F57C00</styleUrl>
        <Point>
          <coordinates>
            36.411886,49.924776,0
          </coordinates>
        </Point>
      </Placemark>
      <Placemark>
        <name>Остановка проезд 1 Котласский
</name>
        <description>Троллейбус-59.</description>
        <styleUrl>#icon-1532-F57C00</styleUrl>
        <Point>
          <coordinates>
            36.4065854,49.9229659,0
          </coordinates>
        </Point>
      </Placemark>
      <Placemark>
        <name>Остановка ул. Плиточная
</name>
        <description>Троллейбус-59.</description>
        <styleUrl>#icon-1532-F57C00</styleUrl>
        <Point>
          <coordinates>
            36.400243,49.9250726,0
          </coordinates>
        </Point>
      </Placemark>
      <Placemark>
        <name>Остановка ул. Пономоренковская
</name>
        <description>Троллейбус-59.</description>
        <styleUrl>#icon-1532-F57C00</styleUrl>
        <Point>
          <coordinates>
            36.3949,49.9268477,0
          </coordinates>
        </Point>
      </Placemark>
      <Placemark>
        <name>Остановка бул. Ивана Каркача
</name>
        <description>Маршрутка- 252э. Троллейбус-59.</description>
        <styleUrl>#icon-1532-F57C00</styleUrl>
        <Point>
          <coordinates>
            36.3900986,49.9286202,0
          </coordinates>
        </Point>
      </Placemark>
      <Placemark>
        <name>Остановка пер. Тюленина
</name>
        <description>Троллейбус-59.</description>
        <styleUrl>#icon-1532-F57C00</styleUrl>
        <Point>
          <coordinates>
            36.3827018,49.9313388,0
          </coordinates>
        </Point>
      </Placemark>
      <Placemark>
        <name>Остановка ул. Франтишека Крала
</name>
        <description>Троллейбус-59.</description>
        <styleUrl>#icon-1532-F57C00</styleUrl>
        <Point>
          <coordinates>
            36.3810174,49.9336661,0
          </coordinates>
        </Point>
      </Placemark>
      <Placemark>
        <name>Остановка пр. Александровский
</name>
        <description>Троллейбус-59.</description>
        <styleUrl>#icon-1532-F57C00</styleUrl>
        <Point>
          <coordinates>
            36.3831158,49.9382871,0
          </coordinates>
        </Point>
      </Placemark>
      <Placemark>
        <name>Остановка пр. Индустриальный
</name>
        <description>Троллейбус-59.</description>
        <styleUrl>#icon-1532-F57C00</styleUrl>
        <Point>
          <coordinates>
            36.3795277,49.9394294,0
          </coordinates>
        </Point>
      </Placemark>
      <Placemark>
        <name><![CDATA[Остановка рынок "ХТЗ"]]></name>
        <description>Автобус 102, ЭП-2. Троллейбус-7, 59.</description>
        <styleUrl>#icon-1578-F57C00</styleUrl>
        <Point>
          <coordinates>
            36.3743065,49.9412322,0
          </coordinates>
        </Point>
      </Placemark>
      <Placemark>
        <name>Остановка пр. Архитектора Алешина 
</name>
        <description>Троллейбус-59.</description>
        <styleUrl>#icon-1532-F57C00</styleUrl>
        <Point>
          <coordinates>
            36.3690465,49.942965,0
          </coordinates>
        </Point>
      </Placemark>
      <Placemark>
        <name>Остановка ул. Северина Потоцкого
</name>
        <description>Троллейбус-3, 7, 59.</description>
        <styleUrl>#icon-1532-F57C00</styleUrl>
        <Point>
          <coordinates>
            36.3622015,49.9452573,0
          </coordinates>
        </Point>
      </Placemark>
      <Placemark>
        <name>Остановка ул. Коммунальщиков
</name>
        <description>Троллейбус-3, 7, 59.</description>
        <styleUrl>#icon-1532-F57C00</styleUrl>
        <Point>
          <coordinates>
            36.3541325,49.9483436,0
          </coordinates>
        </Point>
      </Placemark>
      <Placemark>
        <name>Остановка ул. Осипенко
</name>
        <description>Троллейбус-3, 59.</description>
        <styleUrl>#icon-1532-F57C00</styleUrl>
        <Point>
          <coordinates>
            36.3452491,49.9484886,0
          </coordinates>
        </Point>
      </Placemark>
      <Placemark>
        <name>Остановка ул. Высоковольтная
</name>
        <description>Троллейбус-3, 59.</description>
        <styleUrl>#icon-1619-F57C00</styleUrl>
        <Point>
          <coordinates>
            36.3376095,49.9454681,0
          </coordinates>
        </Point>
      </Placemark>
      <Placemark>
        <name>Остановка Инфекционная больница
</name>
        <description>Троллейбус-3, 59.</description>
        <styleUrl>#icon-1624-F57C00</styleUrl>
        <Point>
          <coordinates>
            36.3222962,49.9448405,0
          </coordinates>
        </Point>
      </Placemark>
      <Placemark>
        <name>Остановка Торговый комплекс
</name>
        <description>Троллейбус-3, 59.</description>
        <styleUrl>#icon-1685-F57C00</styleUrl>
        <Point>
          <coordinates>
            36.3166668,49.9446074,0
          </coordinates>
        </Point>
      </Placemark>
      <Placemark>
        <name>Остановка 27 микрорайон
</name>
        <description>Троллейбус-1, 3, 59.</description>
        <styleUrl>#icon-1546-F57C00</styleUrl>
        <Point>
          <coordinates>
            36.3089674,49.9442967,0
          </coordinates>
        </Point>
      </Placemark>
      <Placemark>
        <name>Остановка 28 микрорайон
</name>
        <description>Троллейбус-3, 59.</description>
        <styleUrl>#icon-1546-F57C00</styleUrl>
        <Point>
          <coordinates>
            36.2999979,49.9440468,0
          </coordinates>
        </Point>
      </Placemark>
      <Placemark>
        <name>Остановка ул. Павла Чубинсккого 
</name>
        <description>Троллейбус-3, 19, 35, 59.</description>
        <styleUrl>#icon-1532-F57C00</styleUrl>
        <Point>
          <coordinates>
            36.290299,49.9441119,0
          </coordinates>
        </Point>
      </Placemark>
      <Placemark>
        <name>Остановка ул. Морозова
</name>
        <description>Троллейбус-3, 19, 35, 59.</description>
        <styleUrl>#icon-1532-F57C00</styleUrl>
        <Point>
          <coordinates>
            36.280407,49.944174,0
          </coordinates>
        </Point>
      </Placemark>
      <Placemark>
        <name>Остановка ул. Николая Кравченко
</name>
        <description>Троллейбус-3, 19, 35, 59.</description>
        <styleUrl>#icon-1532-F57C00</styleUrl>
        <Point>
          <coordinates>
            36.2743817,49.9443742,0
          </coordinates>
        </Point>
      </Placemark>
      <Placemark>
        <name>Остановка ул. Манюшка
</name>
        <description>Троллейбус-3, 19, 35, 59.</description>
        <styleUrl>#icon-1532-F57C00</styleUrl>
        <Point>
          <coordinates>
            36.2694819,49.9449773,0
          </coordinates>
        </Point>
      </Placemark>
      <Placemark>
        <name>Остановка ул. Одесская
</name>
        <description>Маршрутка - 259э. Троллейбус-3, 59.</description>
        <styleUrl>#icon-1532-F57C00</styleUrl>
        <Point>
          <coordinates>
            36.2605439,49.9471338,0
          </coordinates>
        </Point>
      </Placemark>
      <Placemark>
        <name>Остановка ул. Зерновая
</name>
        <description>Троллейбус-3, 6, 49, 58, 59.</description>
        <styleUrl>#icon-1532-F57C00</styleUrl>
        <Point>
          <coordinates>
            36.2602801,49.9532047,0
          </coordinates>
        </Point>
      </Placemark>
      <Placemark>
        <name>Остановка Школа
</name>
        <description>Троллейбус-3, 6, 49, 58, 59.</description>
        <styleUrl>#icon-1682-F57C00</styleUrl>
        <Point>
          <coordinates>
            36.2599234,49.9574806,0
          </coordinates>
        </Point>
      </Placemark>
      <Placemark>
        <name>Остановка ул. Сидоренковская
</name>
        <description>Троллейбус-3, 6, 49, 58, 59.</description>
        <styleUrl>#icon-1532-F57C00</styleUrl>
        <Point>
          <coordinates>
            36.2591772,49.962116,0
          </coordinates>
        </Point>
      </Placemark>
      <Placemark>
        <name>Остановка пер. Золотой
</name>
        <description>Троллейбус-3, 6, 49, 58, 59.</description>
        <styleUrl>#icon-1532-F57C00</styleUrl>
        <Point>
          <coordinates>
            36.2595482,49.9682656,0
          </coordinates>
        </Point>
      </Placemark>
      <Placemark>
        <name>Остановка ул. Дмитра Коцюбайло
</name>
        <description>Троллейбус-3, 6, 49, 58, 59.</description>
        <styleUrl>#icon-1532-F57C00</styleUrl>
        <Point>
          <coordinates>
            36.2575388,49.9733581,0
          </coordinates>
        </Point>
      </Placemark>
      <Placemark>
        <name>Остановка ул. Молочная
</name>
        <description>Троллейбус-3, 6, 49, 58, 59.</description>
        <styleUrl>#icon-1532-F57C00</styleUrl>
        <Point>
          <coordinates>
            36.249709,49.9782708,0
          </coordinates>
        </Point>
      </Placemark>
      <Placemark>
        <name>Остановка ул. Вернадского
</name>
        <description>Троллейбус-3, 6, 49, 58, 59.</description>
        <styleUrl>#icon-1532-F57C00</styleUrl>
        <Point>
          <coordinates>
            36.2459949,49.9799689,0
          </coordinates>
        </Point>
      </Placemark>
      <Placemark>
        <name>Станция метро Левада
</name>
        <description>Троллейбус-3, 6, 49, 58, 59.</description>
        <styleUrl>#icon-1626-F57C00</styleUrl>
        <Point>
          <coordinates>
            36.2410283,49.9820303,0
          </coordinates>
        </Point>
      </Placemark>
      <Placemark>
        <name>Остановка ул. Кузнечная
</name>
        <description>Троллейбус-3, 6, 49, 59.</description>
        <styleUrl>#icon-1532-F57C00</styleUrl>
        <Point>
          <coordinates>
            36.2355173,49.9857578,0
          </coordinates>
        </Point>
      </Placemark>
    </Folder>
    <Folder>
      <name>Маршрут обратно</name>
      <Placemark>
        <name>Линия маршрута</name>
        <styleUrl>#line-000000-5069-nodesc</styleUrl>
        <LineString>
          <tessellate>1</tessellate>
          <coordinates>
            36.2309039,49.9845575,0
            36.2309146,49.9844298,0
            36.2310595,49.9843367,0
            36.2311024,49.9843402,0
            36.232878,49.9848989,0
            36.2334466,49.984347,0
            36.2364775,49.9852818,0
            36.2377167,49.9839918,0
            36.2377596,49.9838124,0
            36.2378025,49.9836089,0
            36.2378133,49.9834433,0
            36.2380064,49.9832881,0
            36.23828,49.983157,0
            36.2388915,49.9828776,0
            36.2403292,49.9822222,0
            36.2413162,49.98176,0
            36.2462461,49.979673,0
            36.2492985,49.9782966,0
            36.2522435,49.9769512,0
            36.2526888,49.9767476,0
            36.252957,49.9766131,0
            36.2533272,49.9763681,0
            36.2536758,49.9760887,0
            36.2540353,49.9758127,0
            36.255033,49.9750158,0
            36.2562722,49.9740429,0
            36.2579996,49.9726559,0
            36.2586218,49.9721246,0
            36.2588096,49.9719245,0
            36.258933,49.9717037,0
            36.2591851,49.9712586,0
            36.2592817,49.9709757,0
            36.2593246,49.9707238,0
            36.2593514,49.969982,0
            36.2592709,49.9693678,0
            36.2591636,49.9683431,0
            36.2590295,49.9673942,0
            36.2587023,49.9653376,0
            36.2585736,49.9645957,0
            36.2585575,49.9643645,0
            36.2585628,49.9641161,0
            36.2586218,49.9636744,0
            36.2588418,49.9614348,0
            36.2590564,49.9592882,0
            36.259346,49.9568793,0
            36.2597376,49.9540906,0
            36.2599254,49.9526237,0
            36.2599683,49.9507736,0
            36.260038,49.9486956,0
            36.259979,49.9466348,0
            36.2603009,49.9466555,0
            36.2605262,49.9466176,0
            36.262908,49.945689,0
            36.2632674,49.9455923,0
            36.2637824,49.9455371,0
            36.2653864,49.9453472,0
            36.2679023,49.9450641,0
            36.2687391,49.9449468,0
            36.2693239,49.9448639,0
            36.2708098,49.9447051,0
            36.2722045,49.9445394,0
            36.2746078,49.9442184,0
            36.2751818,49.94417,0
            36.2759596,49.9441183,0
            36.2769145,49.9440837,0
            36.2773812,49.9440699,0
            36.2813938,49.944025,0
            36.2858194,49.9439974,0
            36.290406,49.9439525,0
            36.2935764,49.9439111,0
            36.3011134,49.9438524,0
            36.3022077,49.9438731,0
            36.3061559,49.9440423,0
            36.3128937,49.944315,0
            36.3206935,49.9446464,0
            36.3260365,49.9448536,0
            36.3307625,49.94504,0
            36.3375646,49.945254,0
            36.338144,49.9452678,0
            36.3384336,49.9452954,0
            36.3386482,49.9453403,0
            36.3388521,49.9453783,0
            36.3391525,49.9454404,0
            36.3395226,49.9455543,0
            36.339764,49.9456579,0
            36.3429237,49.9471457,0
            36.3460082,49.9487198,0
            36.3461316,49.9487716,0
            36.3468772,49.9489235,0
            36.348154,49.9492617,0
            36.3486797,49.9491754,0
            36.3508576,49.9487923,0
            36.3550151,49.9480432,0
            36.3556481,49.9478983,0
            36.355986,49.9477878,0
            36.3564527,49.9475876,0
            36.3569945,49.9472769,0
            36.3573325,49.9470629,0
            36.3578314,49.946804,0
            36.3583464,49.9465865,0
            36.3588721,49.946369,0
            36.3598216,49.9459859,0
            36.3614631,49.9453438,0
            36.3623482,49.945002,0
            36.3648427,49.9440975,0
            36.3688284,49.9427822,0
            36.3765961,49.9402344,0
            36.3790101,49.9394472,0
            36.3811344,49.9387567,0
            36.3839346,49.9378659,0
            36.3817513,49.9350416,0
            36.3796485,49.9321895,0
            36.3803458,49.9319408,0
            36.382438,49.9312571,0
            36.3834143,49.9309602,0
            36.3840795,49.9306839,0
            36.3854313,49.9299657,0
            36.385957,49.9297585,0
            36.387105,49.9293855,0
            36.3884783,49.9289297,0
            36.3890577,49.9287639,0
            36.3892615,49.9282943,0
            36.3900125,49.9283979,0
            36.3905919,49.9282252,0
            36.3943041,49.9269682,0
            36.4040673,49.9236666,0
            36.4073074,49.9226029,0
            36.4097,49.9218016,0
            36.4124143,49.9250619,0
            36.4131439,49.9241985,0
            36.4151716,49.9217118,0
            36.4162982,49.9203855,0
            36.4166308,49.9198191,0
            36.4176715,49.918396,0
            36.4186692,49.9171802,0
            36.4206648,49.9147554,0
            36.4244735,49.9100573,0
            36.4276493,49.906188,0
            36.4300204,49.903265,0
            36.4302242,49.903341,0
            36.43031,49.9034861,0
            36.4302671,49.9036865,0
            36.430074,49.9037418,0
            36.4298702,49.9037004,0
            36.4296663,49.9038247,0
            36.4293766,49.9042532,0
          </coordinates>
        </LineString>
      </Placemark>
      <Placemark>
        <name>Остановка ул. Университетская
</name>
        <description>Троллейбус-3, 6, 49, 58, 59.</description>
        <styleUrl>#icon-1499-424242</styleUrl>
        <Point>
          <coordinates>
            36.230979,49.9846057,0
          </coordinates>
        </Point>
      </Placemark>
      <Placemark>
        <name>Остановка пер. Соляниковский
</name>
        <description>Троллейбус-3, 6, 49, 58, 59.</description>
        <styleUrl>#icon-1532-000000</styleUrl>
        <Point>
          <coordinates>
            36.2367357,49.9848601,0
          </coordinates>
        </Point>
      </Placemark>
      <Placemark>
        <name>Станция метро Левада
</name>
        <description>Троллейбус-3, 6, 49, 58, 59.</description>
        <styleUrl>#icon-1626-000000</styleUrl>
        <Point>
          <coordinates>
            36.2420348,49.9812818,0
          </coordinates>
        </Point>
      </Placemark>
      <Placemark>
        <name>Станция Автовокзал
</name>
        <description>Троллейбус-3, 6, 49, 58, 59.</description>
        <styleUrl>#icon-1532-000000</styleUrl>
        <Point>
          <coordinates>
            36.2475403,49.97891,0
          </coordinates>
        </Point>
      </Placemark>
      <Placemark>
        <name>Остановка ул. Молочная
</name>
        <description>Троллейбус-3, 6, 49, 58, 59.</description>
        <styleUrl>#icon-1532-000000</styleUrl>
        <Point>
          <coordinates>
            36.2513705,49.9771575,0
          </coordinates>
        </Point>
      </Placemark>
      <Placemark>
        <name>Остановка ул. Дмитра Коцюбайло
</name>
        <description>Троллейбус-3, 6, 49, 58, 59.</description>
        <styleUrl>#icon-1532-000000</styleUrl>
        <Point>
          <coordinates>
            36.2577005,49.9727071,0
          </coordinates>
        </Point>
      </Placemark>
      <Placemark>
        <name>Остановка ул. Чугуевская
</name>
        <description>Троллейбус-3, 6, 49, 58, 59.</description>
        <styleUrl>#icon-1532-000000</styleUrl>
        <Point>
          <coordinates>
            36.2589086,49.9673441,0
          </coordinates>
        </Point>
      </Placemark>
      <Placemark>
        <name>Остановка ул. Сидоренковская 
</name>
        <description>Троллейбус-3, 6, 49, 58, 59.</description>
        <styleUrl>#icon-1532-000000</styleUrl>
        <Point>
          <coordinates>
            36.2587048,49.9614429,0
          </coordinates>
        </Point>
      </Placemark>
      <Placemark>
        <name>Остановка Школа
</name>
        <description>Троллейбус-3, 6, 49, 58, 59.</description>
        <styleUrl>#icon-1682-000000</styleUrl>
        <Point>
          <coordinates>
            36.2593163,49.955997,0
          </coordinates>
        </Point>
      </Placemark>
      <Placemark>
        <name>Остановка ул. Зерновая
</name>
        <description>Троллейбус-3, 6, 49, 58, 59.</description>
        <styleUrl>#icon-1532-000000</styleUrl>
        <Point>
          <coordinates>
            36.259741,49.95123,0
          </coordinates>
        </Point>
      </Placemark>
      <Placemark>
        <name>Остановка ул. Одесская
</name>
        <description>Автобус-ЭП1, 102. Маршрутка - 259э. Троллейбус-3, 59.</description>
        <styleUrl>#icon-1532-000000</styleUrl>
        <Point>
          <coordinates>
            36.2609152,49.9463156,0
          </coordinates>
        </Point>
      </Placemark>
      <Placemark>
        <name>Остановка ул. Манюшко
</name>
        <description>Троллейбус-3, 19, 35, 59.</description>
        <styleUrl>#icon-1532-000000</styleUrl>
        <Point>
          <coordinates>
            36.2683395,49.9449072,0
          </coordinates>
        </Point>
      </Placemark>
      <Placemark>
        <name>Остановка ул. Николая Кравченко
</name>
        <description>Троллейбус-3, 19, 35, 59.</description>
        <styleUrl>#icon-1532-000000</styleUrl>
        <Point>
          <coordinates>
            36.2751738,49.9440924,0
          </coordinates>
        </Point>
      </Placemark>
      <Placemark>
        <name>Остановка ул. Морозова
</name>
        <description>Автобус-102э, 107э, 147э, 152э, 225э, 259э. Троллейбус-3, 19, 35, 59.</description>
        <styleUrl>#icon-1532-000000</styleUrl>
        <Point>
          <coordinates>
            36.2806277,49.9439524,0
          </coordinates>
        </Point>
      </Placemark>
      <Placemark>
        <name>Остановка ул. Павла Чубинского
</name>
        <description>Троллейбус-3, 19, 35, 59.</description>
        <styleUrl>#icon-1532-000000</styleUrl>
        <Point>
          <coordinates>
            36.2908522,49.9439231,0
          </coordinates>
        </Point>
      </Placemark>
      <Placemark>
        <name>Остановка 28 микрорайон
</name>
        <description>Троллейбус-3, 59.</description>
        <styleUrl>#icon-1546-000000</styleUrl>
        <Point>
          <coordinates>
            36.3032029,49.9438538,0
          </coordinates>
        </Point>
      </Placemark>
      <Placemark>
        <name>Остановка 27 микрорайон
</name>
        <description>Троллейбус-1, 3, 59.</description>
        <styleUrl>#icon-1546-000000</styleUrl>
        <Point>
          <coordinates>
            36.3100855,49.9441734,0
          </coordinates>
        </Point>
      </Placemark>
      <Placemark>
        <name>Остановка Торговый комплекс
</name>
        <description>Троллейбус-3, 59.</description>
        <styleUrl>#icon-1685-000000</styleUrl>
        <Point>
          <coordinates>
            36.3171326,49.9444544,0
          </coordinates>
        </Point>
      </Placemark>
      <Placemark>
        <name>Остановка Инфекционная больница 
</name>
        <description>Троллейбус-1, 3, 59.</description>
        <styleUrl>#icon-1624-000000</styleUrl>
        <Point>
          <coordinates>
            36.3232477,49.9446957,0
          </coordinates>
        </Point>
      </Placemark>
      <Placemark>
        <name>Остановка ул. Высоковольтная
</name>
        <description>Троллейбус- 3, 59.</description>
        <styleUrl>#icon-1619-000000</styleUrl>
        <Point>
          <coordinates>
            36.3389225,49.9453032,0
          </coordinates>
        </Point>
      </Placemark>
      <Placemark>
        <name>Остановка ул. Осипенко
</name>
        <description>Троллейбус-3, 59.</description>
        <styleUrl>#icon-1532-000000</styleUrl>
        <Point>
          <coordinates>
            36.3475185,49.9489693,0
          </coordinates>
        </Point>
      </Placemark>
      <Placemark>
        <name>Остановка ул. Коммунальщиков
</name>
        <description>Троллейбус-3, 7, 59.</description>
        <styleUrl>#icon-1532-000000</styleUrl>
        <Point>
          <coordinates>
            36.3555084,49.9478966,0
          </coordinates>
        </Point>
      </Placemark>
      <Placemark>
        <name>Остановка ул. Северина Потоцкого
</name>
        <description>Троллейбус-3, 7, 59.</description>
        <styleUrl>#icon-1532-000000</styleUrl>
        <Point>
          <coordinates>
            36.3637508,49.9443669,0
          </coordinates>
        </Point>
      </Placemark>
      <Placemark>
        <name>Остановка ул. Бекетова
</name>
        <description>Троллейбус-3, 7, 59.</description>
        <styleUrl>#icon-1532-000000</styleUrl>
        <Point>
          <coordinates>
            36.3710034,49.9419848,0
          </coordinates>
        </Point>
      </Placemark>
      <Placemark>
        <name>Остановка пр. Индустриальный</name>
        <description>Троллейбус-59.</description>
        <styleUrl>#icon-1532-000000</styleUrl>
        <Point>
          <coordinates>
            36.3793004,49.9392753,0
          </coordinates>
        </Point>
      </Placemark>
      <Placemark>
        <name>Остановка пр. Александровский
</name>
        <description>Троллейбус-59.</description>
        <styleUrl>#icon-1532-000000</styleUrl>
        <Point>
          <coordinates>
            36.3833518,49.9380039,0
          </coordinates>
        </Point>
      </Placemark>
      <Placemark>
        <name>Остановка ул. Франтишека Крала  
</name>
        <description>Троллейбус-59.</description>
        <styleUrl>#icon-1532-000000</styleUrl>
        <Point>
          <coordinates>
            36.3814194,49.9347179,0
          </coordinates>
        </Point>
      </Placemark>
      <Placemark>
        <name>Остановка бул. Ивана Каркача
</name>
        <description>Маршрутка- 252э. Троллейбус-59.</description>
        <styleUrl>#icon-1532-000000</styleUrl>
        <Point>
          <coordinates>
            36.389788,49.9283505,0
          </coordinates>
        </Point>
      </Placemark>
      <Placemark>
        <name>Остановка ул. Пономаренковская
</name>
        <description>Троллейбус-59.</description>
        <styleUrl>#icon-1532-000000</styleUrl>
        <Point>
          <coordinates>
            36.3956122,49.9264803,0
          </coordinates>
        </Point>
      </Placemark>
      <Placemark>
        <name>Остановка ул. Плиточная
</name>
        <description>Троллейбус-59.</description>
        <styleUrl>#icon-1532-000000</styleUrl>
        <Point>
          <coordinates>
            36.4007195,49.9247604,0
          </coordinates>
        </Point>
      </Placemark>
      <Placemark>
        <name>Остановка проезд 1 Котласский
</name>
        <description>Троллейбус-59.</description>
        <styleUrl>#icon-1532-000000</styleUrl>
        <Point>
          <coordinates>
            36.406693,49.9227705,0
          </coordinates>
        </Point>
      </Placemark>
      <Placemark>
        <name>Остановка пер. Тюленина 
</name>
        <description>Троллейбус-59.</description>
        <styleUrl>#icon-1532-000000</styleUrl>
        <Point>
          <coordinates>
            36.3828429,49.931114,0
          </coordinates>
        </Point>
      </Placemark>
      <Placemark>
        <name>Остановка ул. 92 бригады
</name>
        <description>Троллейбус-45, 51, 59.</description>
        <styleUrl>#icon-1532-000000</styleUrl>
        <Point>
          <coordinates>
            36.4141231,49.92286,0
          </coordinates>
        </Point>
      </Placemark>
      <Placemark>
        <name>Остановка ул. Граковская
</name>
        <description>Троллейбус- 45, 51, 59.</description>
        <styleUrl>#icon-1532-000000</styleUrl>
        <Point>
          <coordinates>
            36.4154907,49.921229,0
          </coordinates>
        </Point>
      </Placemark>
      <Placemark>
        <name>Остановка ул. Луи Пастера
</name>
        <description>Троллейбус- 45, 59.</description>
        <styleUrl>#icon-1532-000000</styleUrl>
        <Point>
          <coordinates>
            36.4171701,49.9188676,0
          </coordinates>
        </Point>
      </Placemark>
      <Placemark>
        <name>Остановка ул. Роганская
</name>
        <description>Троллейбус-59.</description>
        <styleUrl>#icon-1532-000000</styleUrl>
        <Point>
          <coordinates>
            36.4209872,49.9143791,0
          </coordinates>
        </Point>
      </Placemark>
      <Placemark>
        <name>Остановка ул. Горловская
</name>
        <description>Троллейбус- 59.</description>
        <styleUrl>#icon-1532-000000</styleUrl>
        <Point>
          <coordinates>
            36.4239552,49.9106211,0
          </coordinates>
        </Point>
      </Placemark>
      <Placemark>
        <name>Остановка Пивзавод Рогань
</name>
        <description>Троллейбус-59.</description>
        <styleUrl>#icon-1879-000000</styleUrl>
        <Point>
          <coordinates>
            36.4270883,49.906876,0
          </coordinates>
        </Point>
      </Placemark>
    </Folder>
  </Document>
</kml>
