<?xml version="1.0" encoding="UTF-8"?>
<kml xmlns="http://www.opengis.net/kml/2.2">
  <Document>
    <name>Троллейбусный маршрут №3 Харьков (ул. Университетская - ул. 12 Апреля)</name>
    <description>Подробно https://kharkiv.inform.city/-ru/ /-tr/tr_city/tr_city_tb/</description>
    <Style id="icon-1499-000000-normal">
      <IconStyle>
        <color>ff000000</color>
        <scale>1</scale>
        <Icon>
          <href>https://www.gstatic.com/mapspro/images/stock/503-wht-blank_maps.png</href>
        </Icon>
      </IconStyle>
      <LabelStyle>
        <scale>0</scale>
      </LabelStyle>
    </Style>
    <Style id="icon-1499-000000-highlight">
      <IconStyle>
        <color>ff000000</color>
        <scale>1</scale>
        <Icon>
          <href>https://www.gstatic.com/mapspro/images/stock/503-wht-blank_maps.png</href>
        </Icon>
      </IconStyle>
      <LabelStyle>
        <scale>1</scale>
      </LabelStyle>
    </Style>
    <StyleMap id="icon-1499-000000">
      <Pair>
        <key>normal</key>
        <styleUrl>#icon-1499-000000-normal</styleUrl>
      </Pair>
      <Pair>
        <key>highlight</key>
        <styleUrl>#icon-1499-000000-highlight</styleUrl>
      </Pair>
    </StyleMap>
    <Style id="icon-1499-F57C00-normal">
      <IconStyle>
        <color>ff007cf5</color>
        <scale>1</scale>
        <Icon>
          <href>https://www.gstatic.com/mapspro/images/stock/503-wht-blank_maps.png</href>
        </Icon>
      </IconStyle>
      <LabelStyle>
        <scale>0</scale>
      </LabelStyle>
    </Style>
    <Style id="icon-1499-F57C00-highlight">
      <IconStyle>
        <color>ff007cf5</color>
        <scale>1</scale>
        <Icon>
          <href>https://www.gstatic.com/mapspro/images/stock/503-wht-blank_maps.png</href>
        </Icon>
      </IconStyle>
      <LabelStyle>
        <scale>1</scale>
      </LabelStyle>
    </Style>
    <StyleMap id="icon-1499-F57C00">
      <Pair>
        <key>normal</key>
        <styleUrl>#icon-1499-F57C00-normal</styleUrl>
      </Pair>
      <Pair>
        <key>highlight</key>
        <styleUrl>#icon-1499-F57C00-highlight</styleUrl>
      </Pair>
    </StyleMap>
    <Style id="icon-1532-000000-normal">
      <IconStyle>
        <color>ff000000</color>
        <scale>1</scale>
        <Icon>
          <href>https://www.gstatic.com/mapspro/images/stock/503-wht-blank_maps.png</href>
        </Icon>
      </IconStyle>
      <LabelStyle>
        <scale>0</scale>
      </LabelStyle>
    </Style>
    <Style id="icon-1532-000000-highlight">
      <IconStyle>
        <color>ff000000</color>
        <scale>1</scale>
        <Icon>
          <href>https://www.gstatic.com/mapspro/images/stock/503-wht-blank_maps.png</href>
        </Icon>
      </IconStyle>
      <LabelStyle>
        <scale>1</scale>
      </LabelStyle>
    </Style>
    <StyleMap id="icon-1532-000000">
      <Pair>
        <key>normal</key>
        <styleUrl>#icon-1532-000000-normal</styleUrl>
      </Pair>
      <Pair>
        <key>highlight</key>
        <styleUrl>#icon-1532-000000-highlight</styleUrl>
      </Pair>
    </StyleMap>
    <Style id="icon-1532-F57C00-normal">
      <IconStyle>
        <color>ff007cf5</color>
        <scale>1</scale>
        <Icon>
          <href>https://www.gstatic.com/mapspro/images/stock/503-wht-blank_maps.png</href>
        </Icon>
      </IconStyle>
      <LabelStyle>
        <scale>0</scale>
      </LabelStyle>
    </Style>
    <Style id="icon-1532-F57C00-highlight">
      <IconStyle>
        <color>ff007cf5</color>
        <scale>1</scale>
        <Icon>
          <href>https://www.gstatic.com/mapspro/images/stock/503-wht-blank_maps.png</href>
        </Icon>
      </IconStyle>
      <LabelStyle>
        <scale>1</scale>
      </LabelStyle>
    </Style>
    <StyleMap id="icon-1532-F57C00">
      <Pair>
        <key>normal</key>
        <styleUrl>#icon-1532-F57C00-normal</styleUrl>
      </Pair>
      <Pair>
        <key>highlight</key>
        <styleUrl>#icon-1532-F57C00-highlight</styleUrl>
      </Pair>
    </StyleMap>
    <Style id="icon-1546-000000-normal">
      <IconStyle>
        <color>ff000000</color>
        <scale>1</scale>
        <Icon>
          <href>https://www.gstatic.com/mapspro/images/stock/503-wht-blank_maps.png</href>
        </Icon>
      </IconStyle>
      <LabelStyle>
        <scale>0</scale>
      </LabelStyle>
    </Style>
    <Style id="icon-1546-000000-highlight">
      <IconStyle>
        <color>ff000000</color>
        <scale>1</scale>
        <Icon>
          <href>https://www.gstatic.com/mapspro/images/stock/503-wht-blank_maps.png</href>
        </Icon>
      </IconStyle>
      <LabelStyle>
        <scale>1</scale>
      </LabelStyle>
    </Style>
    <StyleMap id="icon-1546-000000">
      <Pair>
        <key>normal</key>
        <styleUrl>#icon-1546-000000-normal</styleUrl>
      </Pair>
      <Pair>
        <key>highlight</key>
        <styleUrl>#icon-1546-000000-highlight</styleUrl>
      </Pair>
    </StyleMap>
    <Style id="icon-1546-F57C00-normal">
      <IconStyle>
        <color>ff007cf5</color>
        <scale>1</scale>
        <Icon>
          <href>https://www.gstatic.com/mapspro/images/stock/503-wht-blank_maps.png</href>
        </Icon>
      </IconStyle>
      <LabelStyle>
        <scale>0</scale>
      </LabelStyle>
    </Style>
    <Style id="icon-1546-F57C00-highlight">
      <IconStyle>
        <color>ff007cf5</color>
        <scale>1</scale>
        <Icon>
          <href>https://www.gstatic.com/mapspro/images/stock/503-wht-blank_maps.png</href>
        </Icon>
      </IconStyle>
      <LabelStyle>
        <scale>1</scale>
      </LabelStyle>
    </Style>
    <StyleMap id="icon-1546-F57C00">
      <Pair>
        <key>normal</key>
        <styleUrl>#icon-1546-F57C00-normal</styleUrl>
      </Pair>
      <Pair>
        <key>highlight</key>
        <styleUrl>#icon-1546-F57C00-highlight</styleUrl>
      </Pair>
    </StyleMap>
    <Style id="icon-1578-F57C00-normal">
      <IconStyle>
        <color>ff007cf5</color>
        <scale>1</scale>
        <Icon>
          <href>https://www.gstatic.com/mapspro/images/stock/503-wht-blank_maps.png</href>
        </Icon>
      </IconStyle>
      <LabelStyle>
        <scale>0</scale>
      </LabelStyle>
    </Style>
    <Style id="icon-1578-F57C00-highlight">
      <IconStyle>
        <color>ff007cf5</color>
        <scale>1</scale>
        <Icon>
          <href>https://www.gstatic.com/mapspro/images/stock/503-wht-blank_maps.png</href>
        </Icon>
      </IconStyle>
      <LabelStyle>
        <scale>1</scale>
      </LabelStyle>
    </Style>
    <StyleMap id="icon-1578-F57C00">
      <Pair>
        <key>normal</key>
        <styleUrl>#icon-1578-F57C00-normal</styleUrl>
      </Pair>
      <Pair>
        <key>highlight</key>
        <styleUrl>#icon-1578-F57C00-highlight</styleUrl>
      </Pair>
    </StyleMap>
    <Style id="icon-1619-000000-normal">
      <IconStyle>
        <color>ff000000</color>
        <scale>1</scale>
        <Icon>
          <href>https://www.gstatic.com/mapspro/images/stock/503-wht-blank_maps.png</href>
        </Icon>
      </IconStyle>
      <LabelStyle>
        <scale>0</scale>
      </LabelStyle>
    </Style>
    <Style id="icon-1619-000000-highlight">
      <IconStyle>
        <color>ff000000</color>
        <scale>1</scale>
        <Icon>
          <href>https://www.gstatic.com/mapspro/images/stock/503-wht-blank_maps.png</href>
        </Icon>
      </IconStyle>
      <LabelStyle>
        <scale>1</scale>
      </LabelStyle>
    </Style>
    <StyleMap id="icon-1619-000000">
      <Pair>
        <key>normal</key>
        <styleUrl>#icon-1619-000000-normal</styleUrl>
      </Pair>
      <Pair>
        <key>highlight</key>
        <styleUrl>#icon-1619-000000-highlight</styleUrl>
      </Pair>
    </StyleMap>
    <Style id="icon-1619-F57C00-normal">
      <IconStyle>
        <color>ff007cf5</color>
        <scale>1</scale>
        <Icon>
          <href>https://www.gstatic.com/mapspro/images/stock/503-wht-blank_maps.png</href>
        </Icon>
      </IconStyle>
      <LabelStyle>
        <scale>0</scale>
      </LabelStyle>
    </Style>
    <Style id="icon-1619-F57C00-highlight">
      <IconStyle>
        <color>ff007cf5</color>
        <scale>1</scale>
        <Icon>
          <href>https://www.gstatic.com/mapspro/images/stock/503-wht-blank_maps.png</href>
        </Icon>
      </IconStyle>
      <LabelStyle>
        <scale>1</scale>
      </LabelStyle>
    </Style>
    <StyleMap id="icon-1619-F57C00">
      <Pair>
        <key>normal</key>
        <styleUrl>#icon-1619-F57C00-normal</styleUrl>
      </Pair>
      <Pair>
        <key>highlight</key>
        <styleUrl>#icon-1619-F57C00-highlight</styleUrl>
      </Pair>
    </StyleMap>
    <Style id="icon-1624-000000-normal">
      <IconStyle>
        <color>ff000000</color>
        <scale>1</scale>
        <Icon>
          <href>https://www.gstatic.com/mapspro/images/stock/503-wht-blank_maps.png</href>
        </Icon>
      </IconStyle>
      <LabelStyle>
        <scale>0</scale>
      </LabelStyle>
    </Style>
    <Style id="icon-1624-000000-highlight">
      <IconStyle>
        <color>ff000000</color>
        <scale>1</scale>
        <Icon>
          <href>https://www.gstatic.com/mapspro/images/stock/503-wht-blank_maps.png</href>
        </Icon>
      </IconStyle>
      <LabelStyle>
        <scale>1</scale>
      </LabelStyle>
    </Style>
    <StyleMap id="icon-1624-000000">
      <Pair>
        <key>normal</key>
        <styleUrl>#icon-1624-000000-normal</styleUrl>
      </Pair>
      <Pair>
        <key>highlight</key>
        <styleUrl>#icon-1624-000000-highlight</styleUrl>
      </Pair>
    </StyleMap>
    <Style id="icon-1624-F57C00-normal">
      <IconStyle>
        <color>ff007cf5</color>
        <scale>1</scale>
        <Icon>
          <href>https://www.gstatic.com/mapspro/images/stock/503-wht-blank_maps.png</href>
        </Icon>
      </IconStyle>
      <LabelStyle>
        <scale>0</scale>
      </LabelStyle>
    </Style>
    <Style id="icon-1624-F57C00-highlight">
      <IconStyle>
        <color>ff007cf5</color>
        <scale>1</scale>
        <Icon>
          <href>https://www.gstatic.com/mapspro/images/stock/503-wht-blank_maps.png</href>
        </Icon>
      </IconStyle>
      <LabelStyle>
        <scale>1</scale>
      </LabelStyle>
    </Style>
    <StyleMap id="icon-1624-F57C00">
      <Pair>
        <key>normal</key>
        <styleUrl>#icon-1624-F57C00-normal</styleUrl>
      </Pair>
      <Pair>
        <key>highlight</key>
        <styleUrl>#icon-1624-F57C00-highlight</styleUrl>
      </Pair>
    </StyleMap>
    <Style id="icon-1626-000000-normal">
      <IconStyle>
        <color>ff000000</color>
        <scale>1</scale>
        <Icon>
          <href>https://www.gstatic.com/mapspro/images/stock/503-wht-blank_maps.png</href>
        </Icon>
      </IconStyle>
      <LabelStyle>
        <scale>0</scale>
      </LabelStyle>
    </Style>
    <Style id="icon-1626-000000-highlight">
      <IconStyle>
        <color>ff000000</color>
        <scale>1</scale>
        <Icon>
          <href>https://www.gstatic.com/mapspro/images/stock/503-wht-blank_maps.png</href>
        </Icon>
      </IconStyle>
      <LabelStyle>
        <scale>1</scale>
      </LabelStyle>
    </Style>
    <StyleMap id="icon-1626-000000">
      <Pair>
        <key>normal</key>
        <styleUrl>#icon-1626-000000-normal</styleUrl>
      </Pair>
      <Pair>
        <key>highlight</key>
        <styleUrl>#icon-1626-000000-highlight</styleUrl>
      </Pair>
    </StyleMap>
    <Style id="icon-1626-F57C00-normal">
      <IconStyle>
        <color>ff007cf5</color>
        <scale>1</scale>
        <Icon>
          <href>https://www.gstatic.com/mapspro/images/stock/503-wht-blank_maps.png</href>
        </Icon>
      </IconStyle>
      <LabelStyle>
        <scale>0</scale>
      </LabelStyle>
    </Style>
    <Style id="icon-1626-F57C00-highlight">
      <IconStyle>
        <color>ff007cf5</color>
        <scale>1</scale>
        <Icon>
          <href>https://www.gstatic.com/mapspro/images/stock/503-wht-blank_maps.png</href>
        </Icon>
      </IconStyle>
      <LabelStyle>
        <scale>1</scale>
      </LabelStyle>
    </Style>
    <StyleMap id="icon-1626-F57C00">
      <Pair>
        <key>normal</key>
        <styleUrl>#icon-1626-F57C00-normal</styleUrl>
      </Pair>
      <Pair>
        <key>highlight</key>
        <styleUrl>#icon-1626-F57C00-highlight</styleUrl>
      </Pair>
    </StyleMap>
    <Style id="icon-1682-000000-normal">
      <IconStyle>
        <color>ff000000</color>
        <scale>1</scale>
        <Icon>
          <href>https://www.gstatic.com/mapspro/images/stock/503-wht-blank_maps.png</href>
        </Icon>
      </IconStyle>
      <LabelStyle>
        <scale>0</scale>
      </LabelStyle>
    </Style>
    <Style id="icon-1682-000000-highlight">
      <IconStyle>
        <color>ff000000</color>
        <scale>1</scale>
        <Icon>
          <href>https://www.gstatic.com/mapspro/images/stock/503-wht-blank_maps.png</href>
        </Icon>
      </IconStyle>
      <LabelStyle>
        <scale>1</scale>
      </LabelStyle>
    </Style>
    <StyleMap id="icon-1682-000000">
      <Pair>
        <key>normal</key>
        <styleUrl>#icon-1682-000000-normal</styleUrl>
      </Pair>
      <Pair>
        <key>highlight</key>
        <styleUrl>#icon-1682-000000-highlight</styleUrl>
      </Pair>
    </StyleMap>
    <Style id="icon-1682-F57C00-normal">
      <IconStyle>
        <color>ff007cf5</color>
        <scale>1</scale>
        <Icon>
          <href>https://www.gstatic.com/mapspro/images/stock/503-wht-blank_maps.png</href>
        </Icon>
      </IconStyle>
      <LabelStyle>
        <scale>0</scale>
      </LabelStyle>
    </Style>
    <Style id="icon-1682-F57C00-highlight">
      <IconStyle>
        <color>ff007cf5</color>
        <scale>1</scale>
        <Icon>
          <href>https://www.gstatic.com/mapspro/images/stock/503-wht-blank_maps.png</href>
        </Icon>
      </IconStyle>
      <LabelStyle>
        <scale>1</scale>
      </LabelStyle>
    </Style>
    <StyleMap id="icon-1682-F57C00">
      <Pair>
        <key>normal</key>
        <styleUrl>#icon-1682-F57C00-normal</styleUrl>
      </Pair>
      <Pair>
        <key>highlight</key>
        <styleUrl>#icon-1682-F57C00-highlight</styleUrl>
      </Pair>
    </StyleMap>
    <Style id="icon-1685-000000-normal">
      <IconStyle>
        <color>ff000000</color>
        <scale>1</scale>
        <Icon>
          <href>https://www.gstatic.com/mapspro/images/stock/503-wht-blank_maps.png</href>
        </Icon>
      </IconStyle>
      <LabelStyle>
        <scale>0</scale>
      </LabelStyle>
    </Style>
    <Style id="icon-1685-000000-highlight">
      <IconStyle>
        <color>ff000000</color>
        <scale>1</scale>
        <Icon>
          <href>https://www.gstatic.com/mapspro/images/stock/503-wht-blank_maps.png</href>
        </Icon>
      </IconStyle>
      <LabelStyle>
        <scale>1</scale>
      </LabelStyle>
    </Style>
    <StyleMap id="icon-1685-000000">
      <Pair>
        <key>normal</key>
        <styleUrl>#icon-1685-000000-normal</styleUrl>
      </Pair>
      <Pair>
        <key>highlight</key>
        <styleUrl>#icon-1685-000000-highlight</styleUrl>
      </Pair>
    </StyleMap>
    <Style id="icon-1685-F57C00-normal">
      <IconStyle>
        <color>ff007cf5</color>
        <scale>1</scale>
        <Icon>
          <href>https://www.gstatic.com/mapspro/images/stock/503-wht-blank_maps.png</href>
        </Icon>
      </IconStyle>
      <LabelStyle>
        <scale>0</scale>
      </LabelStyle>
    </Style>
    <Style id="icon-1685-F57C00-highlight">
      <IconStyle>
        <color>ff007cf5</color>
        <scale>1</scale>
        <Icon>
          <href>https://www.gstatic.com/mapspro/images/stock/503-wht-blank_maps.png</href>
        </Icon>
      </IconStyle>
      <LabelStyle>
        <scale>1</scale>
      </LabelStyle>
    </Style>
    <StyleMap id="icon-1685-F57C00">
      <Pair>
        <key>normal</key>
        <styleUrl>#icon-1685-F57C00-normal</styleUrl>
      </Pair>
      <Pair>
        <key>highlight</key>
        <styleUrl>#icon-1685-F57C00-highlight</styleUrl>
      </Pair>
    </StyleMap>
    <Style id="icon-1720-F57C00-normal">
      <IconStyle>
        <color>ff007cf5</color>
        <scale>1</scale>
        <Icon>
          <href>https://www.gstatic.com/mapspro/images/stock/503-wht-blank_maps.png</href>
        </Icon>
      </IconStyle>
      <LabelStyle>
        <scale>0</scale>
      </LabelStyle>
    </Style>
    <Style id="icon-1720-F57C00-highlight">
      <IconStyle>
        <color>ff007cf5</color>
        <scale>1</scale>
        <Icon>
          <href>https://www.gstatic.com/mapspro/images/stock/503-wht-blank_maps.png</href>
        </Icon>
      </IconStyle>
      <LabelStyle>
        <scale>1</scale>
      </LabelStyle>
    </Style>
    <StyleMap id="icon-1720-F57C00">
      <Pair>
        <key>normal</key>
        <styleUrl>#icon-1720-F57C00-normal</styleUrl>
      </Pair>
      <Pair>
        <key>highlight</key>
        <styleUrl>#icon-1720-F57C00-highlight</styleUrl>
      </Pair>
    </StyleMap>
    <Style id="line-000000-5069-nodesc-normal">
      <LineStyle>
        <color>ff000000</color>
        <width>5.069</width>
      </LineStyle>
      <BalloonStyle>
        <text><![CDATA[<h3>$[name]</h3>]]></text>
      </BalloonStyle>
    </Style>
    <Style id="line-000000-5069-nodesc-highlight">
      <LineStyle>
        <color>ff000000</color>
        <width>7.6035</width>
      </LineStyle>
      <BalloonStyle>
        <text><![CDATA[<h3>$[name]</h3>]]></text>
      </BalloonStyle>
    </Style>
    <StyleMap id="line-000000-5069-nodesc">
      <Pair>
        <key>normal</key>
        <styleUrl>#line-000000-5069-nodesc-normal</styleUrl>
      </Pair>
      <Pair>
        <key>highlight</key>
        <styleUrl>#line-000000-5069-nodesc-highlight</styleUrl>
      </Pair>
    </StyleMap>
    <Style id="line-F57C00-5069-nodesc-normal">
      <LineStyle>
        <color>ff007cf5</color>
        <width>5.069</width>
      </LineStyle>
      <BalloonStyle>
        <text><![CDATA[<h3>$[name]</h3>]]></text>
      </BalloonStyle>
    </Style>
    <Style id="line-F57C00-5069-nodesc-highlight">
      <LineStyle>
        <color>ff007cf5</color>
        <width>7.6035</width>
      </LineStyle>
      <BalloonStyle>
        <text><![CDATA[<h3>$[name]</h3>]]></text>
      </BalloonStyle>
    </Style>
    <StyleMap id="line-F57C00-5069-nodesc">
      <Pair>
        <key>normal</key>
        <styleUrl>#line-F57C00-5069-nodesc-normal</styleUrl>
      </Pair>
      <Pair>
        <key>highlight</key>
        <styleUrl>#line-F57C00-5069-nodesc-highlight</styleUrl>
      </Pair>
    </StyleMap>
    <Folder>
      <name>Маршрут туда</name>
      <Placemark>
        <name>Линия маршрута</name>
        <styleUrl>#line-F57C00-5069-nodesc</styleUrl>
        <LineString>
          <tessellate>1</tessellate>
          <coordinates>
            36.2310765,49.9846049,0
            36.230921,49.9845567,0
            36.2309693,49.9844152,0
            36.2310068,49.9843704,0
            36.2311141,49.9843807,0
            36.2318061,49.984598,0
            36.2328683,49.9849154,0
            36.2334476,49.9843669,0
            36.2364356,49.9852948,0
            36.2377123,49.9840358,0
            36.2378196,49.9838047,0
            36.2377713,49.9836426,0
            36.2378196,49.9834563,0
            36.2379108,49.9833666,0
            36.2382327,49.9831769,0
            36.2388442,49.9828906,0
            36.2398098,49.9824594,0
            36.2412099,49.9818109,0
            36.2418912,49.981497,0
            36.2436561,49.9807243,0
            36.2469445,49.9793755,0
            36.248924,49.978451,0
            36.2503616,49.9778025,0
            36.2523786,49.9768883,0
            36.2529526,49.9766226,0
            36.2531833,49.9764674,0
            36.2534462,49.976288,0
            36.2538109,49.9759603,0
            36.2549107,49.9751357,0
            36.2554203,49.9747148,0
            36.2557207,49.9744699,0
            36.2568955,49.973566,0
            36.2578772,49.9727552,0
            36.2586818,49.9720962,0
            36.2588964,49.9717891,0
            36.2590573,49.9714924,0
            36.2592505,49.9710163,0
            36.259347,49.9705022,0
            36.259347,49.9701054,0
            36.2592183,49.9687632,0
            36.2589983,49.9671173,0
            36.2587033,49.9653403,0
            36.2585746,49.9644327,0
            36.2585746,49.964243,0
            36.2585853,49.9639772,0
            36.2587087,49.9629938,0
            36.2588374,49.961679,0
            36.2589071,49.9606161,0
            36.2589393,49.9601985,0
            36.2590734,49.9590666,0
            36.2591485,49.9584419,0
            36.2593148,49.9571166,0
            36.2593738,49.9567197,0
            36.2596045,49.9551045,0
            36.2597923,49.9537964,0
            36.2598674,49.9530923,0
            36.2599317,49.9523261,0
            36.2599478,49.9517669,0
            36.2600015,49.9493748,0
            36.2600176,49.9480839,0
            36.2600069,49.9472796,0
            36.2599532,49.9466374,0
            36.2603555,49.9466444,0
            36.260774,49.9465063,0
            36.2611817,49.9463475,0
            36.2621311,49.945992,0
            36.2630163,49.9456571,0
            36.2635796,49.9455604,0
            36.2646364,49.9454259,0
            36.2677691,49.9450599,0
            36.2698774,49.9448183,0
            36.271417,49.9446215,0
            36.2727474,49.9444661,0
            36.2741529,49.9442866,0
            36.275333,49.9441796,0
            36.2762718,49.9441209,0
            36.2795065,49.9440588,0
            36.2815879,49.9440346,0
            36.2842808,49.9439932,0
            36.2901173,49.9439379,0
            36.2999879,49.9438413,0
            36.3023482,49.9438275,0
            36.3068221,49.9440277,0
            36.3148795,49.9443798,0
            36.3246213,49.9447665,0
            36.3297926,49.9449667,0
            36.3378499,49.9452359,0
            36.3392769,49.94545,0
            36.3399528,49.9457192,0
            36.3425277,49.9469551,0
            36.3457249,49.9485222,0
            36.3462184,49.9487777,0
            36.3473771,49.9490193,0
            36.3482462,49.9492471,0
            36.3493834,49.94904,0
            36.3551341,49.9479976,0
            36.3561748,49.9477007,0
            36.3566468,49.9474521,0
            36.3574515,49.9469758,0
            36.3577948,49.9467549,0
            36.3584278,49.9464925,0
            36.3600157,49.9458987,0
            36.362022,49.9451117,0
            36.3649617,49.9440277,0
            36.3688563,49.9427573,0
            36.3730083,49.9413901,0
            36.3771282,49.9400989,0
            36.3796066,49.9432199,0
            36.3800357,49.9436894,0
            36.3804541,49.944076,0
            36.3813124,49.9452083,0
            36.3828574,49.9471,0
            36.3837479,49.9482806,0
            36.3848422,49.9496061,0
            36.3860331,49.9491781,0
            36.3901208,49.9478457,0
            36.3902496,49.94739,0
            36.3904105,49.9469965,0
            36.3905929,49.9467272,0
            36.3910328,49.9465823,0
            36.3908933,49.9464027,0
          </coordinates>
        </LineString>
      </Placemark>
      <Placemark>
        <name>Остановка ул. Университетская
</name>
        <description>Троллейбус-3,  6, 49, 59.</description>
        <styleUrl>#icon-1499-F57C00</styleUrl>
        <Point>
          <coordinates>
            36.230974,49.98463,0
          </coordinates>
        </Point>
      </Placemark>
      <Placemark>
        <name>Остановка пер. Соляниковский</name>
        <description>Троллейбус-3, 6, 49, 58, 59. </description>
        <styleUrl>#icon-1532-F57C00</styleUrl>
        <Point>
          <coordinates>
            36.2354049,49.98483,0
          </coordinates>
        </Point>
      </Placemark>
      <Placemark>
        <name>Станция метро Левада
</name>
        <description>Троллейбус-3, 6, 49, 58, 59.</description>
        <styleUrl>#icon-1626-F57C00</styleUrl>
        <Point>
          <coordinates>
            36.2420348,49.9812818,0
          </coordinates>
        </Point>
      </Placemark>
      <Placemark>
        <name>Станция Автовокзал
</name>
        <description>Троллейбус-3, 6, 49, 58, 59.</description>
        <styleUrl>#icon-1532-F57C00</styleUrl>
        <Point>
          <coordinates>
            36.2475403,49.97891,0
          </coordinates>
        </Point>
      </Placemark>
      <Placemark>
        <name>Остановка ул. Молочная
</name>
        <description>Троллейбус-3, 6, 49, 58, 59.</description>
        <styleUrl>#icon-1532-F57C00</styleUrl>
        <Point>
          <coordinates>
            36.2513705,49.9771575,0
          </coordinates>
        </Point>
      </Placemark>
      <Placemark>
        <name>Остановка ул. Дмитра Коцюбайло
</name>
        <description>Троллейбус-3, 6, 49, 58, 59.</description>
        <styleUrl>#icon-1532-F57C00</styleUrl>
        <Point>
          <coordinates>
            36.2577863,49.9726588,0
          </coordinates>
        </Point>
      </Placemark>
      <Placemark>
        <name>Остановка ул. Чугуевская
</name>
        <description>Троллейбус-3, 6, 49, 58, 59.</description>
        <styleUrl>#icon-1532-F57C00</styleUrl>
        <Point>
          <coordinates>
            36.2589086,49.9673441,0
          </coordinates>
        </Point>
      </Placemark>
      <Placemark>
        <name>Остановка ул. Сидоренковская 
</name>
        <description>Троллейбус-3, 6, 49, 58, 59.</description>
        <styleUrl>#icon-1532-F57C00</styleUrl>
        <Point>
          <coordinates>
            36.2587048,49.9614429,0
          </coordinates>
        </Point>
      </Placemark>
      <Placemark>
        <name>Остановка Школа
</name>
        <description>Троллейбус-3, 6, 49, 58, 59.</description>
        <styleUrl>#icon-1682-F57C00</styleUrl>
        <Point>
          <coordinates>
            36.2593163,49.955997,0
          </coordinates>
        </Point>
      </Placemark>
      <Placemark>
        <name>Остановка ул. Зерновая
</name>
        <description>Троллейбус-3, 6, 49, 58, 59.</description>
        <styleUrl>#icon-1532-F57C00</styleUrl>
        <Point>
          <coordinates>
            36.259741,49.95123,0
          </coordinates>
        </Point>
      </Placemark>
      <Placemark>
        <name>Остановка ул. Одесская
</name>
        <description>Маршрутка-259э. Троллейбус-3, 59.</description>
        <styleUrl>#icon-1532-F57C00</styleUrl>
        <Point>
          <coordinates>
            36.2609473,49.9463156,0
          </coordinates>
        </Point>
      </Placemark>
      <Placemark>
        <name>Остановка ул. Манюшко
</name>
        <description>Маршрутка-259э. Троллейбус-3, 19, 35, 59.</description>
        <styleUrl>#icon-1532-F57C00</styleUrl>
        <Point>
          <coordinates>
            36.2685433,49.9448381,0
          </coordinates>
        </Point>
      </Placemark>
      <Placemark>
        <name>Остановка ул. Морозова
</name>
        <description>Троллейбус-3, 19, 35, 59.</description>
        <styleUrl>#icon-1532-F57C00</styleUrl>
        <Point>
          <coordinates>
            36.282119,49.9440008,0
          </coordinates>
        </Point>
      </Placemark>
      <Placemark>
        <name>Остановка ул. Павла Чубинского
</name>
        <description>Троллейбус-3, 19, 35, 59.</description>
        <styleUrl>#icon-1532-F57C00</styleUrl>
        <Point>
          <coordinates>
            36.2909273,49.9438816,0
          </coordinates>
        </Point>
      </Placemark>
      <Placemark>
        <name>Остановка 28 микрорайон
</name>
        <description>Троллейбус- 3, 59.</description>
        <styleUrl>#icon-1546-F57C00</styleUrl>
        <Point>
          <coordinates>
            36.3032995,49.9438607,0
          </coordinates>
        </Point>
      </Placemark>
      <Placemark>
        <name>Остановка 27 микрорайон
</name>
        <description>Троллейбус-1, 3, 59.</description>
        <styleUrl>#icon-1546-F57C00</styleUrl>
        <Point>
          <coordinates>
            36.3100855,49.9441734,0
          </coordinates>
        </Point>
      </Placemark>
      <Placemark>
        <name>Остановка Торговый комплекс
</name>
        <description>Троллейбус-3, 59.</description>
        <styleUrl>#icon-1685-F57C00</styleUrl>
        <Point>
          <coordinates>
            36.3171326,49.9444544,0
          </coordinates>
        </Point>
      </Placemark>
      <Placemark>
        <name>Остановка Инфекционная больница 
</name>
        <description>Троллейбус-3, 59.</description>
        <styleUrl>#icon-1624-F57C00</styleUrl>
        <Point>
          <coordinates>
            36.3232477,49.9446957,0
          </coordinates>
        </Point>
      </Placemark>
      <Placemark>
        <name>Остановка ул. Высоковольтная
</name>
        <description>Троллейбус-3, 59.</description>
        <styleUrl>#icon-1619-F57C00</styleUrl>
        <Point>
          <coordinates>
            36.3390405,49.9453032,0
          </coordinates>
        </Point>
      </Placemark>
      <Placemark>
        <name>Остановка ул. Осипенко
</name>
        <description>Троллейбус-3, 59.</description>
        <styleUrl>#icon-1532-F57C00</styleUrl>
        <Point>
          <coordinates>
            36.3475185,49.9489693,0
          </coordinates>
        </Point>
      </Placemark>
      <Placemark>
        <name>Остановка ул. Коммунальщиков
</name>
        <description>Троллейбус-3, 7, 59.</description>
        <styleUrl>#icon-1532-F57C00</styleUrl>
        <Point>
          <coordinates>
            36.355444,49.9478828,0
          </coordinates>
        </Point>
      </Placemark>
      <Placemark>
        <name>Остановка ул. Северина Потоцкого
</name>
        <description>Троллейбус-3, 7, 59.</description>
        <styleUrl>#icon-1532-F57C00</styleUrl>
        <Point>
          <coordinates>
            36.3636864,49.9444014,0
          </coordinates>
        </Point>
      </Placemark>
      <Placemark>
        <name><![CDATA[Остановка рынок "ХТЗ"]]></name>
        <description>Троллейбус-3, 7, 59.</description>
        <styleUrl>#icon-1578-F57C00</styleUrl>
        <Point>
          <coordinates>
            36.3745747,49.9408766,0
          </coordinates>
        </Point>
      </Placemark>
      <Placemark>
        <name>Остановка пр. Индустриальный
</name>
        <description>Маршрутка - 121э,  Троллейбус-3, 7.</description>
        <styleUrl>#icon-1532-F57C00</styleUrl>
        <Point>
          <coordinates>
            36.3857416,49.9491228,0
          </coordinates>
        </Point>
      </Placemark>
      <Placemark>
        <name>Остановка ул. Мира 
</name>
        <description>Троллейбус-3, 7.</description>
        <styleUrl>#icon-1532-F57C00</styleUrl>
        <Point>
          <coordinates>
            36.3831884,49.9473969,0
          </coordinates>
        </Point>
      </Placemark>
      <Placemark>
        <name>Остановка ул. Библика</name>
        <description>Троллейбус-3, 7.</description>
        <styleUrl>#icon-1532-F57C00</styleUrl>
        <Point>
          <coordinates>
            36.3807935,49.9446069,0
          </coordinates>
        </Point>
      </Placemark>
      <Placemark>
        <name>Остановка Александровский сквер
</name>
        <description>Троллейбус-3, 7.</description>
        <styleUrl>#icon-1720-F57C00</styleUrl>
        <Point>
          <coordinates>
            36.3776746,49.9407788,0
          </coordinates>
        </Point>
      </Placemark>
    </Folder>
    <Folder>
      <name>Маршрут обратно</name>
      <Placemark>
        <name>Линия маршрута</name>
        <styleUrl>#line-000000-5069-nodesc</styleUrl>
        <LineString>
          <tessellate>1</tessellate>
          <coordinates>
            36.3908933,49.9464027,0
            36.3889576,49.9442091,0
            36.3862969,49.9408258,0
            36.3840545,49.9378705,0
            36.3778533,49.9399282,0
            36.3700427,49.9424554,0
            36.3645924,49.9442643,0
            36.3619639,49.9452447,0
            36.3581766,49.9467567,0
            36.3575972,49.9470329,0
            36.3564385,49.9476957,0
            36.3561274,49.9478406,0
            36.355709,49.9479649,0
            36.3548077,49.9481651,0
            36.3516964,49.9487105,0
            36.3482095,49.949318,0
            36.3468684,49.9494906,0
            36.3462032,49.949035,0
            36.3455488,49.9485863,0
            36.3446797,49.9481099,0
            36.3416005,49.9466256,0
            36.3395943,49.9456728,0
            36.3392509,49.9455416,0
            36.338339,49.9453966,0
            36.3374378,49.9453276,0
            36.334659,49.9452516,0
            36.3300349,49.9450721,0
            36.3268913,49.9449617,0
            36.3219668,49.9447752,0
            36.3175358,49.9445957,0
            36.3106049,49.9443058,0
            36.3020862,49.9439605,0
            36.2985672,49.9439536,0
            36.2924088,49.9440296,0
            36.2897588,49.9440572,0
            36.2858964,49.9440848,0
            36.2815942,49.944147,0
            36.2796844,49.944147,0
            36.2769593,49.9441677,0
            36.2757577,49.9442436,0
            36.2747921,49.9442988,0
            36.2739874,49.9443955,0
            36.2710263,49.9447683,0
            36.2686337,49.9450307,0
            36.2668527,49.9452585,0
            36.2642349,49.9455761,0
            36.2632479,49.9457142,0
            36.2627221,49.9458592,0
            36.2617136,49.9462804,0
            36.2603511,49.9467015,0
            36.2602545,49.9489729,0
            36.2602116,49.9495183,0
            36.2601472,49.9527007,0
            36.2600614,49.953605,0
            36.2597288,49.9569943,0
            36.2595142,49.9592237,0
            36.2593426,49.9601624,0
            36.2588705,49.9634408,0
            36.2587739,49.9641241,0
            36.2587847,49.9648694,0
            36.2589349,49.9656769,0
            36.2594069,49.9686029,0
            36.2595249,49.9696864,0
            36.2595893,49.9709285,0
            36.2595035,49.9715081,0
            36.2590958,49.9720325,0
            36.258216,49.972695,0
            36.2563599,49.9741785,0
            36.2533559,49.976559,0
            36.2528194,49.9768488,0
            36.2498046,49.9782218,0
            36.2465323,49.9796913,0
            36.2450303,49.980264,0
            36.2402345,49.9823751,0
            36.2390651,49.9829201,0
            36.2386574,49.9831202,0
            36.2384964,49.9833133,0
            36.2385072,49.9835479,0
            36.2385072,49.983679,0
            36.2382389,49.9838307,0
            36.2378527,49.9840239,0
            36.2359644,49.9859003,0
            36.2328683,49.9849154,0
            36.2318982,49.9846862,0
            36.2311043,49.9846586,0
            36.2310765,49.9846049,0
          </coordinates>
        </LineString>
      </Placemark>
      <Placemark>
        <name>Остановка ул. 12 апреля (круг)
</name>
        <description>Троллейбус-3, 7.</description>
        <styleUrl>#icon-1499-000000</styleUrl>
        <Point>
          <coordinates>
            36.3901312,49.9473125,0
          </coordinates>
        </Point>
      </Placemark>
      <Placemark>
        <name>Остановка ул. Библика 
</name>
        <description>Троллейбус-3, 7.</description>
        <styleUrl>#icon-1532-000000</styleUrl>
        <Point>
          <coordinates>
            36.3882717,49.9434746,0
          </coordinates>
        </Point>
      </Placemark>
      <Placemark>
        <name>Остановка пр. Александровский
</name>
        <description>Троллейбус-3, 7, 59.</description>
        <styleUrl>#icon-1532-000000</styleUrl>
        <Point>
          <coordinates>
            36.3832219,49.9383087,0
          </coordinates>
        </Point>
      </Placemark>
      <Placemark>
        <name>Остановка ул. Бекетова
</name>
        <description>Автобус -102э, 147э, 213э, 304э. Троллейбус-3, 36.</description>
        <styleUrl>#icon-1532-000000</styleUrl>
        <Point>
          <coordinates>
            36.3743776,49.9411424,0
          </coordinates>
        </Point>
      </Placemark>
      <Placemark>
        <name>Остановка пр. Архитектора Алешина
</name>
        <description>Троллейбус-3, 7, 59.</description>
        <styleUrl>#icon-1532-000000</styleUrl>
        <Point>
          <coordinates>
            36.3690176,49.9429447,0
          </coordinates>
        </Point>
      </Placemark>
      <Placemark>
        <name>Остановка ул. Северина Потоцкого
</name>
        <description>Троллейбус-3, 7, 59.</description>
        <styleUrl>#icon-1532-000000</styleUrl>
        <Point>
          <coordinates>
            36.362239,49.9452285,0
          </coordinates>
        </Point>
      </Placemark>
      <Placemark>
        <name>Остановка ул. Коммунальщиков
</name>
        <description>Троллейбус-3, 7, 59.</description>
        <styleUrl>#icon-1532-000000</styleUrl>
        <Point>
          <coordinates>
            36.3541153,49.9483524,0
          </coordinates>
        </Point>
      </Placemark>
      <Placemark>
        <name>Остановка ул. Осипенко
</name>
        <description>Троллейбус-3, 59.</description>
        <styleUrl>#icon-1532-000000</styleUrl>
        <Point>
          <coordinates>
            36.3452211,49.9485043,0
          </coordinates>
        </Point>
      </Placemark>
      <Placemark>
        <name>Остановка ул. Высоковольтна
</name>
        <description>Троллейбус-3, 59.</description>
        <styleUrl>#icon-1619-000000</styleUrl>
        <Point>
          <coordinates>
            36.3375904,49.9454524,0
          </coordinates>
        </Point>
      </Placemark>
      <Placemark>
        <name>Остановка Инфекционная больница
</name>
        <description>Троллейбус-3, 59.</description>
        <styleUrl>#icon-1624-000000</styleUrl>
        <Point>
          <coordinates>
            36.3222738,49.9447991,0
          </coordinates>
        </Point>
      </Placemark>
      <Placemark>
        <name>Остановка Торговый комплекс
</name>
        <description>Троллейбус-3, 59.</description>
        <styleUrl>#icon-1685-000000</styleUrl>
        <Point>
          <coordinates>
            36.3166739,49.944621,0
          </coordinates>
        </Point>
      </Placemark>
      <Placemark>
        <name>Остановка 27 микрорайон
</name>
        <description>Троллейбус-1, 3, 59.</description>
        <styleUrl>#icon-1546-000000</styleUrl>
        <Point>
          <coordinates>
            36.3089903,49.9442938,0
          </coordinates>
        </Point>
      </Placemark>
      <Placemark>
        <name>Остановка 28 микрорайон 
</name>
        <description>Троллейбус-3, 19, 35, 59.</description>
        <styleUrl>#icon-1546-000000</styleUrl>
        <Point>
          <coordinates>
            36.3000792,49.9440625,0
          </coordinates>
        </Point>
      </Placemark>
      <Placemark>
        <name>Остановка ул. Павла Чубинского
</name>
        <description>Троллейбус-3, 19, 35, 59.</description>
        <styleUrl>#icon-1532-000000</styleUrl>
        <Point>
          <coordinates>
            36.2903601,49.9441109,0
          </coordinates>
        </Point>
      </Placemark>
      <Placemark>
        <name>Остановка ул. Морозова
</name>
        <description>Троллейбус-3, 19, 35, 59.</description>
        <styleUrl>#icon-1532-000000</styleUrl>
        <Point>
          <coordinates>
            36.2803977,49.944185,0
          </coordinates>
        </Point>
      </Placemark>
      <Placemark>
        <name>Остановка ул. Николая Кравченко
</name>
        <description>Маршрутка-259э. Троллейбус-3, 19, 35, 59.</description>
        <styleUrl>#icon-1532-000000</styleUrl>
        <Point>
          <coordinates>
            36.2744013,49.9444031,0
          </coordinates>
        </Point>
      </Placemark>
      <Placemark>
        <name>Остановка ул. Монюшко
</name>
        <description>Маршрутка-259э. Троллейбус-3, 19, 35, 59.</description>
        <styleUrl>#icon-1532-000000</styleUrl>
        <Point>
          <coordinates>
            36.2695155,49.9449745,0
          </coordinates>
        </Point>
      </Placemark>
      <Placemark>
        <name>Остановка ул. Одесская
</name>
        <description>Троллейбус-3, 6, 49.</description>
        <styleUrl>#icon-1532-000000</styleUrl>
        <Point>
          <coordinates>
            36.2605354,49.9471104,0
          </coordinates>
        </Point>
      </Placemark>
      <Placemark>
        <name>Остановка ул. Зерновая
</name>
        <description>Троллейбус-3, 6, 49, 58, 59.</description>
        <styleUrl>#icon-1532-000000</styleUrl>
        <Point>
          <coordinates>
            36.2602711,49.9532,0
          </coordinates>
        </Point>
      </Placemark>
      <Placemark>
        <name>Остановка Школа
</name>
        <description>Троллейбус-3, 6, 49, 58, 59.</description>
        <styleUrl>#icon-1682-000000</styleUrl>
        <Point>
          <coordinates>
            36.2599035,49.9574613,0
          </coordinates>
        </Point>
      </Placemark>
      <Placemark>
        <name>Остановка ул. Сидоренковкая
</name>
        <description>Троллейбус-3, 6, 49, 58, 59.</description>
        <styleUrl>#icon-1532-000000</styleUrl>
        <Point>
          <coordinates>
            36.2591597,49.9620671,0
          </coordinates>
        </Point>
      </Placemark>
      <Placemark>
        <name>Остановка пер. Золотой
</name>
        <description>Троллейбус-3, 6, 49, 58, 59.</description>
        <styleUrl>#icon-1532-000000</styleUrl>
        <Point>
          <coordinates>
            36.2595207,49.9683188,0
          </coordinates>
        </Point>
      </Placemark>
      <Placemark>
        <name>Остановка ул. Дмитра Коцюбайло
</name>
        <description>Троллейбус-3, 6, 49, 58, 59.</description>
        <styleUrl>#icon-1532-000000</styleUrl>
        <Point>
          <coordinates>
            36.2575754,49.9733466,0
          </coordinates>
        </Point>
      </Placemark>
      <Placemark>
        <name>Остановка ул. Молочная
</name>
        <description>Троллейбус-3, 6, 49, 58, 59.</description>
        <styleUrl>#icon-1532-000000</styleUrl>
        <Point>
          <coordinates>
            36.2497314,49.9783148,0
          </coordinates>
        </Point>
      </Placemark>
      <Placemark>
        <name>Остановка ул. Вернадского
</name>
        <description>Троллейбус-3, 6, 49, 58, 59.</description>
        <styleUrl>#icon-1532-000000</styleUrl>
        <Point>
          <coordinates>
            36.2459548,49.9799776,0
          </coordinates>
        </Point>
      </Placemark>
      <Placemark>
        <name>Станция метро Левада
</name>
        <description>Троллейбус-3, 6, 49, 58, 59.</description>
        <styleUrl>#icon-1626-000000</styleUrl>
        <Point>
          <coordinates>
            36.2410325,49.982054,0
          </coordinates>
        </Point>
      </Placemark>
      <Placemark>
        <name>Остановка ул. Кузнечная
</name>
        <description>Троллейбус-3, 6, 49, 59.</description>
        <styleUrl>#icon-1532-000000</styleUrl>
        <Point>
          <coordinates>
            36.2355365,49.9857786,0
          </coordinates>
        </Point>
      </Placemark>
    </Folder>
  </Document>
</kml>
