<?xml version="1.0" encoding="UTF-8"?>
<kml xmlns="http://www.opengis.net/kml/2.2">
  <Document>
    <name>Троллебусный маршрут №12. Харьков (ул. Рудика - ул. Клочковская)</name>
    <description>Подробно https://kharkiv.inform.city/-ru/-tr/tr_city/tr_city_tb/</description>
    <Style id="icon-1499-000000-normal">
      <IconStyle>
        <color>ff000000</color>
        <scale>1</scale>
        <Icon>
          <href>https://www.gstatic.com/mapspro/images/stock/503-wht-blank_maps.png</href>
        </Icon>
      </IconStyle>
      <LabelStyle>
        <scale>0</scale>
      </LabelStyle>
    </Style>
    <Style id="icon-1499-000000-highlight">
      <IconStyle>
        <color>ff000000</color>
        <scale>1</scale>
        <Icon>
          <href>https://www.gstatic.com/mapspro/images/stock/503-wht-blank_maps.png</href>
        </Icon>
      </IconStyle>
      <LabelStyle>
        <scale>1</scale>
      </LabelStyle>
    </Style>
    <StyleMap id="icon-1499-000000">
      <Pair>
        <key>normal</key>
        <styleUrl>#icon-1499-000000-normal</styleUrl>
      </Pair>
      <Pair>
        <key>highlight</key>
        <styleUrl>#icon-1499-000000-highlight</styleUrl>
      </Pair>
    </StyleMap>
    <Style id="icon-1499-F57C00-normal">
      <IconStyle>
        <color>ff007cf5</color>
        <scale>1</scale>
        <Icon>
          <href>https://www.gstatic.com/mapspro/images/stock/503-wht-blank_maps.png</href>
        </Icon>
      </IconStyle>
      <LabelStyle>
        <scale>0</scale>
      </LabelStyle>
    </Style>
    <Style id="icon-1499-F57C00-highlight">
      <IconStyle>
        <color>ff007cf5</color>
        <scale>1</scale>
        <Icon>
          <href>https://www.gstatic.com/mapspro/images/stock/503-wht-blank_maps.png</href>
        </Icon>
      </IconStyle>
      <LabelStyle>
        <scale>1</scale>
      </LabelStyle>
    </Style>
    <StyleMap id="icon-1499-F57C00">
      <Pair>
        <key>normal</key>
        <styleUrl>#icon-1499-F57C00-normal</styleUrl>
      </Pair>
      <Pair>
        <key>highlight</key>
        <styleUrl>#icon-1499-F57C00-highlight</styleUrl>
      </Pair>
    </StyleMap>
    <Style id="icon-1522-000000-normal">
      <IconStyle>
        <color>ff000000</color>
        <scale>1</scale>
        <Icon>
          <href>https://www.gstatic.com/mapspro/images/stock/503-wht-blank_maps.png</href>
        </Icon>
      </IconStyle>
      <LabelStyle>
        <scale>0</scale>
      </LabelStyle>
    </Style>
    <Style id="icon-1522-000000-highlight">
      <IconStyle>
        <color>ff000000</color>
        <scale>1</scale>
        <Icon>
          <href>https://www.gstatic.com/mapspro/images/stock/503-wht-blank_maps.png</href>
        </Icon>
      </IconStyle>
      <LabelStyle>
        <scale>1</scale>
      </LabelStyle>
    </Style>
    <StyleMap id="icon-1522-000000">
      <Pair>
        <key>normal</key>
        <styleUrl>#icon-1522-000000-normal</styleUrl>
      </Pair>
      <Pair>
        <key>highlight</key>
        <styleUrl>#icon-1522-000000-highlight</styleUrl>
      </Pair>
    </StyleMap>
    <Style id="icon-1522-F57C00-normal">
      <IconStyle>
        <color>ff007cf5</color>
        <scale>1</scale>
        <Icon>
          <href>https://www.gstatic.com/mapspro/images/stock/503-wht-blank_maps.png</href>
        </Icon>
      </IconStyle>
      <LabelStyle>
        <scale>0</scale>
      </LabelStyle>
    </Style>
    <Style id="icon-1522-F57C00-highlight">
      <IconStyle>
        <color>ff007cf5</color>
        <scale>1</scale>
        <Icon>
          <href>https://www.gstatic.com/mapspro/images/stock/503-wht-blank_maps.png</href>
        </Icon>
      </IconStyle>
      <LabelStyle>
        <scale>1</scale>
      </LabelStyle>
    </Style>
    <StyleMap id="icon-1522-F57C00">
      <Pair>
        <key>normal</key>
        <styleUrl>#icon-1522-F57C00-normal</styleUrl>
      </Pair>
      <Pair>
        <key>highlight</key>
        <styleUrl>#icon-1522-F57C00-highlight</styleUrl>
      </Pair>
    </StyleMap>
    <Style id="icon-1532-000000-normal">
      <IconStyle>
        <color>ff000000</color>
        <scale>1</scale>
        <Icon>
          <href>https://www.gstatic.com/mapspro/images/stock/503-wht-blank_maps.png</href>
        </Icon>
      </IconStyle>
      <LabelStyle>
        <scale>0</scale>
      </LabelStyle>
    </Style>
    <Style id="icon-1532-000000-highlight">
      <IconStyle>
        <color>ff000000</color>
        <scale>1</scale>
        <Icon>
          <href>https://www.gstatic.com/mapspro/images/stock/503-wht-blank_maps.png</href>
        </Icon>
      </IconStyle>
      <LabelStyle>
        <scale>1</scale>
      </LabelStyle>
    </Style>
    <StyleMap id="icon-1532-000000">
      <Pair>
        <key>normal</key>
        <styleUrl>#icon-1532-000000-normal</styleUrl>
      </Pair>
      <Pair>
        <key>highlight</key>
        <styleUrl>#icon-1532-000000-highlight</styleUrl>
      </Pair>
    </StyleMap>
    <Style id="icon-1532-F57C00-normal">
      <IconStyle>
        <color>ff007cf5</color>
        <scale>1</scale>
        <Icon>
          <href>https://www.gstatic.com/mapspro/images/stock/503-wht-blank_maps.png</href>
        </Icon>
      </IconStyle>
      <LabelStyle>
        <scale>0</scale>
      </LabelStyle>
    </Style>
    <Style id="icon-1532-F57C00-highlight">
      <IconStyle>
        <color>ff007cf5</color>
        <scale>1</scale>
        <Icon>
          <href>https://www.gstatic.com/mapspro/images/stock/503-wht-blank_maps.png</href>
        </Icon>
      </IconStyle>
      <LabelStyle>
        <scale>1</scale>
      </LabelStyle>
    </Style>
    <StyleMap id="icon-1532-F57C00">
      <Pair>
        <key>normal</key>
        <styleUrl>#icon-1532-F57C00-normal</styleUrl>
      </Pair>
      <Pair>
        <key>highlight</key>
        <styleUrl>#icon-1532-F57C00-highlight</styleUrl>
      </Pair>
    </StyleMap>
    <Style id="icon-1600-000000-normal">
      <IconStyle>
        <color>ff000000</color>
        <scale>1</scale>
        <Icon>
          <href>https://www.gstatic.com/mapspro/images/stock/503-wht-blank_maps.png</href>
        </Icon>
      </IconStyle>
      <LabelStyle>
        <scale>0</scale>
      </LabelStyle>
    </Style>
    <Style id="icon-1600-000000-highlight">
      <IconStyle>
        <color>ff000000</color>
        <scale>1</scale>
        <Icon>
          <href>https://www.gstatic.com/mapspro/images/stock/503-wht-blank_maps.png</href>
        </Icon>
      </IconStyle>
      <LabelStyle>
        <scale>1</scale>
      </LabelStyle>
    </Style>
    <StyleMap id="icon-1600-000000">
      <Pair>
        <key>normal</key>
        <styleUrl>#icon-1600-000000-normal</styleUrl>
      </Pair>
      <Pair>
        <key>highlight</key>
        <styleUrl>#icon-1600-000000-highlight</styleUrl>
      </Pair>
    </StyleMap>
    <Style id="icon-1600-F57C00-normal">
      <IconStyle>
        <color>ff007cf5</color>
        <scale>1</scale>
        <Icon>
          <href>https://www.gstatic.com/mapspro/images/stock/503-wht-blank_maps.png</href>
        </Icon>
      </IconStyle>
      <LabelStyle>
        <scale>0</scale>
      </LabelStyle>
    </Style>
    <Style id="icon-1600-F57C00-highlight">
      <IconStyle>
        <color>ff007cf5</color>
        <scale>1</scale>
        <Icon>
          <href>https://www.gstatic.com/mapspro/images/stock/503-wht-blank_maps.png</href>
        </Icon>
      </IconStyle>
      <LabelStyle>
        <scale>1</scale>
      </LabelStyle>
    </Style>
    <StyleMap id="icon-1600-F57C00">
      <Pair>
        <key>normal</key>
        <styleUrl>#icon-1600-F57C00-normal</styleUrl>
      </Pair>
      <Pair>
        <key>highlight</key>
        <styleUrl>#icon-1600-F57C00-highlight</styleUrl>
      </Pair>
    </StyleMap>
    <Style id="icon-1626-000000-normal">
      <IconStyle>
        <color>ff000000</color>
        <scale>1</scale>
        <Icon>
          <href>https://www.gstatic.com/mapspro/images/stock/503-wht-blank_maps.png</href>
        </Icon>
      </IconStyle>
      <LabelStyle>
        <scale>0</scale>
      </LabelStyle>
    </Style>
    <Style id="icon-1626-000000-highlight">
      <IconStyle>
        <color>ff000000</color>
        <scale>1</scale>
        <Icon>
          <href>https://www.gstatic.com/mapspro/images/stock/503-wht-blank_maps.png</href>
        </Icon>
      </IconStyle>
      <LabelStyle>
        <scale>1</scale>
      </LabelStyle>
    </Style>
    <StyleMap id="icon-1626-000000">
      <Pair>
        <key>normal</key>
        <styleUrl>#icon-1626-000000-normal</styleUrl>
      </Pair>
      <Pair>
        <key>highlight</key>
        <styleUrl>#icon-1626-000000-highlight</styleUrl>
      </Pair>
    </StyleMap>
    <Style id="icon-1626-F57C00-normal">
      <IconStyle>
        <color>ff007cf5</color>
        <scale>1</scale>
        <Icon>
          <href>https://www.gstatic.com/mapspro/images/stock/503-wht-blank_maps.png</href>
        </Icon>
      </IconStyle>
      <LabelStyle>
        <scale>0</scale>
      </LabelStyle>
    </Style>
    <Style id="icon-1626-F57C00-highlight">
      <IconStyle>
        <color>ff007cf5</color>
        <scale>1</scale>
        <Icon>
          <href>https://www.gstatic.com/mapspro/images/stock/503-wht-blank_maps.png</href>
        </Icon>
      </IconStyle>
      <LabelStyle>
        <scale>1</scale>
      </LabelStyle>
    </Style>
    <StyleMap id="icon-1626-F57C00">
      <Pair>
        <key>normal</key>
        <styleUrl>#icon-1626-F57C00-normal</styleUrl>
      </Pair>
      <Pair>
        <key>highlight</key>
        <styleUrl>#icon-1626-F57C00-highlight</styleUrl>
      </Pair>
    </StyleMap>
    <Style id="icon-1720-000000-normal">
      <IconStyle>
        <color>ff000000</color>
        <scale>1</scale>
        <Icon>
          <href>https://www.gstatic.com/mapspro/images/stock/503-wht-blank_maps.png</href>
        </Icon>
      </IconStyle>
      <LabelStyle>
        <scale>0</scale>
      </LabelStyle>
    </Style>
    <Style id="icon-1720-000000-highlight">
      <IconStyle>
        <color>ff000000</color>
        <scale>1</scale>
        <Icon>
          <href>https://www.gstatic.com/mapspro/images/stock/503-wht-blank_maps.png</href>
        </Icon>
      </IconStyle>
      <LabelStyle>
        <scale>1</scale>
      </LabelStyle>
    </Style>
    <StyleMap id="icon-1720-000000">
      <Pair>
        <key>normal</key>
        <styleUrl>#icon-1720-000000-normal</styleUrl>
      </Pair>
      <Pair>
        <key>highlight</key>
        <styleUrl>#icon-1720-000000-highlight</styleUrl>
      </Pair>
    </StyleMap>
    <Style id="icon-1720-F57C00-normal">
      <IconStyle>
        <color>ff007cf5</color>
        <scale>1</scale>
        <Icon>
          <href>https://www.gstatic.com/mapspro/images/stock/503-wht-blank_maps.png</href>
        </Icon>
      </IconStyle>
      <LabelStyle>
        <scale>0</scale>
      </LabelStyle>
    </Style>
    <Style id="icon-1720-F57C00-highlight">
      <IconStyle>
        <color>ff007cf5</color>
        <scale>1</scale>
        <Icon>
          <href>https://www.gstatic.com/mapspro/images/stock/503-wht-blank_maps.png</href>
        </Icon>
      </IconStyle>
      <LabelStyle>
        <scale>1</scale>
      </LabelStyle>
    </Style>
    <StyleMap id="icon-1720-F57C00">
      <Pair>
        <key>normal</key>
        <styleUrl>#icon-1720-F57C00-normal</styleUrl>
      </Pair>
      <Pair>
        <key>highlight</key>
        <styleUrl>#icon-1720-F57C00-highlight</styleUrl>
      </Pair>
    </StyleMap>
    <Style id="icon-1726-000000-normal">
      <IconStyle>
        <color>ff000000</color>
        <scale>1</scale>
        <Icon>
          <href>https://www.gstatic.com/mapspro/images/stock/503-wht-blank_maps.png</href>
        </Icon>
      </IconStyle>
      <LabelStyle>
        <scale>0</scale>
      </LabelStyle>
    </Style>
    <Style id="icon-1726-000000-highlight">
      <IconStyle>
        <color>ff000000</color>
        <scale>1</scale>
        <Icon>
          <href>https://www.gstatic.com/mapspro/images/stock/503-wht-blank_maps.png</href>
        </Icon>
      </IconStyle>
      <LabelStyle>
        <scale>1</scale>
      </LabelStyle>
    </Style>
    <StyleMap id="icon-1726-000000">
      <Pair>
        <key>normal</key>
        <styleUrl>#icon-1726-000000-normal</styleUrl>
      </Pair>
      <Pair>
        <key>highlight</key>
        <styleUrl>#icon-1726-000000-highlight</styleUrl>
      </Pair>
    </StyleMap>
    <Style id="icon-1726-F57C00-normal">
      <IconStyle>
        <color>ff007cf5</color>
        <scale>1</scale>
        <Icon>
          <href>https://www.gstatic.com/mapspro/images/stock/503-wht-blank_maps.png</href>
        </Icon>
      </IconStyle>
      <LabelStyle>
        <scale>0</scale>
      </LabelStyle>
    </Style>
    <Style id="icon-1726-F57C00-highlight">
      <IconStyle>
        <color>ff007cf5</color>
        <scale>1</scale>
        <Icon>
          <href>https://www.gstatic.com/mapspro/images/stock/503-wht-blank_maps.png</href>
        </Icon>
      </IconStyle>
      <LabelStyle>
        <scale>1</scale>
      </LabelStyle>
    </Style>
    <StyleMap id="icon-1726-F57C00">
      <Pair>
        <key>normal</key>
        <styleUrl>#icon-1726-F57C00-normal</styleUrl>
      </Pair>
      <Pair>
        <key>highlight</key>
        <styleUrl>#icon-1726-F57C00-highlight</styleUrl>
      </Pair>
    </StyleMap>
    <Style id="line-000000-4875-nodesc-normal">
      <LineStyle>
        <color>ff000000</color>
        <width>4.875</width>
      </LineStyle>
      <BalloonStyle>
        <text><![CDATA[<h3>$[name]</h3>]]></text>
      </BalloonStyle>
    </Style>
    <Style id="line-000000-4875-nodesc-highlight">
      <LineStyle>
        <color>ff000000</color>
        <width>7.3125</width>
      </LineStyle>
      <BalloonStyle>
        <text><![CDATA[<h3>$[name]</h3>]]></text>
      </BalloonStyle>
    </Style>
    <StyleMap id="line-000000-4875-nodesc">
      <Pair>
        <key>normal</key>
        <styleUrl>#line-000000-4875-nodesc-normal</styleUrl>
      </Pair>
      <Pair>
        <key>highlight</key>
        <styleUrl>#line-000000-4875-nodesc-highlight</styleUrl>
      </Pair>
    </StyleMap>
    <Style id="line-F57C00-4681-nodesc-normal">
      <LineStyle>
        <color>ff007cf5</color>
        <width>4.681</width>
      </LineStyle>
      <BalloonStyle>
        <text><![CDATA[<h3>$[name]</h3>]]></text>
      </BalloonStyle>
    </Style>
    <Style id="line-F57C00-4681-nodesc-highlight">
      <LineStyle>
        <color>ff007cf5</color>
        <width>7.0215</width>
      </LineStyle>
      <BalloonStyle>
        <text><![CDATA[<h3>$[name]</h3>]]></text>
      </BalloonStyle>
    </Style>
    <StyleMap id="line-F57C00-4681-nodesc">
      <Pair>
        <key>normal</key>
        <styleUrl>#line-F57C00-4681-nodesc-normal</styleUrl>
      </Pair>
      <Pair>
        <key>highlight</key>
        <styleUrl>#line-F57C00-4681-nodesc-highlight</styleUrl>
      </Pair>
    </StyleMap>
    <Folder>
      <name>Маршрут туда</name>
      <Placemark>
        <name>Линия маршрута</name>
        <styleUrl>#line-F57C00-4681-nodesc</styleUrl>
        <LineString>
          <tessellate>1</tessellate>
          <coordinates>
            36.2794071,50.0347492,0
            36.2800938,50.0353694,0
            36.2828082,50.0381396,0
            36.2848467,50.0401999,0
            36.2852758,50.0406547,0
            36.2806302,50.042522,0
            36.2769181,50.0439621,0
            36.2765747,50.0441757,0
            36.2751907,50.0439276,0
            36.2749332,50.0436451,0
            36.2730664,50.041709,0
            36.2713176,50.0398968,0
            36.2691826,50.0377262,0
            36.2663931,50.0348663,0
            36.2644619,50.0328885,0
            36.2613076,50.0297182,0
            36.2582821,50.026596,0
            36.2576383,50.0269061,0
            36.254527,50.0284225,0
            36.2473601,50.0321097,0
            36.2393993,50.0358862,0
            36.2383479,50.0363273,0
            36.2369531,50.036596,0
            36.2350649,50.0371335,0
            36.2326723,50.0381258,0
            36.2317282,50.0372093,0
            36.2296468,50.0352385,0
            36.2292713,50.034887,0
            36.2285739,50.0345976,0
            36.2279087,50.0345286,0
            36.2269753,50.0347561,0
            36.226235,50.0348732,0
            36.2256449,50.0349215,0
            36.2250227,50.0349352,0
            36.2243789,50.0349352,0
            36.2237138,50.0349146,0
            36.222598,50.0347698,0
            36.2209672,50.0345424,0
            36.2195188,50.0343633,0
            36.2175554,50.0341358,0
            36.2142509,50.0337361,0
            36.2134141,50.0336121,0
            36.2125558,50.0334536,0
            36.2120515,50.0333157,0
            36.2114614,50.0330676,0
            36.2106353,50.0327162,0
            36.2098199,50.0321442,0
            36.2064725,50.0291186,0
            36.2066442,50.0290703,0
            36.2070519,50.0294494,0
          </coordinates>
        </LineString>
      </Placemark>
      <Placemark>
        <name>Остановка ул. Рудика</name>
        <description>Троллейбус -12, 55.</description>
        <styleUrl>#icon-1499-F57C00</styleUrl>
        <Point>
          <coordinates>
            36.2795559,50.0348686,0
          </coordinates>
        </Point>
      </Placemark>
      <Placemark>
        <name>Остановка ул. Старошишковская</name>
        <description>Троллейбус -12, 55.</description>
        <styleUrl>#icon-1532-F57C00</styleUrl>
        <Point>
          <coordinates>
            36.2832909,50.0385471,0
          </coordinates>
        </Point>
      </Placemark>
      <Placemark>
        <name>Остановка ХАИ
</name>
        <description>Автобус - 31, 63. Троллейбус- 12, 55.</description>
        <styleUrl>#icon-1726-F57C00</styleUrl>
        <Point>
          <coordinates>
            36.2835383,50.0414053,0
          </coordinates>
        </Point>
      </Placemark>
      <Placemark>
        <name>Остановка ул. Вадима Манько</name>
        <description>Автобус - 31, 63. Троллейбус- 12.</description>
        <styleUrl>#icon-1532-F57C00</styleUrl>
        <Point>
          <coordinates>
            36.27841,50.0435138,0
          </coordinates>
        </Point>
      </Placemark>
      <Placemark>
        <name>Остановка Лесопарк</name>
        <description>Автобус - 33, 62, 63, 96. Троллейбус- 2, 12, 55.</description>
        <styleUrl>#icon-1720-F57C00</styleUrl>
        <Point>
          <coordinates>
            36.2722087,50.041116,0
          </coordinates>
        </Point>
      </Placemark>
      <Placemark>
        <name>Остановка Мемориал Славы
</name>
        <description>Автобус - 31, 33, 62, 63, 96. Троллейбус- 2, 12, 55.</description>
        <styleUrl>#icon-1600-F57C00</styleUrl>
        <Point>
          <coordinates>
            36.2674351,50.0361613,0
          </coordinates>
        </Point>
      </Placemark>
      <Placemark>
        <name>Остановка Велоцентр
</name>
        <description>Автобус - 31, 33, 62, 63, 96. Троллейбус- 2, 12, 55.</description>
        <styleUrl>#icon-1522-F57C00</styleUrl>
        <Point>
          <coordinates>
            36.2639589,50.0324812,0
          </coordinates>
        </Point>
      </Placemark>
      <Placemark>
        <name>Остановка Сокольники 
</name>
        <description>Автобус - 33, 63. Троллейбус- 12, 40.</description>
        <styleUrl>#icon-1532-F57C00</styleUrl>
        <Point>
          <coordinates>
            36.2570495,50.0272709,0
          </coordinates>
        </Point>
      </Placemark>
      <Placemark>
        <name>Остановка ул. Балакирева</name>
        <description>Автобус-33, 63. Троллейбус-12, 18, 40.</description>
        <styleUrl>#icon-1532-F57C00</styleUrl>
        <Point>
          <coordinates>
            36.2412138,50.0351552,0
          </coordinates>
        </Point>
      </Placemark>
      <Placemark>
        <name>Остановка ул. Новопрудная 
</name>
        <description>Автобус-33, 63. Троллейбус-12, 18, 40. </description>
        <styleUrl>#icon-1532-F57C00</styleUrl>
        <Point>
          <coordinates>
            36.2354678,50.0370565,0
          </coordinates>
        </Point>
      </Placemark>
      <Placemark>
        <name>Остановка ул. Космонавтов</name>
        <description>Автобус - 33, 63. Троллейбус-12.</description>
        <styleUrl>#icon-1532-F57C00</styleUrl>
        <Point>
          <coordinates>
            36.2306827,50.0363674,0
          </coordinates>
        </Point>
      </Placemark>
      <Placemark>
        <name>Остановка Павлово Поле</name>
        <description>Автобус - 33, 63, 77. Маршрутка - 277э. Троллейбус-12.</description>
        <styleUrl>#icon-1532-F57C00</styleUrl>
        <Point>
          <coordinates>
            36.2264341,50.0349479,0
          </coordinates>
        </Point>
      </Placemark>
      <Placemark>
        <name>Станция метро 23 Августа 
</name>
        <description>Автобус - 77. Маршрутка - 277э. Троллейбус-12.</description>
        <styleUrl>#icon-1626-F57C00</styleUrl>
        <Point>
          <coordinates>
            36.2200612,50.0345757,0
          </coordinates>
        </Point>
      </Placemark>
      <Placemark>
        <name>Остановка ул. Шекспира</name>
        <description>Маршрутка - 277э. Троллейбус-12.</description>
        <styleUrl>#icon-1532-F57C00</styleUrl>
        <Point>
          <coordinates>
            36.2128345,50.0336105,0
          </coordinates>
        </Point>
      </Placemark>
    </Folder>
    <Folder>
      <name>Маршрут обратно</name>
      <Placemark>
        <name>Линия маршрута</name>
        <styleUrl>#line-000000-4875-nodesc</styleUrl>
        <LineString>
          <tessellate>1</tessellate>
          <coordinates>
            36.2070519,50.0294494,0
            36.2083021,50.0305761,0
            36.2097827,50.0319544,0
            36.2104479,50.0324369,0
            36.2110165,50.0327539,0
            36.2117997,50.0330709,0
            36.2126687,50.0333397,0
            36.2133125,50.0334637,0
            36.2151364,50.0337118,0
            36.219106,50.0342287,0
            36.2215844,50.0345319,0
            36.2235907,50.0347662,0
            36.2246207,50.0348076,0
            36.2256399,50.0348144,0
            36.2270132,50.0346422,0
            36.2282148,50.0343183,0
            36.2288478,50.0341667,0
            36.2291911,50.0342287,0
            36.2292448,50.034401,0
            36.2292662,50.0346008,0
            36.2294594,50.0348351,0
            36.2304571,50.0358412,0
            36.2317553,50.0370403,0
            36.2326995,50.0379568,0
            36.2330964,50.0377983,0
            36.2356499,50.0367853,0
            36.2364868,50.0365855,0
            36.2379459,50.0362547,0
            36.2385467,50.0360962,0
            36.2393299,50.0357792,0
            36.2415615,50.0347386,0
            36.2448445,50.0331605,0
            36.2502089,50.0305003,0
            36.2539104,50.0285911,0
            36.2583736,50.0264476,0
            36.2591997,50.0273436,0
            36.262987,50.0311619,0
            36.2655404,50.0337807,0
            36.2682656,50.0365786,0
            36.2705937,50.0389215,0
            36.2726966,50.041099,0
            36.2751857,50.0436966,0
            36.2767521,50.0439102,0
            36.2772027,50.0437931,0
            36.2798634,50.0427389,0
            36.2851206,50.0406097,0
            36.2817946,50.0372608,0
            36.2795845,50.0350143,0
            36.2793485,50.0349936,0
            36.2791124,50.0349178,0
            36.2790695,50.0347593,0
            36.2792626,50.0346835,0
            36.2794071,50.0347492,0
          </coordinates>
        </LineString>
      </Placemark>
      <Placemark>
        <name>Остановка ул. Клочковская</name>
        <description>Автобус-77. Маршрутка - 277э. Троллейбус-12.</description>
        <styleUrl>#icon-1499-000000</styleUrl>
        <Point>
          <coordinates>
            36.2068907,50.0293376,0
          </coordinates>
        </Point>
      </Placemark>
      <Placemark>
        <name>Остановка ул. Шекспира
</name>
        <description>Автобус - 77.  Маршрутка - 277э. Троллейбус-12.</description>
        <styleUrl>#icon-1532-000000</styleUrl>
        <Point>
          <coordinates>
            36.2123163,50.0331158,0
          </coordinates>
        </Point>
      </Placemark>
      <Placemark>
        <name>Станция метро 23 Августа
</name>
        <description>Автобус - 77. Маршрутка - 277э. Троллейбус-12.</description>
        <styleUrl>#icon-1626-000000</styleUrl>
        <Point>
          <coordinates>
            36.2216373,50.0344527,0
          </coordinates>
        </Point>
      </Placemark>
      <Placemark>
        <name>Остановка Павлово Поле
</name>
        <description>Автобус - 33, 63, 77. Маршрутка - 277э. Троллейбус-12.</description>
        <styleUrl>#icon-1532-000000</styleUrl>
        <Point>
          <coordinates>
            36.2251155,50.0347539,0
          </coordinates>
        </Point>
      </Placemark>
      <Placemark>
        <name>Остановка ул. Космонавтов
</name>
        <description>Автобус - 33, 63. Троллейбус-12.</description>
        <styleUrl>#icon-1532-000000</styleUrl>
        <Point>
          <coordinates>
            36.2303574,50.0355465,0
          </coordinates>
        </Point>
      </Placemark>
      <Placemark>
        <name>Остановка ул. Новопрудная
</name>
        <description>Автобус-33, 63. Троллейбус-12, 18, 40.</description>
        <styleUrl>#icon-1532-000000</styleUrl>
        <Point>
          <coordinates>
            36.2360652,50.0366077,0
          </coordinates>
        </Point>
      </Placemark>
      <Placemark>
        <name>Остановка ул. Балакирева
</name>
        <description>Автобус-33, 63. Троллейбус-12, 18, 40.</description>
        <styleUrl>#icon-1532-000000</styleUrl>
        <Point>
          <coordinates>
            36.2420519,50.0344714,0
          </coordinates>
        </Point>
      </Placemark>
      <Placemark>
        <name>Остановка Сокольники
</name>
        <description>Автобус - 31, 33, 62, 63, 96. Троллейбус- 2, 12, 55.</description>
        <styleUrl>#icon-1532-000000</styleUrl>
        <Point>
          <coordinates>
            36.2590494,50.0269034,0
          </coordinates>
        </Point>
      </Placemark>
      <Placemark>
        <name>Остановка Велоцентр
</name>
        <description>Автобус - 31, 33, 62, 63, 96. Троллейбус- 2, 12, 55.</description>
        <styleUrl>#icon-1522-000000</styleUrl>
        <Point>
          <coordinates>
            36.2637986,50.0317813,0
          </coordinates>
        </Point>
      </Placemark>
      <Placemark>
        <name>Остановка Мемориал Славы
</name>
        <description>Автобус - 31, 33, 62, 63, 96. Троллейбус- 2, 12, 55.</description>
        <styleUrl>#icon-1600-000000</styleUrl>
        <Point>
          <coordinates>
            36.26943,50.0376132,0
          </coordinates>
        </Point>
      </Placemark>
      <Placemark>
        <name>Остановка Лесопарк
</name>
        <description>Автобус - 33, 62, 63, 96. Троллейбус- 2, 12, 55.</description>
        <styleUrl>#icon-1720-000000</styleUrl>
        <Point>
          <coordinates>
            36.2730807,50.0412037,0
          </coordinates>
        </Point>
      </Placemark>
      <Placemark>
        <name>Остановка ул. Вадима Манько
</name>
        <description>Автобус - 31, 63. Троллейбус- 12.</description>
        <styleUrl>#icon-1532-000000</styleUrl>
        <Point>
          <coordinates>
            36.275782,50.0436564,0
          </coordinates>
        </Point>
      </Placemark>
      <Placemark>
        <name>Остановка ХАИ
</name>
        <description>Автобус - 31, 63. Троллейбус- 12, 55.</description>
        <styleUrl>#icon-1726-000000</styleUrl>
        <Point>
          <coordinates>
            36.2826054,50.041486,0
          </coordinates>
        </Point>
      </Placemark>
      <Placemark>
        <name>Остановка ул. Старошишковская
</name>
        <description>Автобус - 31, 63. Троллейбус- 12, 55.</description>
        <styleUrl>#icon-1532-000000</styleUrl>
        <Point>
          <coordinates>
            36.2829697,50.038492,0
          </coordinates>
        </Point>
      </Placemark>
    </Folder>
  </Document>
</kml>
