<?xml version="1.0" encoding="UTF-8"?>
<kml xmlns="http://www.opengis.net/kml/2.2">
  <Document>
    <name>Троллейбусный маршрут №24. Харьков (метро Академика Барабашова - 602 м/р)</name>
    <description>Подробно https://info.kharkov.com/-tr/tr_city/tr_city_tb/</description>
    <Style id="icon-1499-000000-normal">
      <IconStyle>
        <color>ff000000</color>
        <scale>1</scale>
        <Icon>
          <href>https://www.gstatic.com/mapspro/images/stock/503-wht-blank_maps.png</href>
        </Icon>
      </IconStyle>
      <LabelStyle>
        <scale>0</scale>
      </LabelStyle>
    </Style>
    <Style id="icon-1499-000000-highlight">
      <IconStyle>
        <color>ff000000</color>
        <scale>1</scale>
        <Icon>
          <href>https://www.gstatic.com/mapspro/images/stock/503-wht-blank_maps.png</href>
        </Icon>
      </IconStyle>
      <LabelStyle>
        <scale>1</scale>
      </LabelStyle>
    </Style>
    <StyleMap id="icon-1499-000000">
      <Pair>
        <key>normal</key>
        <styleUrl>#icon-1499-000000-normal</styleUrl>
      </Pair>
      <Pair>
        <key>highlight</key>
        <styleUrl>#icon-1499-000000-highlight</styleUrl>
      </Pair>
    </StyleMap>
    <Style id="icon-1499-F57C00-normal">
      <IconStyle>
        <color>ff007cf5</color>
        <scale>1</scale>
        <Icon>
          <href>https://www.gstatic.com/mapspro/images/stock/503-wht-blank_maps.png</href>
        </Icon>
      </IconStyle>
      <LabelStyle>
        <scale>0</scale>
      </LabelStyle>
    </Style>
    <Style id="icon-1499-F57C00-highlight">
      <IconStyle>
        <color>ff007cf5</color>
        <scale>1</scale>
        <Icon>
          <href>https://www.gstatic.com/mapspro/images/stock/503-wht-blank_maps.png</href>
        </Icon>
      </IconStyle>
      <LabelStyle>
        <scale>1</scale>
      </LabelStyle>
    </Style>
    <StyleMap id="icon-1499-F57C00">
      <Pair>
        <key>normal</key>
        <styleUrl>#icon-1499-F57C00-normal</styleUrl>
      </Pair>
      <Pair>
        <key>highlight</key>
        <styleUrl>#icon-1499-F57C00-highlight</styleUrl>
      </Pair>
    </StyleMap>
    <Style id="icon-1532-000000-normal">
      <IconStyle>
        <color>ff000000</color>
        <scale>1</scale>
        <Icon>
          <href>https://www.gstatic.com/mapspro/images/stock/503-wht-blank_maps.png</href>
        </Icon>
      </IconStyle>
      <LabelStyle>
        <scale>0</scale>
      </LabelStyle>
    </Style>
    <Style id="icon-1532-000000-highlight">
      <IconStyle>
        <color>ff000000</color>
        <scale>1</scale>
        <Icon>
          <href>https://www.gstatic.com/mapspro/images/stock/503-wht-blank_maps.png</href>
        </Icon>
      </IconStyle>
      <LabelStyle>
        <scale>1</scale>
      </LabelStyle>
    </Style>
    <StyleMap id="icon-1532-000000">
      <Pair>
        <key>normal</key>
        <styleUrl>#icon-1532-000000-normal</styleUrl>
      </Pair>
      <Pair>
        <key>highlight</key>
        <styleUrl>#icon-1532-000000-highlight</styleUrl>
      </Pair>
    </StyleMap>
    <Style id="icon-1532-F57C00-normal">
      <IconStyle>
        <color>ff007cf5</color>
        <scale>1</scale>
        <Icon>
          <href>https://www.gstatic.com/mapspro/images/stock/503-wht-blank_maps.png</href>
        </Icon>
      </IconStyle>
      <LabelStyle>
        <scale>0</scale>
      </LabelStyle>
    </Style>
    <Style id="icon-1532-F57C00-highlight">
      <IconStyle>
        <color>ff007cf5</color>
        <scale>1</scale>
        <Icon>
          <href>https://www.gstatic.com/mapspro/images/stock/503-wht-blank_maps.png</href>
        </Icon>
      </IconStyle>
      <LabelStyle>
        <scale>1</scale>
      </LabelStyle>
    </Style>
    <StyleMap id="icon-1532-F57C00">
      <Pair>
        <key>normal</key>
        <styleUrl>#icon-1532-F57C00-normal</styleUrl>
      </Pair>
      <Pair>
        <key>highlight</key>
        <styleUrl>#icon-1532-F57C00-highlight</styleUrl>
      </Pair>
    </StyleMap>
    <Style id="icon-1546-000000-normal">
      <IconStyle>
        <color>ff000000</color>
        <scale>1</scale>
        <Icon>
          <href>https://www.gstatic.com/mapspro/images/stock/503-wht-blank_maps.png</href>
        </Icon>
      </IconStyle>
      <LabelStyle>
        <scale>0</scale>
      </LabelStyle>
    </Style>
    <Style id="icon-1546-000000-highlight">
      <IconStyle>
        <color>ff000000</color>
        <scale>1</scale>
        <Icon>
          <href>https://www.gstatic.com/mapspro/images/stock/503-wht-blank_maps.png</href>
        </Icon>
      </IconStyle>
      <LabelStyle>
        <scale>1</scale>
      </LabelStyle>
    </Style>
    <StyleMap id="icon-1546-000000">
      <Pair>
        <key>normal</key>
        <styleUrl>#icon-1546-000000-normal</styleUrl>
      </Pair>
      <Pair>
        <key>highlight</key>
        <styleUrl>#icon-1546-000000-highlight</styleUrl>
      </Pair>
    </StyleMap>
    <Style id="icon-1546-F57C00-normal">
      <IconStyle>
        <color>ff007cf5</color>
        <scale>1</scale>
        <Icon>
          <href>https://www.gstatic.com/mapspro/images/stock/503-wht-blank_maps.png</href>
        </Icon>
      </IconStyle>
      <LabelStyle>
        <scale>0</scale>
      </LabelStyle>
    </Style>
    <Style id="icon-1546-F57C00-highlight">
      <IconStyle>
        <color>ff007cf5</color>
        <scale>1</scale>
        <Icon>
          <href>https://www.gstatic.com/mapspro/images/stock/503-wht-blank_maps.png</href>
        </Icon>
      </IconStyle>
      <LabelStyle>
        <scale>1</scale>
      </LabelStyle>
    </Style>
    <StyleMap id="icon-1546-F57C00">
      <Pair>
        <key>normal</key>
        <styleUrl>#icon-1546-F57C00-normal</styleUrl>
      </Pair>
      <Pair>
        <key>highlight</key>
        <styleUrl>#icon-1546-F57C00-highlight</styleUrl>
      </Pair>
    </StyleMap>
    <Style id="icon-1619-000000-normal">
      <IconStyle>
        <color>ff000000</color>
        <scale>1</scale>
        <Icon>
          <href>https://www.gstatic.com/mapspro/images/stock/503-wht-blank_maps.png</href>
        </Icon>
      </IconStyle>
      <LabelStyle>
        <scale>0</scale>
      </LabelStyle>
    </Style>
    <Style id="icon-1619-000000-highlight">
      <IconStyle>
        <color>ff000000</color>
        <scale>1</scale>
        <Icon>
          <href>https://www.gstatic.com/mapspro/images/stock/503-wht-blank_maps.png</href>
        </Icon>
      </IconStyle>
      <LabelStyle>
        <scale>1</scale>
      </LabelStyle>
    </Style>
    <StyleMap id="icon-1619-000000">
      <Pair>
        <key>normal</key>
        <styleUrl>#icon-1619-000000-normal</styleUrl>
      </Pair>
      <Pair>
        <key>highlight</key>
        <styleUrl>#icon-1619-000000-highlight</styleUrl>
      </Pair>
    </StyleMap>
    <Style id="icon-1619-F57C00-normal">
      <IconStyle>
        <color>ff007cf5</color>
        <scale>1</scale>
        <Icon>
          <href>https://www.gstatic.com/mapspro/images/stock/503-wht-blank_maps.png</href>
        </Icon>
      </IconStyle>
      <LabelStyle>
        <scale>0</scale>
      </LabelStyle>
    </Style>
    <Style id="icon-1619-F57C00-highlight">
      <IconStyle>
        <color>ff007cf5</color>
        <scale>1</scale>
        <Icon>
          <href>https://www.gstatic.com/mapspro/images/stock/503-wht-blank_maps.png</href>
        </Icon>
      </IconStyle>
      <LabelStyle>
        <scale>1</scale>
      </LabelStyle>
    </Style>
    <StyleMap id="icon-1619-F57C00">
      <Pair>
        <key>normal</key>
        <styleUrl>#icon-1619-F57C00-normal</styleUrl>
      </Pair>
      <Pair>
        <key>highlight</key>
        <styleUrl>#icon-1619-F57C00-highlight</styleUrl>
      </Pair>
    </StyleMap>
    <Style id="icon-1624-F57C00-normal">
      <IconStyle>
        <color>ff007cf5</color>
        <scale>1</scale>
        <Icon>
          <href>https://www.gstatic.com/mapspro/images/stock/503-wht-blank_maps.png</href>
        </Icon>
      </IconStyle>
      <LabelStyle>
        <scale>0</scale>
      </LabelStyle>
    </Style>
    <Style id="icon-1624-F57C00-highlight">
      <IconStyle>
        <color>ff007cf5</color>
        <scale>1</scale>
        <Icon>
          <href>https://www.gstatic.com/mapspro/images/stock/503-wht-blank_maps.png</href>
        </Icon>
      </IconStyle>
      <LabelStyle>
        <scale>1</scale>
      </LabelStyle>
    </Style>
    <StyleMap id="icon-1624-F57C00">
      <Pair>
        <key>normal</key>
        <styleUrl>#icon-1624-F57C00-normal</styleUrl>
      </Pair>
      <Pair>
        <key>highlight</key>
        <styleUrl>#icon-1624-F57C00-highlight</styleUrl>
      </Pair>
    </StyleMap>
    <Style id="icon-1883-000000-normal">
      <IconStyle>
        <color>ff000000</color>
        <scale>1</scale>
        <Icon>
          <href>https://www.gstatic.com/mapspro/images/stock/503-wht-blank_maps.png</href>
        </Icon>
      </IconStyle>
      <LabelStyle>
        <scale>0</scale>
      </LabelStyle>
    </Style>
    <Style id="icon-1883-000000-highlight">
      <IconStyle>
        <color>ff000000</color>
        <scale>1</scale>
        <Icon>
          <href>https://www.gstatic.com/mapspro/images/stock/503-wht-blank_maps.png</href>
        </Icon>
      </IconStyle>
      <LabelStyle>
        <scale>1</scale>
      </LabelStyle>
    </Style>
    <StyleMap id="icon-1883-000000">
      <Pair>
        <key>normal</key>
        <styleUrl>#icon-1883-000000-normal</styleUrl>
      </Pair>
      <Pair>
        <key>highlight</key>
        <styleUrl>#icon-1883-000000-highlight</styleUrl>
      </Pair>
    </StyleMap>
    <Style id="icon-1883-F57C00-normal">
      <IconStyle>
        <color>ff007cf5</color>
        <scale>1</scale>
        <Icon>
          <href>https://www.gstatic.com/mapspro/images/stock/503-wht-blank_maps.png</href>
        </Icon>
      </IconStyle>
      <LabelStyle>
        <scale>0</scale>
      </LabelStyle>
    </Style>
    <Style id="icon-1883-F57C00-highlight">
      <IconStyle>
        <color>ff007cf5</color>
        <scale>1</scale>
        <Icon>
          <href>https://www.gstatic.com/mapspro/images/stock/503-wht-blank_maps.png</href>
        </Icon>
      </IconStyle>
      <LabelStyle>
        <scale>1</scale>
      </LabelStyle>
    </Style>
    <StyleMap id="icon-1883-F57C00">
      <Pair>
        <key>normal</key>
        <styleUrl>#icon-1883-F57C00-normal</styleUrl>
      </Pair>
      <Pair>
        <key>highlight</key>
        <styleUrl>#icon-1883-F57C00-highlight</styleUrl>
      </Pair>
    </StyleMap>
    <Style id="line-000000-4875-nodesc-normal">
      <LineStyle>
        <color>ff000000</color>
        <width>4.875</width>
      </LineStyle>
      <BalloonStyle>
        <text><![CDATA[<h3>$[name]</h3>]]></text>
      </BalloonStyle>
    </Style>
    <Style id="line-000000-4875-nodesc-highlight">
      <LineStyle>
        <color>ff000000</color>
        <width>7.3125</width>
      </LineStyle>
      <BalloonStyle>
        <text><![CDATA[<h3>$[name]</h3>]]></text>
      </BalloonStyle>
    </Style>
    <StyleMap id="line-000000-4875-nodesc">
      <Pair>
        <key>normal</key>
        <styleUrl>#line-000000-4875-nodesc-normal</styleUrl>
      </Pair>
      <Pair>
        <key>highlight</key>
        <styleUrl>#line-000000-4875-nodesc-highlight</styleUrl>
      </Pair>
    </StyleMap>
    <Style id="line-F57C00-5456-nodesc-normal">
      <LineStyle>
        <color>ff007cf5</color>
        <width>5.456</width>
      </LineStyle>
      <BalloonStyle>
        <text><![CDATA[<h3>$[name]</h3>]]></text>
      </BalloonStyle>
    </Style>
    <Style id="line-F57C00-5456-nodesc-highlight">
      <LineStyle>
        <color>ff007cf5</color>
        <width>8.184</width>
      </LineStyle>
      <BalloonStyle>
        <text><![CDATA[<h3>$[name]</h3>]]></text>
      </BalloonStyle>
    </Style>
    <StyleMap id="line-F57C00-5456-nodesc">
      <Pair>
        <key>normal</key>
        <styleUrl>#line-F57C00-5456-nodesc-normal</styleUrl>
      </Pair>
      <Pair>
        <key>highlight</key>
        <styleUrl>#line-F57C00-5456-nodesc-highlight</styleUrl>
      </Pair>
    </StyleMap>
    <Folder>
      <name>Маршрут туда</name>
      <Placemark>
        <name>Линия маршрута</name>
        <styleUrl>#line-F57C00-5456-nodesc</styleUrl>
        <LineString>
          <tessellate>1</tessellate>
          <coordinates>
            36.3049037,50.0020347,0
            36.3052857,50.0023181,0
            36.3057578,50.0022836,0
            36.3062942,50.0022078,0
            36.3070238,50.0020423,0
            36.307807,50.0017181,0
            36.3108647,50.0004492,0
            36.3152528,49.9985527,0
            36.3157249,49.9983734,0
            36.3161326,49.9983596,0
            36.3175166,49.9982355,0
            36.3243509,49.9977182,0
            36.3276554,49.99747,0
            36.3325584,49.9970975,0
            36.3355196,49.9968699,0
            36.3399828,49.9965251,0
            36.3407553,49.9965113,0
            36.3412595,49.9965182,0
            36.3433516,49.9964768,0
            36.3458515,49.9964768,0
            36.3470102,49.9964216,0
            36.3484049,49.9963803,0
            36.3511193,49.9961665,0
            36.3517309,49.996063,0
            36.3530291,49.9958147,0
            36.3546277,49.9954354,0
            36.3560439,49.9949595,0
            36.3569344,49.994525,0
            36.3575244,49.9941939,0
            36.358136,49.9938283,0
            36.3589085,49.9932145,0
            36.3594878,49.99278,0
            36.3595629,49.9925041,0
            36.3595951,49.9921109,0
            36.359756,49.9919109,0
            36.3600135,49.9918281,0
            36.3603676,49.9918281,0
            36.3606143,49.9919109,0
            36.3607109,49.9919867,0
            36.3606293,49.9920413,0
          </coordinates>
        </LineString>
      </Placemark>
      <Placemark>
        <name>Станция метро Академика Барабашова
</name>
        <description>Троллейбус-24.</description>
        <styleUrl>#icon-1499-F57C00</styleUrl>
        <Point>
          <coordinates>
            36.3046915,50.0019107,0
          </coordinates>
        </Point>
      </Placemark>
      <Placemark>
        <name>Остановка пр. Юбилейный
</name>
        <description>Автобус- 81, 83. Маршрутка 38э, 121э, 259э. Троллейбус - 19, 20, 24, 31, 35, 56.</description>
        <styleUrl>#icon-1532-F57C00</styleUrl>
        <Point>
          <coordinates>
            36.3169618,49.9981041,0
          </coordinates>
        </Point>
      </Placemark>
      <Placemark>
        <name>Остановка ул. Гвардейцев Широнинцев
</name>
        <description>Автобус- 81, 83. Маршрутка 38э, 121э. Троллейбус - 19, 20, 24.</description>
        <styleUrl>#icon-1532-F57C00</styleUrl>
        <Point>
          <coordinates>
            36.3296969,49.9971955,0
          </coordinates>
        </Point>
      </Placemark>
      <Placemark>
        <name>Остановка 6 поликлиника 
</name>
        <description>Автобус- 81, 83. Маршрутка 38э, 121э. Троллейбус - 19, 20, 24.</description>
        <styleUrl>#icon-1624-F57C00</styleUrl>
        <Point>
          <coordinates>
            36.3359318,49.9967456,0
          </coordinates>
        </Point>
      </Placemark>
      <Placemark>
        <name>Остановка пр. Трактростроителей
</name>
        <description>Автобус- 81, 83. Маршрутка 38э, 121э. Троллейбус - 19, 20, 24.</description>
        <styleUrl>#icon-1883-F57C00</styleUrl>
        <Point>
          <coordinates>
            36.341421,49.9963852,0
          </coordinates>
        </Point>
      </Placemark>
      <Placemark>
        <name>Остановка ул. Познанская
</name>
        <description>Автобус- 63, 81,. Маршрутка 38э. Троллейбус - 19, 20, 24.</description>
        <styleUrl>#icon-1532-F57C00</styleUrl>
        <Point>
          <coordinates>
            36.3518303,49.9959865,0
          </coordinates>
        </Point>
      </Placemark>
      <Placemark>
        <name>Остановка Салтовский РЭМ
</name>
        <description>Автобус- 63, 81,. Маршрутка 38э. Троллейбус - 19, 20, 24.</description>
        <styleUrl>#icon-1619-F57C00</styleUrl>
        <Point>
          <coordinates>
            36.3569386,49.9944312,0
          </coordinates>
        </Point>
      </Placemark>
      <Placemark>
        <name>Остановка 602 м/р
</name>
        <description>Троллейбус - 19, 20, 24.</description>
        <styleUrl>#icon-1546-F57C00</styleUrl>
        <Point>
          <coordinates>
            36.3594706,49.9921034,0
          </coordinates>
        </Point>
      </Placemark>
    </Folder>
    <Folder>
      <name>Маршрут обратно</name>
      <Placemark>
        <name>Линия маршрута</name>
        <styleUrl>#line-000000-4875-nodesc</styleUrl>
        <LineString>
          <tessellate>1</tessellate>
          <coordinates>
            36.3606293,49.9920413,0
            36.3598139,49.992731,0
            36.3584192,49.993807,0
            36.3573248,49.994476,0
            36.3564665,49.9949381,0
            36.3558764,49.9951864,0
            36.3551469,49.9954071,0
            36.3542671,49.9956761,0
            36.3533659,49.9958899,0
            36.352529,49.9960624,0
            36.351542,49.9962279,0
            36.3504477,49.9963658,0
            36.3498147,49.996421,0
            36.3485701,49.9964969,0
            36.3471432,49.9965589,0
            36.3460059,49.9966279,0
            36.3450403,49.996621,0
            36.3442249,49.9966072,0
            36.3430233,49.9966279,0
            36.3402338,49.9966279,0
            36.3396974,49.9966624,0
            36.3363714,49.9969107,0
            36.3296444,49.9974141,0
            36.3248594,49.9978072,0
            36.3207824,49.9980969,0
            36.3157935,49.9984969,0
            36.3153965,49.998621,0
            36.3115234,50.0003038,0
            36.3077898,50.001883,0
            36.3071461,50.0020899,0
            36.306674,50.0022416,0
            36.3055582,50.0023657,0
            36.3046463,50.0023726,0
            36.3032515,50.0022968,0
            36.3033051,50.0021795,0
            36.3036592,50.0019589,0
            36.3039918,50.0018761,0
            36.3042386,50.0018692,0
            36.3045819,50.0018899,0
            36.3049037,50.0020347,0
          </coordinates>
        </LineString>
      </Placemark>
      <Placemark>
        <name>Остановка 602 микрорайон
</name>
        <description>Троллейбус-19, 20, 24.</description>
        <styleUrl>#icon-1499-000000</styleUrl>
        <Point>
          <coordinates>
            36.3602662,49.9924482,0
          </coordinates>
        </Point>
      </Placemark>
      <Placemark>
        <name>Остановка Салтовский РЭМ
</name>
        <description>Автобус- 63, 81,. Маршрутка 38э. Троллейбус - 19, 20, 24.</description>
        <styleUrl>#icon-1619-000000</styleUrl>
        <Point>
          <coordinates>
            36.3565004,49.9950347,0
          </coordinates>
        </Point>
      </Placemark>
      <Placemark>
        <name>Остановка ул. Познанская 
</name>
        <description>Автобус- 63, 81,. Маршрутка 38э. Троллейбус - 19, 20, 24.</description>
        <styleUrl>#icon-1532-000000</styleUrl>
        <Point>
          <coordinates>
            36.3512156,49.9963864,0
          </coordinates>
        </Point>
      </Placemark>
      <Placemark>
        <name>Остановка пр. Тракторостроителей
</name>
        <description>Автобус- 81, 83. Маршрутка 38э, 121э. Троллейбус - 19, 20, 24.</description>
        <styleUrl>#icon-1883-000000</styleUrl>
        <Point>
          <coordinates>
            36.3393275,49.9968177,0
          </coordinates>
        </Point>
      </Placemark>
      <Placemark>
        <name>Остановка ул. Гвардейцев Широнинцев  
</name>
        <description>Автобус- 81, 83. Маршрутка 38э, 121э. Троллейбус - 19, 20, 24.</description>
        <styleUrl>#icon-1532-000000</styleUrl>
        <Point>
          <coordinates>
            36.3296429,49.9975901,0
          </coordinates>
        </Point>
      </Placemark>
      <Placemark>
        <name>Остановка пр. Льва Ландау
</name>
        <description>Автобус- 81, 83. Маршрутка 38э, 121э, 259э. Троллейбус -  24, 56, 57.</description>
        <styleUrl>#icon-1532-000000</styleUrl>
        <Point>
          <coordinates>
            36.315045,49.9988521,0
          </coordinates>
        </Point>
      </Placemark>
      <Placemark>
        <name>Остановка 603 м/р
</name>
        <description>Автобус- 63, 81,. Маршрутка 38э. Троллейбус - 19, 20, 24.</description>
        <styleUrl>#icon-1546-000000</styleUrl>
        <Point>
          <coordinates>
            36.3465601,49.9966887,0
          </coordinates>
        </Point>
      </Placemark>
    </Folder>
  </Document>
</kml>
