<?xml version="1.0" encoding="UTF-8"?>
<kml xmlns="http://www.opengis.net/kml/2.2">
  <Document>
    <name>Троллейбусный маршрут №25 Харьков (метро Дворец Спорта - бул. Богдана Хмельницкого)</name>
    <description>Подробно https://kharkiv.inform.city/-ru/-tr/tr_city/tr_city_tb/ </description>
    <Style id="icon-1499-000000-normal">
      <IconStyle>
        <color>ff000000</color>
        <scale>1</scale>
        <Icon>
          <href>https://www.gstatic.com/mapspro/images/stock/503-wht-blank_maps.png</href>
        </Icon>
      </IconStyle>
      <LabelStyle>
        <scale>0</scale>
      </LabelStyle>
    </Style>
    <Style id="icon-1499-000000-highlight">
      <IconStyle>
        <color>ff000000</color>
        <scale>1</scale>
        <Icon>
          <href>https://www.gstatic.com/mapspro/images/stock/503-wht-blank_maps.png</href>
        </Icon>
      </IconStyle>
      <LabelStyle>
        <scale>1</scale>
      </LabelStyle>
    </Style>
    <StyleMap id="icon-1499-000000">
      <Pair>
        <key>normal</key>
        <styleUrl>#icon-1499-000000-normal</styleUrl>
      </Pair>
      <Pair>
        <key>highlight</key>
        <styleUrl>#icon-1499-000000-highlight</styleUrl>
      </Pair>
    </StyleMap>
    <Style id="icon-1499-F57C00-normal">
      <IconStyle>
        <color>ff007cf5</color>
        <scale>1</scale>
        <Icon>
          <href>https://www.gstatic.com/mapspro/images/stock/503-wht-blank_maps.png</href>
        </Icon>
      </IconStyle>
      <LabelStyle>
        <scale>0</scale>
      </LabelStyle>
    </Style>
    <Style id="icon-1499-F57C00-highlight">
      <IconStyle>
        <color>ff007cf5</color>
        <scale>1</scale>
        <Icon>
          <href>https://www.gstatic.com/mapspro/images/stock/503-wht-blank_maps.png</href>
        </Icon>
      </IconStyle>
      <LabelStyle>
        <scale>1</scale>
      </LabelStyle>
    </Style>
    <StyleMap id="icon-1499-F57C00">
      <Pair>
        <key>normal</key>
        <styleUrl>#icon-1499-F57C00-normal</styleUrl>
      </Pair>
      <Pair>
        <key>highlight</key>
        <styleUrl>#icon-1499-F57C00-highlight</styleUrl>
      </Pair>
    </StyleMap>
    <Style id="icon-1520-000000-normal">
      <IconStyle>
        <color>ff000000</color>
        <scale>1</scale>
        <Icon>
          <href>https://www.gstatic.com/mapspro/images/stock/503-wht-blank_maps.png</href>
        </Icon>
      </IconStyle>
      <LabelStyle>
        <scale>0</scale>
      </LabelStyle>
    </Style>
    <Style id="icon-1520-000000-highlight">
      <IconStyle>
        <color>ff000000</color>
        <scale>1</scale>
        <Icon>
          <href>https://www.gstatic.com/mapspro/images/stock/503-wht-blank_maps.png</href>
        </Icon>
      </IconStyle>
      <LabelStyle>
        <scale>1</scale>
      </LabelStyle>
    </Style>
    <StyleMap id="icon-1520-000000">
      <Pair>
        <key>normal</key>
        <styleUrl>#icon-1520-000000-normal</styleUrl>
      </Pair>
      <Pair>
        <key>highlight</key>
        <styleUrl>#icon-1520-000000-highlight</styleUrl>
      </Pair>
    </StyleMap>
    <Style id="icon-1520-F57C00-normal">
      <IconStyle>
        <color>ff007cf5</color>
        <scale>1</scale>
        <Icon>
          <href>https://www.gstatic.com/mapspro/images/stock/503-wht-blank_maps.png</href>
        </Icon>
      </IconStyle>
      <LabelStyle>
        <scale>0</scale>
      </LabelStyle>
    </Style>
    <Style id="icon-1520-F57C00-highlight">
      <IconStyle>
        <color>ff007cf5</color>
        <scale>1</scale>
        <Icon>
          <href>https://www.gstatic.com/mapspro/images/stock/503-wht-blank_maps.png</href>
        </Icon>
      </IconStyle>
      <LabelStyle>
        <scale>1</scale>
      </LabelStyle>
    </Style>
    <StyleMap id="icon-1520-F57C00">
      <Pair>
        <key>normal</key>
        <styleUrl>#icon-1520-F57C00-normal</styleUrl>
      </Pair>
      <Pair>
        <key>highlight</key>
        <styleUrl>#icon-1520-F57C00-highlight</styleUrl>
      </Pair>
    </StyleMap>
    <Style id="icon-1532-000000-normal">
      <IconStyle>
        <color>ff000000</color>
        <scale>1</scale>
        <Icon>
          <href>https://www.gstatic.com/mapspro/images/stock/503-wht-blank_maps.png</href>
        </Icon>
      </IconStyle>
      <LabelStyle>
        <scale>0</scale>
      </LabelStyle>
    </Style>
    <Style id="icon-1532-000000-highlight">
      <IconStyle>
        <color>ff000000</color>
        <scale>1</scale>
        <Icon>
          <href>https://www.gstatic.com/mapspro/images/stock/503-wht-blank_maps.png</href>
        </Icon>
      </IconStyle>
      <LabelStyle>
        <scale>1</scale>
      </LabelStyle>
    </Style>
    <StyleMap id="icon-1532-000000">
      <Pair>
        <key>normal</key>
        <styleUrl>#icon-1532-000000-normal</styleUrl>
      </Pair>
      <Pair>
        <key>highlight</key>
        <styleUrl>#icon-1532-000000-highlight</styleUrl>
      </Pair>
    </StyleMap>
    <Style id="icon-1532-F57C00-normal">
      <IconStyle>
        <color>ff007cf5</color>
        <scale>1</scale>
        <Icon>
          <href>https://www.gstatic.com/mapspro/images/stock/503-wht-blank_maps.png</href>
        </Icon>
      </IconStyle>
      <LabelStyle>
        <scale>0</scale>
      </LabelStyle>
    </Style>
    <Style id="icon-1532-F57C00-highlight">
      <IconStyle>
        <color>ff007cf5</color>
        <scale>1</scale>
        <Icon>
          <href>https://www.gstatic.com/mapspro/images/stock/503-wht-blank_maps.png</href>
        </Icon>
      </IconStyle>
      <LabelStyle>
        <scale>1</scale>
      </LabelStyle>
    </Style>
    <StyleMap id="icon-1532-F57C00">
      <Pair>
        <key>normal</key>
        <styleUrl>#icon-1532-F57C00-normal</styleUrl>
      </Pair>
      <Pair>
        <key>highlight</key>
        <styleUrl>#icon-1532-F57C00-highlight</styleUrl>
      </Pair>
    </StyleMap>
    <Style id="icon-1626-000000-normal">
      <IconStyle>
        <color>ff000000</color>
        <scale>1</scale>
        <Icon>
          <href>https://www.gstatic.com/mapspro/images/stock/503-wht-blank_maps.png</href>
        </Icon>
      </IconStyle>
      <LabelStyle>
        <scale>0</scale>
      </LabelStyle>
    </Style>
    <Style id="icon-1626-000000-highlight">
      <IconStyle>
        <color>ff000000</color>
        <scale>1</scale>
        <Icon>
          <href>https://www.gstatic.com/mapspro/images/stock/503-wht-blank_maps.png</href>
        </Icon>
      </IconStyle>
      <LabelStyle>
        <scale>1</scale>
      </LabelStyle>
    </Style>
    <StyleMap id="icon-1626-000000">
      <Pair>
        <key>normal</key>
        <styleUrl>#icon-1626-000000-normal</styleUrl>
      </Pair>
      <Pair>
        <key>highlight</key>
        <styleUrl>#icon-1626-000000-highlight</styleUrl>
      </Pair>
    </StyleMap>
    <Style id="icon-1680-000000-normal">
      <IconStyle>
        <color>ff000000</color>
        <scale>1</scale>
        <Icon>
          <href>https://www.gstatic.com/mapspro/images/stock/503-wht-blank_maps.png</href>
        </Icon>
      </IconStyle>
      <LabelStyle>
        <scale>0</scale>
      </LabelStyle>
    </Style>
    <Style id="icon-1680-000000-highlight">
      <IconStyle>
        <color>ff000000</color>
        <scale>1</scale>
        <Icon>
          <href>https://www.gstatic.com/mapspro/images/stock/503-wht-blank_maps.png</href>
        </Icon>
      </IconStyle>
      <LabelStyle>
        <scale>1</scale>
      </LabelStyle>
    </Style>
    <StyleMap id="icon-1680-000000">
      <Pair>
        <key>normal</key>
        <styleUrl>#icon-1680-000000-normal</styleUrl>
      </Pair>
      <Pair>
        <key>highlight</key>
        <styleUrl>#icon-1680-000000-highlight</styleUrl>
      </Pair>
    </StyleMap>
    <Style id="icon-1680-F57C00-normal">
      <IconStyle>
        <color>ff007cf5</color>
        <scale>1</scale>
        <Icon>
          <href>https://www.gstatic.com/mapspro/images/stock/503-wht-blank_maps.png</href>
        </Icon>
      </IconStyle>
      <LabelStyle>
        <scale>0</scale>
      </LabelStyle>
    </Style>
    <Style id="icon-1680-F57C00-highlight">
      <IconStyle>
        <color>ff007cf5</color>
        <scale>1</scale>
        <Icon>
          <href>https://www.gstatic.com/mapspro/images/stock/503-wht-blank_maps.png</href>
        </Icon>
      </IconStyle>
      <LabelStyle>
        <scale>1</scale>
      </LabelStyle>
    </Style>
    <StyleMap id="icon-1680-F57C00">
      <Pair>
        <key>normal</key>
        <styleUrl>#icon-1680-F57C00-normal</styleUrl>
      </Pair>
      <Pair>
        <key>highlight</key>
        <styleUrl>#icon-1680-F57C00-highlight</styleUrl>
      </Pair>
    </StyleMap>
    <Style id="icon-1768-000000-normal">
      <IconStyle>
        <color>ff000000</color>
        <scale>1</scale>
        <Icon>
          <href>https://www.gstatic.com/mapspro/images/stock/503-wht-blank_maps.png</href>
        </Icon>
      </IconStyle>
      <LabelStyle>
        <scale>0</scale>
      </LabelStyle>
    </Style>
    <Style id="icon-1768-000000-highlight">
      <IconStyle>
        <color>ff000000</color>
        <scale>1</scale>
        <Icon>
          <href>https://www.gstatic.com/mapspro/images/stock/503-wht-blank_maps.png</href>
        </Icon>
      </IconStyle>
      <LabelStyle>
        <scale>1</scale>
      </LabelStyle>
    </Style>
    <StyleMap id="icon-1768-000000">
      <Pair>
        <key>normal</key>
        <styleUrl>#icon-1768-000000-normal</styleUrl>
      </Pair>
      <Pair>
        <key>highlight</key>
        <styleUrl>#icon-1768-000000-highlight</styleUrl>
      </Pair>
    </StyleMap>
    <Style id="icon-1768-F57C00-normal">
      <IconStyle>
        <color>ff007cf5</color>
        <scale>1</scale>
        <Icon>
          <href>https://www.gstatic.com/mapspro/images/stock/503-wht-blank_maps.png</href>
        </Icon>
      </IconStyle>
      <LabelStyle>
        <scale>0</scale>
      </LabelStyle>
    </Style>
    <Style id="icon-1768-F57C00-highlight">
      <IconStyle>
        <color>ff007cf5</color>
        <scale>1</scale>
        <Icon>
          <href>https://www.gstatic.com/mapspro/images/stock/503-wht-blank_maps.png</href>
        </Icon>
      </IconStyle>
      <LabelStyle>
        <scale>1</scale>
      </LabelStyle>
    </Style>
    <StyleMap id="icon-1768-F57C00">
      <Pair>
        <key>normal</key>
        <styleUrl>#icon-1768-F57C00-normal</styleUrl>
      </Pair>
      <Pair>
        <key>highlight</key>
        <styleUrl>#icon-1768-F57C00-highlight</styleUrl>
      </Pair>
    </StyleMap>
    <Style id="line-000000-5263-nodesc-normal">
      <LineStyle>
        <color>ff000000</color>
        <width>5.263</width>
      </LineStyle>
      <BalloonStyle>
        <text><![CDATA[<h3>$[name]</h3>]]></text>
      </BalloonStyle>
    </Style>
    <Style id="line-000000-5263-nodesc-highlight">
      <LineStyle>
        <color>ff000000</color>
        <width>7.8945</width>
      </LineStyle>
      <BalloonStyle>
        <text><![CDATA[<h3>$[name]</h3>]]></text>
      </BalloonStyle>
    </Style>
    <StyleMap id="line-000000-5263-nodesc">
      <Pair>
        <key>normal</key>
        <styleUrl>#line-000000-5263-nodesc-normal</styleUrl>
      </Pair>
      <Pair>
        <key>highlight</key>
        <styleUrl>#line-000000-5263-nodesc-highlight</styleUrl>
      </Pair>
    </StyleMap>
    <Style id="line-F57C00-5069-nodesc-normal">
      <LineStyle>
        <color>ff007cf5</color>
        <width>5.069</width>
      </LineStyle>
      <BalloonStyle>
        <text><![CDATA[<h3>$[name]</h3>]]></text>
      </BalloonStyle>
    </Style>
    <Style id="line-F57C00-5069-nodesc-highlight">
      <LineStyle>
        <color>ff007cf5</color>
        <width>7.6035</width>
      </LineStyle>
      <BalloonStyle>
        <text><![CDATA[<h3>$[name]</h3>]]></text>
      </BalloonStyle>
    </Style>
    <StyleMap id="line-F57C00-5069-nodesc">
      <Pair>
        <key>normal</key>
        <styleUrl>#line-F57C00-5069-nodesc-normal</styleUrl>
      </Pair>
      <Pair>
        <key>highlight</key>
        <styleUrl>#line-F57C00-5069-nodesc-highlight</styleUrl>
      </Pair>
    </StyleMap>
    <Folder>
      <name>Маршрут туда </name>
      <Placemark>
        <name>Линия маршрута</name>
        <styleUrl>#line-F57C00-5069-nodesc</styleUrl>
        <LineString>
          <tessellate>1</tessellate>
          <coordinates>
            36.3200282,49.9644718,0
            36.3182686,49.9605171,0
            36.3165306,49.9566863,0
            36.3162194,49.955927,0
            36.3175069,49.9556716,0
            36.3236116,49.9546155,0
            36.3262187,49.954153,0
            36.332023,49.9530968,0
            36.3325487,49.9530347,0
            36.3327311,49.9530692,0
            36.3330101,49.9531382,0
            36.3340186,49.9531382,0
            36.3364647,49.9532142,0
            36.3434278,49.9534351,0
            36.348878,49.9537043,0
            36.350026,49.9565413,0
            36.35141,49.9596405,0
            36.3509165,49.9597233,0
            36.3504444,49.9585707,0
          </coordinates>
        </LineString>
      </Placemark>
      <Placemark>
        <name>Станция метро Дворец Спорта
</name>
        <description>Троллейбус - 1, 25.</description>
        <styleUrl>#icon-1499-F57C00</styleUrl>
        <Point>
          <coordinates>
            36.3199999,49.9645857,0
          </coordinates>
        </Point>
      </Placemark>
      <Placemark>
        <name>Остановка Дворец спорта
</name>
        <description>Троллейбус - 1, 25.</description>
        <styleUrl>#icon-1520-F57C00</styleUrl>
        <Point>
          <coordinates>
            36.3182694,49.9609101,0
          </coordinates>
        </Point>
      </Placemark>
      <Placemark>
        <name>Остановка ул. Олимпийская
</name>
        <description>Троллейбус- 1, 25.</description>
        <styleUrl>#icon-1532-F57C00</styleUrl>
        <Point>
          <coordinates>
            36.3167134,49.9572886,0
          </coordinates>
        </Point>
      </Placemark>
      <Placemark>
        <name>Остановка
ул. Каденюка
</name>
        <description>Троллейбус-25. </description>
        <styleUrl>#icon-1532-F57C00</styleUrl>
        <Point>
          <coordinates>
            36.3171461,49.9557166,0
          </coordinates>
        </Point>
      </Placemark>
      <Placemark>
        <name>Станция юных туристов</name>
        <description>Троллейбус-25.</description>
        <styleUrl>#icon-1768-F57C00</styleUrl>
        <Point>
          <coordinates>
            36.3243022,49.9544533,0
          </coordinates>
        </Point>
      </Placemark>
      <Placemark>
        <name>Остановка ул. Харьковских Дивизий</name>
        <description>Троллейбус-25.</description>
        <styleUrl>#icon-1532-F57C00</styleUrl>
        <Point>
          <coordinates>
            36.3306537,49.9533351,0
          </coordinates>
        </Point>
      </Placemark>
      <Placemark>
        <name>Остановка ул. Ощепкова</name>
        <description>Троллейбус- 25.</description>
        <styleUrl>#icon-1532-F57C00</styleUrl>
        <Point>
          <coordinates>
            36.3399877,49.9533005,0
          </coordinates>
        </Point>
      </Placemark>
      <Placemark>
        <name>Остановка ул. Академика Филиппова</name>
        <description>Троллейбус-7, 25.</description>
        <styleUrl>#icon-1532-F57C00</styleUrl>
        <Point>
          <coordinates>
            36.3471854,49.9535628,0
          </coordinates>
        </Point>
      </Placemark>
      <Placemark>
        <name>Остановка Спорткомплекс ХТЗ</name>
        <description>Троллейбус-25.</description>
        <styleUrl>#icon-1680-F57C00</styleUrl>
        <Point>
          <coordinates>
            36.34967,49.9554045,0
          </coordinates>
        </Point>
      </Placemark>
      <Placemark>
        <name>Остановка бул. Богдана Хмельницкого
</name>
        <description>Троллейбус-7, 25.</description>
        <styleUrl>#icon-1532-F57C00</styleUrl>
        <Point>
          <coordinates>
            36.3513021,49.9592076,0
          </coordinates>
        </Point>
      </Placemark>
    </Folder>
    <Folder>
      <name>Маршрут обратно</name>
      <Placemark>
        <name>Линия маршрута</name>
        <styleUrl>#line-000000-5263-nodesc</styleUrl>
        <LineString>
          <tessellate>1</tessellate>
          <coordinates>
            36.3504444,49.9585707,0
            36.3501231,49.9577655,0
            36.3484173,49.9537619,0
            36.3454454,49.9536377,0
            36.3394801,49.9534168,0
            36.3374524,49.9533823,0
            36.3331072,49.953258,0
            36.33256,49.9531407,0
            36.3296525,49.9536446,0
            36.3198142,49.955391,0
            36.3164239,49.9560123,0
            36.3185804,49.9608853,0
            36.3204043,49.9648538,0
            36.3192777,49.9650263,0
            36.3191812,49.9648607,0
            36.3192026,49.9647779,0
            36.3193743,49.9647365,0
            36.3194816,49.9647641,0
            36.3197069,49.9649021,0
            36.3201897,49.9648193,0
            36.3200282,49.9644718,0
          </coordinates>
        </LineString>
      </Placemark>
      <Placemark>
        <name>Остановка бул. Богдана Хмельницкого</name>
        <description>Троллейбус-7, 25.</description>
        <styleUrl>#icon-1499-000000</styleUrl>
        <Point>
          <coordinates>
            36.3503782,49.9584519,0
          </coordinates>
        </Point>
      </Placemark>
      <Placemark>
        <name>Остановка Спорткомплекс ХТЗ
</name>
        <description>Троллейбус-7, 25.</description>
        <styleUrl>#icon-1680-000000</styleUrl>
        <Point>
          <coordinates>
            36.3489553,49.9551783,0
          </coordinates>
        </Point>
      </Placemark>
      <Placemark>
        <name>Остановка ул. Академика Филлипова
</name>
        <description>Троллейбус-7, 25.</description>
        <styleUrl>#icon-1532-000000</styleUrl>
        <Point>
          <coordinates>
            36.3461101,49.9536343,0
          </coordinates>
        </Point>
      </Placemark>
      <Placemark>
        <name>Остановка ул. Ощепкова
</name>
        <description>Троллейбус- 25.</description>
        <styleUrl>#icon-1532-000000</styleUrl>
        <Point>
          <coordinates>
            36.3388362,49.953441,0
          </coordinates>
        </Point>
      </Placemark>
      <Placemark>
        <name>Остановка ул. Харьковских Дивизий
</name>
        <description>Троллейбус- 25.</description>
        <styleUrl>#icon-1532-000000</styleUrl>
        <Point>
          <coordinates>
            36.3291678,49.9537665,0
          </coordinates>
        </Point>
      </Placemark>
      <Placemark>
        <name>Станция юных туристов
</name>
        <description>Троллейбус- 25.</description>
        <styleUrl>#icon-1768-000000</styleUrl>
        <Point>
          <coordinates>
            36.3238034,49.9546363,0
          </coordinates>
        </Point>
      </Placemark>
      <Placemark>
        <name>Остановка ул. Каденюка
</name>
        <description>Троллейбус- 1, 25.</description>
        <styleUrl>#icon-1532-000000</styleUrl>
        <Point>
          <coordinates>
            36.3167372,49.9564681,0
          </coordinates>
        </Point>
      </Placemark>
      <Placemark>
        <name>Остановка Дворец Спорта
</name>
        <description>Троллейбус- 1, 25.</description>
        <styleUrl>#icon-1520-000000</styleUrl>
        <Point>
          <coordinates>
            36.3189925,49.9615206,0
          </coordinates>
        </Point>
      </Placemark>
      <Placemark>
        <name>Станция метро Дворец Спорта
</name>
        <description>Троллейбус- 1, 25.</description>
        <styleUrl>#icon-1626-000000</styleUrl>
        <Point>
          <coordinates>
            36.3199316,49.9649687,0
          </coordinates>
        </Point>
      </Placemark>
    </Folder>
  </Document>
</kml>
