<?xml version="1.0" encoding="UTF-8"?>
<kml xmlns="http://www.opengis.net/kml/2.2">
  <Document>
    <name>Троллейбусный маршрут №55 Харьков (м. Площадь Конституции - пр. Жуковского)</name>
    <description><![CDATA[Подробно https://kharkiv.inform.city/-ru/-tr/tr_city/tr_city_tb/<br> ]]></description>
    <Style id="icon-1499-000000-normal">
      <IconStyle>
        <color>ff000000</color>
        <scale>1</scale>
        <Icon>
          <href>https://www.gstatic.com/mapspro/images/stock/503-wht-blank_maps.png</href>
        </Icon>
      </IconStyle>
      <LabelStyle>
        <scale>0</scale>
      </LabelStyle>
    </Style>
    <Style id="icon-1499-000000-highlight">
      <IconStyle>
        <color>ff000000</color>
        <scale>1</scale>
        <Icon>
          <href>https://www.gstatic.com/mapspro/images/stock/503-wht-blank_maps.png</href>
        </Icon>
      </IconStyle>
      <LabelStyle>
        <scale>1</scale>
      </LabelStyle>
    </Style>
    <StyleMap id="icon-1499-000000">
      <Pair>
        <key>normal</key>
        <styleUrl>#icon-1499-000000-normal</styleUrl>
      </Pair>
      <Pair>
        <key>highlight</key>
        <styleUrl>#icon-1499-000000-highlight</styleUrl>
      </Pair>
    </StyleMap>
    <Style id="icon-1499-F57C00-normal">
      <IconStyle>
        <color>ff007cf5</color>
        <scale>1</scale>
        <Icon>
          <href>https://www.gstatic.com/mapspro/images/stock/503-wht-blank_maps.png</href>
        </Icon>
      </IconStyle>
      <LabelStyle>
        <scale>0</scale>
      </LabelStyle>
    </Style>
    <Style id="icon-1499-F57C00-highlight">
      <IconStyle>
        <color>ff007cf5</color>
        <scale>1</scale>
        <Icon>
          <href>https://www.gstatic.com/mapspro/images/stock/503-wht-blank_maps.png</href>
        </Icon>
      </IconStyle>
      <LabelStyle>
        <scale>1</scale>
      </LabelStyle>
    </Style>
    <StyleMap id="icon-1499-F57C00">
      <Pair>
        <key>normal</key>
        <styleUrl>#icon-1499-F57C00-normal</styleUrl>
      </Pair>
      <Pair>
        <key>highlight</key>
        <styleUrl>#icon-1499-F57C00-highlight</styleUrl>
      </Pair>
    </StyleMap>
    <Style id="icon-1522-000000-normal">
      <IconStyle>
        <color>ff000000</color>
        <scale>1</scale>
        <Icon>
          <href>https://www.gstatic.com/mapspro/images/stock/503-wht-blank_maps.png</href>
        </Icon>
      </IconStyle>
      <LabelStyle>
        <scale>0</scale>
      </LabelStyle>
    </Style>
    <Style id="icon-1522-000000-highlight">
      <IconStyle>
        <color>ff000000</color>
        <scale>1</scale>
        <Icon>
          <href>https://www.gstatic.com/mapspro/images/stock/503-wht-blank_maps.png</href>
        </Icon>
      </IconStyle>
      <LabelStyle>
        <scale>1</scale>
      </LabelStyle>
    </Style>
    <StyleMap id="icon-1522-000000">
      <Pair>
        <key>normal</key>
        <styleUrl>#icon-1522-000000-normal</styleUrl>
      </Pair>
      <Pair>
        <key>highlight</key>
        <styleUrl>#icon-1522-000000-highlight</styleUrl>
      </Pair>
    </StyleMap>
    <Style id="icon-1522-F57C00-normal">
      <IconStyle>
        <color>ff007cf5</color>
        <scale>1</scale>
        <Icon>
          <href>https://www.gstatic.com/mapspro/images/stock/503-wht-blank_maps.png</href>
        </Icon>
      </IconStyle>
      <LabelStyle>
        <scale>0</scale>
      </LabelStyle>
    </Style>
    <Style id="icon-1522-F57C00-highlight">
      <IconStyle>
        <color>ff007cf5</color>
        <scale>1</scale>
        <Icon>
          <href>https://www.gstatic.com/mapspro/images/stock/503-wht-blank_maps.png</href>
        </Icon>
      </IconStyle>
      <LabelStyle>
        <scale>1</scale>
      </LabelStyle>
    </Style>
    <StyleMap id="icon-1522-F57C00">
      <Pair>
        <key>normal</key>
        <styleUrl>#icon-1522-F57C00-normal</styleUrl>
      </Pair>
      <Pair>
        <key>highlight</key>
        <styleUrl>#icon-1522-F57C00-highlight</styleUrl>
      </Pair>
    </StyleMap>
    <Style id="icon-1532-000000-normal">
      <IconStyle>
        <color>ff000000</color>
        <scale>1</scale>
        <Icon>
          <href>https://www.gstatic.com/mapspro/images/stock/503-wht-blank_maps.png</href>
        </Icon>
      </IconStyle>
      <LabelStyle>
        <scale>0</scale>
      </LabelStyle>
    </Style>
    <Style id="icon-1532-000000-highlight">
      <IconStyle>
        <color>ff000000</color>
        <scale>1</scale>
        <Icon>
          <href>https://www.gstatic.com/mapspro/images/stock/503-wht-blank_maps.png</href>
        </Icon>
      </IconStyle>
      <LabelStyle>
        <scale>1</scale>
      </LabelStyle>
    </Style>
    <StyleMap id="icon-1532-000000">
      <Pair>
        <key>normal</key>
        <styleUrl>#icon-1532-000000-normal</styleUrl>
      </Pair>
      <Pair>
        <key>highlight</key>
        <styleUrl>#icon-1532-000000-highlight</styleUrl>
      </Pair>
    </StyleMap>
    <Style id="icon-1532-000000-nodesc-normal">
      <IconStyle>
        <color>ff000000</color>
        <scale>1</scale>
        <Icon>
          <href>https://www.gstatic.com/mapspro/images/stock/503-wht-blank_maps.png</href>
        </Icon>
      </IconStyle>
      <LabelStyle>
        <scale>0</scale>
      </LabelStyle>
      <BalloonStyle>
        <text><![CDATA[<h3>$[name]</h3>]]></text>
      </BalloonStyle>
    </Style>
    <Style id="icon-1532-000000-nodesc-highlight">
      <IconStyle>
        <color>ff000000</color>
        <scale>1</scale>
        <Icon>
          <href>https://www.gstatic.com/mapspro/images/stock/503-wht-blank_maps.png</href>
        </Icon>
      </IconStyle>
      <LabelStyle>
        <scale>1</scale>
      </LabelStyle>
      <BalloonStyle>
        <text><![CDATA[<h3>$[name]</h3>]]></text>
      </BalloonStyle>
    </Style>
    <StyleMap id="icon-1532-000000-nodesc">
      <Pair>
        <key>normal</key>
        <styleUrl>#icon-1532-000000-nodesc-normal</styleUrl>
      </Pair>
      <Pair>
        <key>highlight</key>
        <styleUrl>#icon-1532-000000-nodesc-highlight</styleUrl>
      </Pair>
    </StyleMap>
    <Style id="icon-1532-F57C00-normal">
      <IconStyle>
        <color>ff007cf5</color>
        <scale>1</scale>
        <Icon>
          <href>https://www.gstatic.com/mapspro/images/stock/503-wht-blank_maps.png</href>
        </Icon>
      </IconStyle>
      <LabelStyle>
        <scale>0</scale>
      </LabelStyle>
    </Style>
    <Style id="icon-1532-F57C00-highlight">
      <IconStyle>
        <color>ff007cf5</color>
        <scale>1</scale>
        <Icon>
          <href>https://www.gstatic.com/mapspro/images/stock/503-wht-blank_maps.png</href>
        </Icon>
      </IconStyle>
      <LabelStyle>
        <scale>1</scale>
      </LabelStyle>
    </Style>
    <StyleMap id="icon-1532-F57C00">
      <Pair>
        <key>normal</key>
        <styleUrl>#icon-1532-F57C00-normal</styleUrl>
      </Pair>
      <Pair>
        <key>highlight</key>
        <styleUrl>#icon-1532-F57C00-highlight</styleUrl>
      </Pair>
    </StyleMap>
    <Style id="icon-1626-000000-normal">
      <IconStyle>
        <color>ff000000</color>
        <scale>1</scale>
        <Icon>
          <href>https://www.gstatic.com/mapspro/images/stock/503-wht-blank_maps.png</href>
        </Icon>
      </IconStyle>
      <LabelStyle>
        <scale>0</scale>
      </LabelStyle>
    </Style>
    <Style id="icon-1626-000000-highlight">
      <IconStyle>
        <color>ff000000</color>
        <scale>1</scale>
        <Icon>
          <href>https://www.gstatic.com/mapspro/images/stock/503-wht-blank_maps.png</href>
        </Icon>
      </IconStyle>
      <LabelStyle>
        <scale>1</scale>
      </LabelStyle>
    </Style>
    <StyleMap id="icon-1626-000000">
      <Pair>
        <key>normal</key>
        <styleUrl>#icon-1626-000000-normal</styleUrl>
      </Pair>
      <Pair>
        <key>highlight</key>
        <styleUrl>#icon-1626-000000-highlight</styleUrl>
      </Pair>
    </StyleMap>
    <Style id="icon-1626-F57C00-normal">
      <IconStyle>
        <color>ff007cf5</color>
        <scale>1</scale>
        <Icon>
          <href>https://www.gstatic.com/mapspro/images/stock/503-wht-blank_maps.png</href>
        </Icon>
      </IconStyle>
      <LabelStyle>
        <scale>0</scale>
      </LabelStyle>
    </Style>
    <Style id="icon-1626-F57C00-highlight">
      <IconStyle>
        <color>ff007cf5</color>
        <scale>1</scale>
        <Icon>
          <href>https://www.gstatic.com/mapspro/images/stock/503-wht-blank_maps.png</href>
        </Icon>
      </IconStyle>
      <LabelStyle>
        <scale>1</scale>
      </LabelStyle>
    </Style>
    <StyleMap id="icon-1626-F57C00">
      <Pair>
        <key>normal</key>
        <styleUrl>#icon-1626-F57C00-normal</styleUrl>
      </Pair>
      <Pair>
        <key>highlight</key>
        <styleUrl>#icon-1626-F57C00-highlight</styleUrl>
      </Pair>
    </StyleMap>
    <Style id="icon-1662-000000-normal">
      <IconStyle>
        <color>ff000000</color>
        <scale>1</scale>
        <Icon>
          <href>https://www.gstatic.com/mapspro/images/stock/503-wht-blank_maps.png</href>
        </Icon>
      </IconStyle>
      <LabelStyle>
        <scale>0</scale>
      </LabelStyle>
    </Style>
    <Style id="icon-1662-000000-highlight">
      <IconStyle>
        <color>ff000000</color>
        <scale>1</scale>
        <Icon>
          <href>https://www.gstatic.com/mapspro/images/stock/503-wht-blank_maps.png</href>
        </Icon>
      </IconStyle>
      <LabelStyle>
        <scale>1</scale>
      </LabelStyle>
    </Style>
    <StyleMap id="icon-1662-000000">
      <Pair>
        <key>normal</key>
        <styleUrl>#icon-1662-000000-normal</styleUrl>
      </Pair>
      <Pair>
        <key>highlight</key>
        <styleUrl>#icon-1662-000000-highlight</styleUrl>
      </Pair>
    </StyleMap>
    <Style id="icon-1662-F57C00-normal">
      <IconStyle>
        <color>ff007cf5</color>
        <scale>1</scale>
        <Icon>
          <href>https://www.gstatic.com/mapspro/images/stock/503-wht-blank_maps.png</href>
        </Icon>
      </IconStyle>
      <LabelStyle>
        <scale>0</scale>
      </LabelStyle>
    </Style>
    <Style id="icon-1662-F57C00-highlight">
      <IconStyle>
        <color>ff007cf5</color>
        <scale>1</scale>
        <Icon>
          <href>https://www.gstatic.com/mapspro/images/stock/503-wht-blank_maps.png</href>
        </Icon>
      </IconStyle>
      <LabelStyle>
        <scale>1</scale>
      </LabelStyle>
    </Style>
    <StyleMap id="icon-1662-F57C00">
      <Pair>
        <key>normal</key>
        <styleUrl>#icon-1662-F57C00-normal</styleUrl>
      </Pair>
      <Pair>
        <key>highlight</key>
        <styleUrl>#icon-1662-F57C00-highlight</styleUrl>
      </Pair>
    </StyleMap>
    <Style id="icon-1709-F57C00-normal">
      <IconStyle>
        <color>ff007cf5</color>
        <scale>1</scale>
        <Icon>
          <href>https://www.gstatic.com/mapspro/images/stock/503-wht-blank_maps.png</href>
        </Icon>
      </IconStyle>
      <LabelStyle>
        <scale>0</scale>
      </LabelStyle>
    </Style>
    <Style id="icon-1709-F57C00-highlight">
      <IconStyle>
        <color>ff007cf5</color>
        <scale>1</scale>
        <Icon>
          <href>https://www.gstatic.com/mapspro/images/stock/503-wht-blank_maps.png</href>
        </Icon>
      </IconStyle>
      <LabelStyle>
        <scale>1</scale>
      </LabelStyle>
    </Style>
    <StyleMap id="icon-1709-F57C00">
      <Pair>
        <key>normal</key>
        <styleUrl>#icon-1709-F57C00-normal</styleUrl>
      </Pair>
      <Pair>
        <key>highlight</key>
        <styleUrl>#icon-1709-F57C00-highlight</styleUrl>
      </Pair>
    </StyleMap>
    <Style id="icon-1720-000000-normal">
      <IconStyle>
        <color>ff000000</color>
        <scale>1</scale>
        <Icon>
          <href>https://www.gstatic.com/mapspro/images/stock/503-wht-blank_maps.png</href>
        </Icon>
      </IconStyle>
      <LabelStyle>
        <scale>0</scale>
      </LabelStyle>
    </Style>
    <Style id="icon-1720-000000-highlight">
      <IconStyle>
        <color>ff000000</color>
        <scale>1</scale>
        <Icon>
          <href>https://www.gstatic.com/mapspro/images/stock/503-wht-blank_maps.png</href>
        </Icon>
      </IconStyle>
      <LabelStyle>
        <scale>1</scale>
      </LabelStyle>
    </Style>
    <StyleMap id="icon-1720-000000">
      <Pair>
        <key>normal</key>
        <styleUrl>#icon-1720-000000-normal</styleUrl>
      </Pair>
      <Pair>
        <key>highlight</key>
        <styleUrl>#icon-1720-000000-highlight</styleUrl>
      </Pair>
    </StyleMap>
    <Style id="icon-1720-F57C00-normal">
      <IconStyle>
        <color>ff007cf5</color>
        <scale>1</scale>
        <Icon>
          <href>https://www.gstatic.com/mapspro/images/stock/503-wht-blank_maps.png</href>
        </Icon>
      </IconStyle>
      <LabelStyle>
        <scale>0</scale>
      </LabelStyle>
    </Style>
    <Style id="icon-1720-F57C00-highlight">
      <IconStyle>
        <color>ff007cf5</color>
        <scale>1</scale>
        <Icon>
          <href>https://www.gstatic.com/mapspro/images/stock/503-wht-blank_maps.png</href>
        </Icon>
      </IconStyle>
      <LabelStyle>
        <scale>1</scale>
      </LabelStyle>
    </Style>
    <StyleMap id="icon-1720-F57C00">
      <Pair>
        <key>normal</key>
        <styleUrl>#icon-1720-F57C00-normal</styleUrl>
      </Pair>
      <Pair>
        <key>highlight</key>
        <styleUrl>#icon-1720-F57C00-highlight</styleUrl>
      </Pair>
    </StyleMap>
    <Style id="icon-1726-000000-normal">
      <IconStyle>
        <color>ff000000</color>
        <scale>1</scale>
        <Icon>
          <href>https://www.gstatic.com/mapspro/images/stock/503-wht-blank_maps.png</href>
        </Icon>
      </IconStyle>
      <LabelStyle>
        <scale>0</scale>
      </LabelStyle>
    </Style>
    <Style id="icon-1726-000000-highlight">
      <IconStyle>
        <color>ff000000</color>
        <scale>1</scale>
        <Icon>
          <href>https://www.gstatic.com/mapspro/images/stock/503-wht-blank_maps.png</href>
        </Icon>
      </IconStyle>
      <LabelStyle>
        <scale>1</scale>
      </LabelStyle>
    </Style>
    <StyleMap id="icon-1726-000000">
      <Pair>
        <key>normal</key>
        <styleUrl>#icon-1726-000000-normal</styleUrl>
      </Pair>
      <Pair>
        <key>highlight</key>
        <styleUrl>#icon-1726-000000-highlight</styleUrl>
      </Pair>
    </StyleMap>
    <Style id="icon-1726-F57C00-normal">
      <IconStyle>
        <color>ff007cf5</color>
        <scale>1</scale>
        <Icon>
          <href>https://www.gstatic.com/mapspro/images/stock/503-wht-blank_maps.png</href>
        </Icon>
      </IconStyle>
      <LabelStyle>
        <scale>0</scale>
      </LabelStyle>
    </Style>
    <Style id="icon-1726-F57C00-highlight">
      <IconStyle>
        <color>ff007cf5</color>
        <scale>1</scale>
        <Icon>
          <href>https://www.gstatic.com/mapspro/images/stock/503-wht-blank_maps.png</href>
        </Icon>
      </IconStyle>
      <LabelStyle>
        <scale>1</scale>
      </LabelStyle>
    </Style>
    <StyleMap id="icon-1726-F57C00">
      <Pair>
        <key>normal</key>
        <styleUrl>#icon-1726-F57C00-normal</styleUrl>
      </Pair>
      <Pair>
        <key>highlight</key>
        <styleUrl>#icon-1726-F57C00-highlight</styleUrl>
      </Pair>
    </StyleMap>
    <Style id="line-000000-4875-nodesc-normal">
      <LineStyle>
        <color>ff000000</color>
        <width>4.875</width>
      </LineStyle>
      <BalloonStyle>
        <text><![CDATA[<h3>$[name]</h3>]]></text>
      </BalloonStyle>
    </Style>
    <Style id="line-000000-4875-nodesc-highlight">
      <LineStyle>
        <color>ff000000</color>
        <width>7.3125</width>
      </LineStyle>
      <BalloonStyle>
        <text><![CDATA[<h3>$[name]</h3>]]></text>
      </BalloonStyle>
    </Style>
    <StyleMap id="line-000000-4875-nodesc">
      <Pair>
        <key>normal</key>
        <styleUrl>#line-000000-4875-nodesc-normal</styleUrl>
      </Pair>
      <Pair>
        <key>highlight</key>
        <styleUrl>#line-000000-4875-nodesc-highlight</styleUrl>
      </Pair>
    </StyleMap>
    <Style id="line-F57C00-5263-nodesc-normal">
      <LineStyle>
        <color>ff007cf5</color>
        <width>5.263</width>
      </LineStyle>
      <BalloonStyle>
        <text><![CDATA[<h3>$[name]</h3>]]></text>
      </BalloonStyle>
    </Style>
    <Style id="line-F57C00-5263-nodesc-highlight">
      <LineStyle>
        <color>ff007cf5</color>
        <width>7.8945</width>
      </LineStyle>
      <BalloonStyle>
        <text><![CDATA[<h3>$[name]</h3>]]></text>
      </BalloonStyle>
    </Style>
    <StyleMap id="line-F57C00-5263-nodesc">
      <Pair>
        <key>normal</key>
        <styleUrl>#line-F57C00-5263-nodesc-normal</styleUrl>
      </Pair>
      <Pair>
        <key>highlight</key>
        <styleUrl>#line-F57C00-5263-nodesc-highlight</styleUrl>
      </Pair>
    </StyleMap>
    <Folder>
      <name>Маршрут туда</name>
      <Placemark>
        <name>Линия маршрута</name>
        <styleUrl>#line-F57C00-5263-nodesc</styleUrl>
        <LineString>
          <tessellate>1</tessellate>
          <coordinates>
            36.2302876,49.9915501,0
            36.2301803,49.991557,0
            36.229955,49.9916191,0
            36.2300409,49.9933158,0
            36.2312854,49.9931848,0
            36.2318004,49.9931848,0
            36.2321437,49.9932469,0
            36.2324549,49.9945366,0
            36.2327875,49.9954953,0
            36.2334848,49.9973299,0
            36.2341393,49.9991092,0
            36.2351049,50.0019643,0
            36.2361778,50.005164,0
            36.2364889,50.0057363,0
            36.2367786,50.0061707,0
            36.2373794,50.0070671,0
            36.2377871,50.0075498,0
            36.238066,50.0078325,0
            36.2385918,50.00826,0
            36.2400294,50.0095218,0
            36.2416173,50.0109422,0
            36.2422825,50.0115351,0
            36.2441815,50.0132036,0
            36.2456835,50.0145963,0
            36.2490416,50.0175193,0
            36.249975,50.0183328,0
            36.2531722,50.0211867,0
            36.2540198,50.0219863,0
            36.2553395,50.0233581,0
            36.2568522,50.0248814,0
            36.2582255,50.0263633,0
            36.2592662,50.0274661,0
            36.2602425,50.0284173,0
            36.2613798,50.0295752,0
            36.262914,50.031119,0
            36.2638474,50.03207,0
            36.2647808,50.0330625,0
            36.2664009,50.0347233,0
            36.2674523,50.0357708,0
            36.2681926,50.0365357,0
            36.2688578,50.0362738,0
            36.2709392,50.0354331,0
            36.2727631,50.0347026,0
            36.2734283,50.0345097,0
            36.2739969,50.0344476,0
            36.2747265,50.0344614,0
            36.2792648,50.0345028,0
            36.2795008,50.0347164,0
            36.280681,50.03595,0
            36.2836099,50.0389338,0
            36.2852944,50.0406357,0
            36.2818826,50.0420276,0
            36.2768937,50.0440464,0
            36.2766898,50.0441911,0
            36.2778164,50.0444185,0
            36.2813676,50.0451144,0
            36.285981,50.0460032,0
            36.2872256,50.0462374,0
            36.2879122,50.0463752,0
            36.288277,50.0464717,0
            36.2888671,50.0464648,0
            36.2927831,50.046451,0
            36.2945646,50.0464443,0
            36.2947577,50.0463823,0
            36.2950367,50.0462376,0
            36.2952512,50.04621,0
            36.2954765,50.0463203,0
            36.2954122,50.0464718,0
            36.295262,50.0465407,0
            36.2952834,50.0470988,0
            36.295144,50.0487178,0
            36.2951976,50.0489314,0
            36.2952405,50.0492001,0
            36.2950474,50.051067,0
            36.2946236,50.054756,0
            36.2945753,50.0553036,0
            36.2945109,50.0552933,0
            36.2945485,50.0547629,0
          </coordinates>
        </LineString>
      </Placemark>
      <Placemark>
        <name>Станция метро Майдан Конституции
</name>
        <description>Троллейбус-55.</description>
        <styleUrl>#icon-1499-F57C00</styleUrl>
        <Point>
          <coordinates>
            36.2304423,49.9916618,0
          </coordinates>
        </Point>
      </Placemark>
      <Placemark>
        <name>Остановка Оперный театр Лысенко
</name>
        <description>Троллейбус-40, 55, 58.</description>
        <styleUrl>#icon-1709-F57C00</styleUrl>
        <Point>
          <coordinates>
            36.2341263,49.9989209,0
          </coordinates>
        </Point>
      </Placemark>
      <Placemark>
        <name>Станция метро Университет
</name>
        <description>Автобус- 31, 62, 96.Троллейбус-2, 40, 55.</description>
        <styleUrl>#icon-1626-F57C00</styleUrl>
        <Point>
          <coordinates>
            36.2369848,50.0064429,0
          </coordinates>
        </Point>
      </Placemark>
      <Placemark>
        <name>Остановка ул. Мыколы Хвылевого</name>
        <description>Автобус- 31, 62, 96.Троллейбус-2, 40, 55.</description>
        <styleUrl>#icon-1532-F57C00</styleUrl>
        <Point>
          <coordinates>
            36.2414695,50.0107696,0
          </coordinates>
        </Point>
      </Placemark>
      <Placemark>
        <name>Остановка Олеся Гончара 
</name>
        <description>Автобус- 31, 62, 96.Троллейбус-2, 40, 55.</description>
        <styleUrl>#icon-1532-F57C00</styleUrl>
        <Point>
          <coordinates>
            36.2438622,50.0129029,0
          </coordinates>
        </Point>
      </Placemark>
      <Placemark>
        <name>Остановка Центральный парк 
</name>
        <description>Автобус- 31, 62, 96.Троллейбус-2, 40, 55.</description>
        <styleUrl>#icon-1720-F57C00</styleUrl>
        <Point>
          <coordinates>
            36.2475904,50.0161328,0
          </coordinates>
        </Point>
      </Placemark>
      <Placemark>
        <name>Остановка Детская железная дорога.
</name>
        <description>Автобус- 31, 62, 96.Троллейбус-2, 40, 55.</description>
        <styleUrl>#icon-1662-F57C00</styleUrl>
        <Point>
          <coordinates>
            36.2527842,50.0206916,0
          </coordinates>
        </Point>
      </Placemark>
      <Placemark>
        <name>Остановка Сокольники 
</name>
        <description>Автобус- 31, 33, 62, 63, 96.Троллейбус-2, 12, 55.</description>
        <styleUrl>#icon-1532-F57C00</styleUrl>
        <Point>
          <coordinates>
            36.2589351,50.0269668,0
          </coordinates>
        </Point>
      </Placemark>
      <Placemark>
        <name>Остановка Велоцентр
</name>
        <description>Автобус- 31, 33, 62, 63, 96.Троллейбус-2, 12, 55.</description>
        <styleUrl>#icon-1522-F57C00</styleUrl>
        <Point>
          <coordinates>
            36.2637412,50.0318249,0
          </coordinates>
        </Point>
      </Placemark>
      <Placemark>
        <name>Остановка Померки
</name>
        <description>Автобус-69э. Троллейбус- 55.</description>
        <styleUrl>#icon-1532-F57C00</styleUrl>
        <Point>
          <coordinates>
            36.2737474,50.0344366,0
          </coordinates>
        </Point>
      </Placemark>
      <Placemark>
        <name>Остановка ул. Рудика
</name>
        <description>Троллейбус- 55.</description>
        <styleUrl>#icon-1532-F57C00</styleUrl>
        <Point>
          <coordinates>
            36.2796268,50.0348293,0
          </coordinates>
        </Point>
      </Placemark>
      <Placemark>
        <name>Остановка ул. Старошишковская</name>
        <description>Троллейбус- 12, 55.</description>
        <styleUrl>#icon-1532-F57C00</styleUrl>
        <Point>
          <coordinates>
            36.2832104,50.0384816,0
          </coordinates>
        </Point>
      </Placemark>
      <Placemark>
        <name>Остановка ХАИ
</name>
        <description>Автобус-31, 63. Троллейбус- 12, 55.</description>
        <styleUrl>#icon-1726-F57C00</styleUrl>
        <Point>
          <coordinates>
            36.2836838,50.0413486,0
          </coordinates>
        </Point>
      </Placemark>
      <Placemark>
        <name>Остановка ул. Академика Проскуры
</name>
        <description>Автобус-31, 63. Троллейбус- 12, 55.</description>
        <styleUrl>#icon-1532-F57C00</styleUrl>
        <Point>
          <coordinates>
            36.2784149,50.0434946,0
          </coordinates>
        </Point>
      </Placemark>
      <Placemark>
        <name>Остановка ул. Вадима Манько
</name>
        <description>Автобус-62. Троллейбус- 2, 55.</description>
        <styleUrl>#icon-1532-F57C00</styleUrl>
        <Point>
          <coordinates>
            36.2772776,50.0443214,0
          </coordinates>
        </Point>
      </Placemark>
      <Placemark>
        <name>Остановка ул. Литвиновка
</name>
        <description>Автобус-33э, 69э. Троллейбус- 55.</description>
        <styleUrl>#icon-1532-F57C00</styleUrl>
        <Point>
          <coordinates>
            36.2815477,50.0451182,0
          </coordinates>
        </Point>
      </Placemark>
      <Placemark>
        <name>Остановка ул. Продольная
</name>
        <description>Автобус-62. Троллейбус- 2, 55.</description>
        <styleUrl>#icon-1532-F57C00</styleUrl>
        <Point>
          <coordinates>
            36.2875129,50.0462266,0
          </coordinates>
        </Point>
      </Placemark>
      <Placemark>
        <name>Остановка пр. Жуковского 
</name>
        <description>Автобус-62. Троллейбус- 2, 55.</description>
        <styleUrl>#icon-1532-F57C00</styleUrl>
        <Point>
          <coordinates>
            36.2934497,50.0463874,0
          </coordinates>
        </Point>
      </Placemark>
      <Placemark>
        <name>Остановка ул. Фестивальная
</name>
        <description>Автобус-62. Троллейбус- 55.</description>
        <styleUrl>#icon-1532-F57C00</styleUrl>
        <Point>
          <coordinates>
            36.2952232,50.0497702,0
          </coordinates>
        </Point>
      </Placemark>
      <Placemark>
        <name>Остановка пер. Физкультурный
</name>
        <description>Автобус-62. Троллейбус- 55.</description>
        <styleUrl>#icon-1532-F57C00</styleUrl>
        <Point>
          <coordinates>
            36.2948884,50.0530932,0
          </coordinates>
        </Point>
      </Placemark>
      <Placemark>
        <name>Остановка поселок Жуковского
</name>
        <description>Автобус-62. Троллейбус- 55.</description>
        <styleUrl>#icon-1532-F57C00</styleUrl>
        <Point>
          <coordinates>
            36.2946502,50.0549358,0
          </coordinates>
        </Point>
      </Placemark>
    </Folder>
    <Folder>
      <name>Маршрут обратно</name>
      <Placemark>
        <name>Линия маршрута</name>
        <styleUrl>#line-000000-4875-nodesc</styleUrl>
        <LineString>
          <tessellate>1</tessellate>
          <coordinates>
            36.2945485,50.0547629,0
            36.2946638,50.053742,0
            36.294932,50.0513653,0
            36.2951466,50.0491952,0
            36.2951197,50.0490023,0
            36.2950607,50.0487784,0
            36.2950446,50.0486613,0
            36.2952217,50.0467495,0
            36.2952002,50.0465531,0
            36.2950661,50.0465152,0
            36.2946745,50.0464808,0
            36.2941756,50.0464911,0
            36.2883874,50.0465014,0
            36.2881406,50.0465049,0
            36.2879261,50.0464429,0
            36.2874003,50.0463395,0
            36.2852707,50.045933,0
            36.2807914,50.0450718,0
            36.2764677,50.0441968,0
            36.276532,50.0441141,0
            36.2767359,50.0440142,0
            36.2768968,50.0439384,0
            36.2785222,50.0433114,0
            36.2798955,50.0427464,0
            36.2826958,50.041613,0
            36.2851473,50.0406001,0
            36.2848844,50.0403589,0
            36.2838384,50.0393012,0
            36.28239,50.0378438,0
            36.281065,50.0364656,0
            36.2799009,50.0353113,0
            36.2792196,50.0345774,0
            36.2748262,50.0345153,0
            36.2741341,50.034505,0
            36.2737586,50.0345257,0
            36.2734207,50.034567,0
            36.272954,50.0347083,0
            36.2726589,50.0348151,0
            36.2681045,50.0366172,0
            36.2663557,50.0347944,0
            36.2650683,50.0334954,0
            36.2637379,50.032124,0
            36.2627455,50.0311143,0
            36.2610932,50.0294327,0
            36.2598648,50.0282058,0
            36.259044,50.0273684,0
            36.2577619,50.0260588,0
            36.2561848,50.0243632,0
            36.2542,50.0223711,0
            36.2536474,50.0218162,0
            36.2526872,50.0208753,0
            36.2522688,50.0205237,0
            36.2517484,50.0200481,0
            36.2508579,50.0192657,0
            36.2502571,50.0187314,0
            36.2489375,50.0175664,0
            36.2482025,50.0169252,0
            36.2470814,50.0159497,0
            36.2461426,50.015119,0
            36.2448551,50.0139918,0
            36.2437394,50.0129921,0
            36.2429561,50.0123061,0
            36.2420227,50.0114787,0
            36.2406065,50.0101894,0
            36.239716,50.0093792,0
            36.2385949,50.0083967,0
            36.2376937,50.007621,0
            36.2374254,50.0073314,0
            36.237125,50.0069452,0
            36.2368836,50.0066177,0
            36.2363311,50.0057764,0
            36.236197,50.0055006,0
            36.2359502,50.0049111,0
            36.2357839,50.0044077,0
            36.2352958,50.0029216,0
            36.2348773,50.0017045,0
            36.2343731,50.0002321,0
            36.233504,49.997708,0
            36.2325116,49.995132,0
            36.2321361,49.9937595,0
            36.2319591,49.9931905,0
            36.2318894,49.9929215,0
            36.2318464,49.99258,0
            36.2317231,49.9925007,0
            36.2316319,49.9923248,0
            36.2316372,49.9921489,0
            36.2316372,49.9920075,0
            36.2317177,49.9918765,0
            36.2318089,49.9918179,0
            36.2316533,49.9916799,0
            36.2314709,49.9916109,0
            36.231133,49.9915937,0
            36.2302876,49.9915501,0
          </coordinates>
        </LineString>
      </Placemark>
      <Placemark>
        <name>Остановка поселок Жуковского
</name>
        <description>Автобус-62. Троллейбус- 55.</description>
        <styleUrl>#icon-1499-000000</styleUrl>
        <Point>
          <coordinates>
            36.2943894,50.0550181,0
          </coordinates>
        </Point>
      </Placemark>
      <Placemark>
        <name>Остановка пер. Физкультурный
</name>
        <description>Автобус-62. Троллейбус- 55.</description>
        <styleUrl>#icon-1532-000000</styleUrl>
        <Point>
          <coordinates>
            36.294717,50.0524734,0
          </coordinates>
        </Point>
      </Placemark>
      <Placemark>
        <name>Остановка ул. Фестивальная
</name>
        <description>Автобус-62. Троллейбус- 55.</description>
        <styleUrl>#icon-1532-000000</styleUrl>
        <Point>
          <coordinates>
            36.2951042,50.0495008,0
          </coordinates>
        </Point>
      </Placemark>
      <Placemark>
        <name>Остановка пр. Жуковского
</name>
        <description>Автобус-62. Троллейбус- 2, 55.</description>
        <styleUrl>#icon-1532-000000</styleUrl>
        <Point>
          <coordinates>
            36.2934443,50.0465211,0
          </coordinates>
        </Point>
      </Placemark>
      <Placemark>
        <name>Остановка ул. Продольная
</name>
        <description>Автобус-62. Троллейбус- 2, 55.</description>
        <styleUrl>#icon-1532-000000</styleUrl>
        <Point>
          <coordinates>
            36.2887865,50.0466177,0
          </coordinates>
        </Point>
      </Placemark>
      <Placemark>
        <name>Остановка Литвиновка
</name>
        <description>Автобус-62. Троллейбус- 2, 55.</description>
        <styleUrl>#icon-1532-000000</styleUrl>
        <Point>
          <coordinates>
            36.2826676,50.0455047,0
          </coordinates>
        </Point>
      </Placemark>
      <Placemark>
        <name>Остановка ул. Вадима Манько
</name>
        <styleUrl>#icon-1532-000000-nodesc</styleUrl>
        <Point>
          <coordinates>
            36.2782047,50.0445757,0
          </coordinates>
        </Point>
      </Placemark>
      <Placemark>
        <name>Остановка ХАИ
</name>
        <description>Автобус-31, 63. Троллейбус- 12, 55.</description>
        <styleUrl>#icon-1726-000000</styleUrl>
        <Point>
          <coordinates>
            36.2825571,50.0415475,0
          </coordinates>
        </Point>
      </Placemark>
      <Placemark>
        <name>Остановка ул. Старошишковская
</name>
        <description>Троллейбус- 12, 55.</description>
        <styleUrl>#icon-1532-000000</styleUrl>
        <Point>
          <coordinates>
            36.2830138,50.0384639,0
          </coordinates>
        </Point>
      </Placemark>
      <Placemark>
        <name>Остановка ул. Рудика
</name>
        <description>Троллейбус- 12, 55.</description>
        <styleUrl>#icon-1532-000000</styleUrl>
        <Point>
          <coordinates>
            36.2796265,50.0351321,0
          </coordinates>
        </Point>
      </Placemark>
      <Placemark>
        <name>Остановка Померки
</name>
        <description>Троллейбус- 12, 55.</description>
        <styleUrl>#icon-1532-000000</styleUrl>
        <Point>
          <coordinates>
            36.2739188,50.0345373,0
          </coordinates>
        </Point>
      </Placemark>
      <Placemark>
        <name>Остановка Мемориал славы
</name>
        <description>Автобус- 31, 33, 62, 63, 96.Троллейбус-2, 12, 55.</description>
        <styleUrl>#icon-1532-000000</styleUrl>
        <Point>
          <coordinates>
            36.267632,50.0362111,0
          </coordinates>
        </Point>
      </Placemark>
      <Placemark>
        <name>Остановка Веелоцентр
</name>
        <description>Автобус- 31, 33, 62, 63, 96.Троллейбус-2, 12, 55.</description>
        <styleUrl>#icon-1522-000000</styleUrl>
        <Point>
          <coordinates>
            36.2638938,50.0324597,0
          </coordinates>
        </Point>
      </Placemark>
      <Placemark>
        <name>Остановка Сокольники
</name>
        <description>Автобус- 31, 62, 96.Троллейбус-2, 40, 55.</description>
        <styleUrl>#icon-1532-000000</styleUrl>
        <Point>
          <coordinates>
            36.2574746,50.025965,0
          </coordinates>
        </Point>
      </Placemark>
      <Placemark>
        <name>Остановка Детская железная дорога
</name>
        <description>Автобус- 31, 62, 96.Троллейбус-2, 40, 55.</description>
        <styleUrl>#icon-1662-000000</styleUrl>
        <Point>
          <coordinates>
            36.2519907,50.0202753,0
          </coordinates>
        </Point>
      </Placemark>
      <Placemark>
        <name>Остановка Центральный парк
</name>
        <description>Автобус- 31, 62, 96.Троллейбус-2, 40, 55.</description>
        <styleUrl>#icon-1720-000000</styleUrl>
        <Point>
          <coordinates>
            36.2469634,50.0158844,0
          </coordinates>
        </Point>
      </Placemark>
      <Placemark>
        <name>Остановка ул. Олеся Гончара
</name>
        <description>Автобус- 31, 62, 96.Троллейбус-2, 40, 55.</description>
        <styleUrl>#icon-1532-000000</styleUrl>
        <Point>
          <coordinates>
            36.2437614,50.0131127,0
          </coordinates>
        </Point>
      </Placemark>
      <Placemark>
        <name>Остановка ул. Миколы Хвылевого
</name>
        <description>Автобус- 31, 62, 96.Троллейбус-2, 40, 55.</description>
        <styleUrl>#icon-1532-000000</styleUrl>
        <Point>
          <coordinates>
            36.2407624,50.0103628,0
          </coordinates>
        </Point>
      </Placemark>
      <Placemark>
        <name>Станция метро Университет
</name>
        <description>Автобус- 31, 62, 96.Троллейбус-2, 40, 55.</description>
        <styleUrl>#icon-1626-000000</styleUrl>
        <Point>
          <coordinates>
            36.2367126,50.0065131,0
          </coordinates>
        </Point>
      </Placemark>
      <Placemark>
        <name>Остановка сад Шевченко
</name>
        <description>Троллейбус-40, 55, 58.</description>
        <styleUrl>#icon-1720-000000</styleUrl>
        <Point>
          <coordinates>
            36.2348552,50.002002,0
          </coordinates>
        </Point>
      </Placemark>
      <Placemark>
        <name>Остановка дом Саламандра
</name>
        <description>Троллейбус-40, 55, 58.</description>
        <styleUrl>#icon-1532-000000</styleUrl>
        <Point>
          <coordinates>
            36.2329502,49.9966787,0
          </coordinates>
        </Point>
      </Placemark>
      <Placemark>
        <name>Станция метро Площадь Конституции
</name>
        <description>Троллейбус-40, 55, 58.</description>
        <styleUrl>#icon-1626-000000</styleUrl>
        <Point>
          <coordinates>
            36.2315751,49.9917363,0
          </coordinates>
        </Point>
      </Placemark>
    </Folder>
  </Document>
</kml>
