<?xml version="1.0" encoding="UTF-8"?>
<kml xmlns="http://www.opengis.net/kml/2.2">
  <Document>
    <name>Троллейбусный маршрут №56 Харьков (м. Академика Барабашова - Восточная Салтовка)</name>
    <description>Подробно https://kharkiv.inform.city/-ru/-tr/tr_city/tr_city_tb/</description>
    <Style id="icon-1499-000000-normal">
      <IconStyle>
        <color>ff000000</color>
        <scale>1</scale>
        <Icon>
          <href>https://www.gstatic.com/mapspro/images/stock/503-wht-blank_maps.png</href>
        </Icon>
      </IconStyle>
      <LabelStyle>
        <scale>0</scale>
      </LabelStyle>
    </Style>
    <Style id="icon-1499-000000-highlight">
      <IconStyle>
        <color>ff000000</color>
        <scale>1</scale>
        <Icon>
          <href>https://www.gstatic.com/mapspro/images/stock/503-wht-blank_maps.png</href>
        </Icon>
      </IconStyle>
      <LabelStyle>
        <scale>1</scale>
      </LabelStyle>
    </Style>
    <StyleMap id="icon-1499-000000">
      <Pair>
        <key>normal</key>
        <styleUrl>#icon-1499-000000-normal</styleUrl>
      </Pair>
      <Pair>
        <key>highlight</key>
        <styleUrl>#icon-1499-000000-highlight</styleUrl>
      </Pair>
    </StyleMap>
    <Style id="icon-1499-F57C00-normal">
      <IconStyle>
        <color>ff007cf5</color>
        <scale>1</scale>
        <Icon>
          <href>https://www.gstatic.com/mapspro/images/stock/503-wht-blank_maps.png</href>
        </Icon>
      </IconStyle>
      <LabelStyle>
        <scale>0</scale>
      </LabelStyle>
    </Style>
    <Style id="icon-1499-F57C00-highlight">
      <IconStyle>
        <color>ff007cf5</color>
        <scale>1</scale>
        <Icon>
          <href>https://www.gstatic.com/mapspro/images/stock/503-wht-blank_maps.png</href>
        </Icon>
      </IconStyle>
      <LabelStyle>
        <scale>1</scale>
      </LabelStyle>
    </Style>
    <StyleMap id="icon-1499-F57C00">
      <Pair>
        <key>normal</key>
        <styleUrl>#icon-1499-F57C00-normal</styleUrl>
      </Pair>
      <Pair>
        <key>highlight</key>
        <styleUrl>#icon-1499-F57C00-highlight</styleUrl>
      </Pair>
    </StyleMap>
    <Style id="icon-1532-000000-normal">
      <IconStyle>
        <color>ff000000</color>
        <scale>1</scale>
        <Icon>
          <href>https://www.gstatic.com/mapspro/images/stock/503-wht-blank_maps.png</href>
        </Icon>
      </IconStyle>
      <LabelStyle>
        <scale>0</scale>
      </LabelStyle>
    </Style>
    <Style id="icon-1532-000000-highlight">
      <IconStyle>
        <color>ff000000</color>
        <scale>1</scale>
        <Icon>
          <href>https://www.gstatic.com/mapspro/images/stock/503-wht-blank_maps.png</href>
        </Icon>
      </IconStyle>
      <LabelStyle>
        <scale>1</scale>
      </LabelStyle>
    </Style>
    <StyleMap id="icon-1532-000000">
      <Pair>
        <key>normal</key>
        <styleUrl>#icon-1532-000000-normal</styleUrl>
      </Pair>
      <Pair>
        <key>highlight</key>
        <styleUrl>#icon-1532-000000-highlight</styleUrl>
      </Pair>
    </StyleMap>
    <Style id="icon-1532-F57C00-normal">
      <IconStyle>
        <color>ff007cf5</color>
        <scale>1</scale>
        <Icon>
          <href>https://www.gstatic.com/mapspro/images/stock/503-wht-blank_maps.png</href>
        </Icon>
      </IconStyle>
      <LabelStyle>
        <scale>0</scale>
      </LabelStyle>
    </Style>
    <Style id="icon-1532-F57C00-highlight">
      <IconStyle>
        <color>ff007cf5</color>
        <scale>1</scale>
        <Icon>
          <href>https://www.gstatic.com/mapspro/images/stock/503-wht-blank_maps.png</href>
        </Icon>
      </IconStyle>
      <LabelStyle>
        <scale>1</scale>
      </LabelStyle>
    </Style>
    <StyleMap id="icon-1532-F57C00">
      <Pair>
        <key>normal</key>
        <styleUrl>#icon-1532-F57C00-normal</styleUrl>
      </Pair>
      <Pair>
        <key>highlight</key>
        <styleUrl>#icon-1532-F57C00-highlight</styleUrl>
      </Pair>
    </StyleMap>
    <Style id="icon-1546-000000-normal">
      <IconStyle>
        <color>ff000000</color>
        <scale>1</scale>
        <Icon>
          <href>https://www.gstatic.com/mapspro/images/stock/503-wht-blank_maps.png</href>
        </Icon>
      </IconStyle>
      <LabelStyle>
        <scale>0</scale>
      </LabelStyle>
    </Style>
    <Style id="icon-1546-000000-highlight">
      <IconStyle>
        <color>ff000000</color>
        <scale>1</scale>
        <Icon>
          <href>https://www.gstatic.com/mapspro/images/stock/503-wht-blank_maps.png</href>
        </Icon>
      </IconStyle>
      <LabelStyle>
        <scale>1</scale>
      </LabelStyle>
    </Style>
    <StyleMap id="icon-1546-000000">
      <Pair>
        <key>normal</key>
        <styleUrl>#icon-1546-000000-normal</styleUrl>
      </Pair>
      <Pair>
        <key>highlight</key>
        <styleUrl>#icon-1546-000000-highlight</styleUrl>
      </Pair>
    </StyleMap>
    <Style id="icon-1546-F57C00-normal">
      <IconStyle>
        <color>ff007cf5</color>
        <scale>1</scale>
        <Icon>
          <href>https://www.gstatic.com/mapspro/images/stock/503-wht-blank_maps.png</href>
        </Icon>
      </IconStyle>
      <LabelStyle>
        <scale>0</scale>
      </LabelStyle>
    </Style>
    <Style id="icon-1546-F57C00-highlight">
      <IconStyle>
        <color>ff007cf5</color>
        <scale>1</scale>
        <Icon>
          <href>https://www.gstatic.com/mapspro/images/stock/503-wht-blank_maps.png</href>
        </Icon>
      </IconStyle>
      <LabelStyle>
        <scale>1</scale>
      </LabelStyle>
    </Style>
    <StyleMap id="icon-1546-F57C00">
      <Pair>
        <key>normal</key>
        <styleUrl>#icon-1546-F57C00-normal</styleUrl>
      </Pair>
      <Pair>
        <key>highlight</key>
        <styleUrl>#icon-1546-F57C00-highlight</styleUrl>
      </Pair>
    </StyleMap>
    <Style id="icon-1626-F57C00-normal">
      <IconStyle>
        <color>ff007cf5</color>
        <scale>1</scale>
        <Icon>
          <href>https://www.gstatic.com/mapspro/images/stock/503-wht-blank_maps.png</href>
        </Icon>
      </IconStyle>
      <LabelStyle>
        <scale>0</scale>
      </LabelStyle>
    </Style>
    <Style id="icon-1626-F57C00-highlight">
      <IconStyle>
        <color>ff007cf5</color>
        <scale>1</scale>
        <Icon>
          <href>https://www.gstatic.com/mapspro/images/stock/503-wht-blank_maps.png</href>
        </Icon>
      </IconStyle>
      <LabelStyle>
        <scale>1</scale>
      </LabelStyle>
    </Style>
    <StyleMap id="icon-1626-F57C00">
      <Pair>
        <key>normal</key>
        <styleUrl>#icon-1626-F57C00-normal</styleUrl>
      </Pair>
      <Pair>
        <key>highlight</key>
        <styleUrl>#icon-1626-F57C00-highlight</styleUrl>
      </Pair>
    </StyleMap>
    <Style id="icon-1883-000000-normal">
      <IconStyle>
        <color>ff000000</color>
        <scale>1</scale>
        <Icon>
          <href>https://www.gstatic.com/mapspro/images/stock/503-wht-blank_maps.png</href>
        </Icon>
      </IconStyle>
      <LabelStyle>
        <scale>0</scale>
      </LabelStyle>
    </Style>
    <Style id="icon-1883-000000-highlight">
      <IconStyle>
        <color>ff000000</color>
        <scale>1</scale>
        <Icon>
          <href>https://www.gstatic.com/mapspro/images/stock/503-wht-blank_maps.png</href>
        </Icon>
      </IconStyle>
      <LabelStyle>
        <scale>1</scale>
      </LabelStyle>
    </Style>
    <StyleMap id="icon-1883-000000">
      <Pair>
        <key>normal</key>
        <styleUrl>#icon-1883-000000-normal</styleUrl>
      </Pair>
      <Pair>
        <key>highlight</key>
        <styleUrl>#icon-1883-000000-highlight</styleUrl>
      </Pair>
    </StyleMap>
    <Style id="icon-1883-F57C00-normal">
      <IconStyle>
        <color>ff007cf5</color>
        <scale>1</scale>
        <Icon>
          <href>https://www.gstatic.com/mapspro/images/stock/503-wht-blank_maps.png</href>
        </Icon>
      </IconStyle>
      <LabelStyle>
        <scale>0</scale>
      </LabelStyle>
    </Style>
    <Style id="icon-1883-F57C00-highlight">
      <IconStyle>
        <color>ff007cf5</color>
        <scale>1</scale>
        <Icon>
          <href>https://www.gstatic.com/mapspro/images/stock/503-wht-blank_maps.png</href>
        </Icon>
      </IconStyle>
      <LabelStyle>
        <scale>1</scale>
      </LabelStyle>
    </Style>
    <StyleMap id="icon-1883-F57C00">
      <Pair>
        <key>normal</key>
        <styleUrl>#icon-1883-F57C00-normal</styleUrl>
      </Pair>
      <Pair>
        <key>highlight</key>
        <styleUrl>#icon-1883-F57C00-highlight</styleUrl>
      </Pair>
    </StyleMap>
    <Style id="line-000000-5069-nodesc-normal">
      <LineStyle>
        <color>ff000000</color>
        <width>5.069</width>
      </LineStyle>
      <BalloonStyle>
        <text><![CDATA[<h3>$[name]</h3>]]></text>
      </BalloonStyle>
    </Style>
    <Style id="line-000000-5069-nodesc-highlight">
      <LineStyle>
        <color>ff000000</color>
        <width>7.6035</width>
      </LineStyle>
      <BalloonStyle>
        <text><![CDATA[<h3>$[name]</h3>]]></text>
      </BalloonStyle>
    </Style>
    <StyleMap id="line-000000-5069-nodesc">
      <Pair>
        <key>normal</key>
        <styleUrl>#line-000000-5069-nodesc-normal</styleUrl>
      </Pair>
      <Pair>
        <key>highlight</key>
        <styleUrl>#line-000000-5069-nodesc-highlight</styleUrl>
      </Pair>
    </StyleMap>
    <Style id="line-F57C00-5650-nodesc-normal">
      <LineStyle>
        <color>ff007cf5</color>
        <width>5.65</width>
      </LineStyle>
      <BalloonStyle>
        <text><![CDATA[<h3>$[name]</h3>]]></text>
      </BalloonStyle>
    </Style>
    <Style id="line-F57C00-5650-nodesc-highlight">
      <LineStyle>
        <color>ff007cf5</color>
        <width>8.475</width>
      </LineStyle>
      <BalloonStyle>
        <text><![CDATA[<h3>$[name]</h3>]]></text>
      </BalloonStyle>
    </Style>
    <StyleMap id="line-F57C00-5650-nodesc">
      <Pair>
        <key>normal</key>
        <styleUrl>#line-F57C00-5650-nodesc-normal</styleUrl>
      </Pair>
      <Pair>
        <key>highlight</key>
        <styleUrl>#line-F57C00-5650-nodesc-highlight</styleUrl>
      </Pair>
    </StyleMap>
    <Folder>
      <name>Маршрут обратно</name>
      <Placemark>
        <name>Линия маршрута</name>
        <styleUrl>#line-F57C00-5650-nodesc</styleUrl>
        <LineString>
          <tessellate>1</tessellate>
          <coordinates>
            36.3656959,50.00448,0
            36.3628313,50.0056523,0
            36.3614902,50.0062177,0
            36.3591621,50.0071279,0
            36.3563619,50.008307,0
            36.3523493,50.0098032,0
            36.3506219,50.0103617,0
            36.3497958,50.0106375,0
            36.3457188,50.0118924,0
            36.3410947,50.013354,0
            36.3391421,50.0118234,0
            36.3360522,50.0094654,0
            36.335623,50.0091758,0
            36.3334236,50.0067901,0
            36.3316963,50.0047352,0
            36.3312564,50.004087,0
            36.330441,50.0027354,0
            36.3301513,50.0022182,0
            36.3295827,50.0010045,0
            36.3292501,50.0000942,0
            36.3290248,49.9991562,0
            36.3288638,49.9984666,0
            36.3288102,49.9975149,0
            36.318768,49.9982597,0
            36.3157639,49.9985011,0
            36.3145301,49.9989907,0
            36.311923,50.0001286,0
            36.3084898,50.0016113,0
            36.3075457,50.0019561,0
            36.3070843,50.0021285,0
            36.3060865,50.0023216,0
            36.3050566,50.0023975,0
            36.3045201,50.0023699,0
            36.3031146,50.0022872,0
            36.303415,50.0020665,0
            36.3036833,50.0018941,0
            36.3039944,50.001832,0
            36.3041983,50.0018389,0
          </coordinates>
        </LineString>
      </Placemark>
      <Placemark>
        <name>Остановка Восточная Салтовка
</name>
        <description>Троллейбус-34, 56.</description>
        <styleUrl>#icon-1499-F57C00</styleUrl>
        <Point>
          <coordinates>
            36.3658138,50.0044904,0
          </coordinates>
        </Point>
      </Placemark>
      <Placemark>
        <name>Остановка ул. Гарибальди
</name>
        <description>Троллейбус-34, 56.</description>
        <styleUrl>#icon-1532-F57C00</styleUrl>
        <Point>
          <coordinates>
            36.3583797,50.0077062,0
          </coordinates>
        </Point>
      </Placemark>
      <Placemark>
        <name>Остановка пр. Тракторостроителей
</name>
        <description>Троллейбус-34, 56</description>
        <styleUrl>#icon-1883-F57C00</styleUrl>
        <Point>
          <coordinates>
            36.3488525,50.0109675,0
          </coordinates>
        </Point>
      </Placemark>
      <Placemark>
        <name>Остановка ул. Валентиновская
</name>
        <description>Автобус -63. Маршрутка - 259э. Троллейбус-31, 35, 56.</description>
        <styleUrl>#icon-1532-F57C00</styleUrl>
        <Point>
          <coordinates>
            36.340527,50.0129188,0
          </coordinates>
        </Point>
      </Placemark>
      <Placemark>
        <name>Остановка ул. Владислава Зубенко
</name>
        <description>Автобус -63. Маршрутка - 259э. Троллейбус-31, 35, 56.</description>
        <styleUrl>#icon-1532-F57C00</styleUrl>
        <Point>
          <coordinates>
            36.3348669,50.0086731,0
          </coordinates>
        </Point>
      </Placemark>
      <Placemark>
        <name>Остановка 605 микрорайон
</name>
        <description>Автобус -63. Маршрутка - 259э. Троллейбус-31, 35, 56.</description>
        <styleUrl>#icon-1546-F57C00</styleUrl>
        <Point>
          <coordinates>
            36.3318413,50.0050461,0
          </coordinates>
        </Point>
      </Placemark>
      <Placemark>
        <name>Остановка Василя Стуса
</name>
        <description>Автобус -63. Маршрутка - 259э. Троллейбус-31, 35, 56.</description>
        <styleUrl>#icon-1532-F57C00</styleUrl>
        <Point>
          <coordinates>
            36.3301462,50.0024396,0
          </coordinates>
        </Point>
      </Placemark>
      <Placemark>
        <name>Остановка ул. Гвардейцев Широнинцев
</name>
        <description>Автобус -63.  Маршрутка - 259э. Троллейбус-31, 35, 56.</description>
        <styleUrl>#icon-1532-F57C00</styleUrl>
        <Point>
          <coordinates>
            36.3286013,49.9982742,0
          </coordinates>
        </Point>
      </Placemark>
      <Placemark>
        <name>Остановка пр. Льва Ландау
</name>
        <description>Автобус-81, 83. Маршрутка - 38э, 121э. Троллейбус-24,  35, 56, 57.</description>
        <styleUrl>#icon-1532-F57C00</styleUrl>
        <Point>
          <coordinates>
            36.3151987,49.9986751,0
          </coordinates>
        </Point>
      </Placemark>
      <Placemark>
        <name>Станция метро Академика Барабашова
</name>
        <description>Троллейбус-24, 56.</description>
        <styleUrl>#icon-1626-F57C00</styleUrl>
        <Point>
          <coordinates>
            36.3041125,50.0023775,0
          </coordinates>
        </Point>
      </Placemark>
    </Folder>
    <Folder>
      <name>Маршрут туда</name>
      <Placemark>
        <name>Линия маршрута</name>
        <styleUrl>#line-000000-5069-nodesc</styleUrl>
        <LineString>
          <tessellate>1</tessellate>
          <coordinates>
            36.3041983,50.0018389,0
            36.3045791,50.0018872,0
            36.3048366,50.0020182,0
            36.3051692,50.0023009,0
            36.3054696,50.0022872,0
            36.306403,50.0021837,0
            36.3071326,50.0020044,0
            36.3077334,50.0018044,0
            36.3104907,50.0005769,0
            36.3130549,49.9995149,0
            36.3157157,49.9983976,0
            36.3161341,49.9983425,0
            36.3290194,49.9973562,0
            36.328998,49.997639,0
            36.3290409,49.9981631,0
            36.3292984,49.9995149,0
            36.329513,50.000239,0
            36.3297705,50.0009424,0
            36.3301781,50.0018044,0
            36.3305,50.0025354,0
            36.3315514,50.0042801,0
            36.3321415,50.0050041,0
            36.3333217,50.0064798,0
            36.3348452,50.0081002,0
            36.3354138,50.0086518,0
            36.3358644,50.0091344,0
            36.3367013,50.009817,0
            36.3379673,50.0108168,0
            36.3400916,50.0123819,0
            36.3411537,50.0131954,0
            36.3426021,50.0127542,0
            36.3503162,50.0103342,0
            36.3556269,50.0084587,0
            36.3579766,50.0074865,0
            36.3595752,50.0068452,0
            36.3655404,50.0044318,0
            36.3662592,50.0041421,0
            36.3662056,50.0039767,0
            36.36627,50.0038939,0
            36.3664631,50.0038456,0
            36.3666133,50.0038939,0
            36.3666884,50.0039904,0
            36.3666776,50.0040939,0
            36.3665489,50.0041559,0
            36.3663558,50.0042042,0
            36.3656959,50.00448,0
          </coordinates>
        </LineString>
      </Placemark>
      <Placemark>
        <name>Станция метро Академика Барабашова
</name>
        <description>Троллейбус-24, 56.</description>
        <styleUrl>#icon-1499-000000</styleUrl>
        <Point>
          <coordinates>
            36.3041466,50.0017068,0
          </coordinates>
        </Point>
      </Placemark>
      <Placemark>
        <name>Остановка пр. Юбилейный
</name>
        <description>Автобус-81, 83.  Маршрутка - 38э, 121э, 259э. Троллейбус-19,20,  24, 31, 35, 56.</description>
        <styleUrl>#icon-1532-000000</styleUrl>
        <Point>
          <coordinates>
            36.3169713,49.9980948,0
          </coordinates>
        </Point>
      </Placemark>
      <Placemark>
        <name>Остановка ул. Гвардейцев Широнинцев
</name>
        <description>Автобус -63. Маршрутка - 259э. Троллейбус-31, 35, 56.</description>
        <styleUrl>#icon-1532-000000</styleUrl>
        <Point>
          <coordinates>
            36.3291288,49.9979343,0
          </coordinates>
        </Point>
      </Placemark>
      <Placemark>
        <name>Остановка ул. Василя Стуса
</name>
        <description>Автобус -63. Маршрутка - 259э. Троллейбус-31, 35, 56.</description>
        <styleUrl>#icon-1532-000000</styleUrl>
        <Point>
          <coordinates>
            36.3308883,50.0030171,0
          </coordinates>
        </Point>
      </Placemark>
      <Placemark>
        <name>Остановка ул. Владислава Зубенка
</name>
        <description>Автобус -63. Маршрутка - 259э. Троллейбус-31, 35, 56.</description>
        <styleUrl>#icon-1532-000000</styleUrl>
        <Point>
          <coordinates>
            36.3356587,50.0088737,0
          </coordinates>
        </Point>
      </Placemark>
      <Placemark>
        <name>Остановка ул. Валентиновская
</name>
        <description>Автобус -272. Троллейбус-34, 56.</description>
        <styleUrl>#icon-1532-000000</styleUrl>
        <Point>
          <coordinates>
            36.3417741,50.0128865,0
          </coordinates>
        </Point>
      </Placemark>
      <Placemark>
        <name>Остановка пр. Тракторостроителей
</name>
        <description>Троллейбус-34, 56.</description>
        <styleUrl>#icon-1883-000000</styleUrl>
        <Point>
          <coordinates>
            36.3512473,50.0099899,0
          </coordinates>
        </Point>
      </Placemark>
      <Placemark>
        <name>Остановка ул. Гарибальди
</name>
        <description>Троллейбус-34, 56.</description>
        <styleUrl>#icon-1532-000000</styleUrl>
        <Point>
          <coordinates>
            36.3572837,50.0076865,0
          </coordinates>
        </Point>
      </Placemark>
      <Placemark>
        <name>Остановка 635 микрорайон
</name>
        <description>Троллейбус-34, 56.</description>
        <styleUrl>#icon-1546-000000</styleUrl>
        <Point>
          <coordinates>
            36.3618333,50.0058766,0
          </coordinates>
        </Point>
      </Placemark>
      <Placemark>
        <name>Остановка Восточная Салтовка
</name>
        <description>Троллейбус-34, 56.</description>
        <styleUrl>#icon-1532-000000</styleUrl>
        <Point>
          <coordinates>
            36.3657389,50.0043283,0
          </coordinates>
        </Point>
      </Placemark>
    </Folder>
  </Document>
</kml>
